name,addr,phone,link,region,x,y,NAVER_addr
HC힐링안마원,부산광역시 동구 범일동 901 동성빌딩 2층,204-7575,http://xn--hz2b11ew7coa499cy81avya.kr/skin/sub_page.php?page_idx=141,부산,129.0589673,35.140048,부산광역시 동구 범일로 113
가구거리 햇님안마원,"부산광역시 동구 중앙대로 460번길 32, 1층 (좌천동)",632-6544,http://xn--hz2b11ew7coa499cy81avya.kr/skin/sub_page.php?page_idx=141,부산,129.0562845,35.1351222,부산광역시 동구 중앙대로460번길 32
가나약손119안마원,부산광역시 해운대구 중동1로 38 (중동),731-7578,http://xn--hz2b11ew7coa499cy81avya.kr/skin/sub_page.php?page_idx=141,부산,129.1631548,35.1621831,부산광역시 해운대구 중동1로 38
가람안마원,부산광역시 해운대구 해운대로469번길 138 (우동),747-1771,http://xn--hz2b11ew7coa499cy81avya.kr/skin/sub_page.php?page_idx=141,부산,129.1415662,35.1684621,부산광역시 해운대구 해운대로469번길 138
가야안마지압원,부산광역시 부산진구 가야대로 510번길 84 (가야동),991-4638,http://xn--hz2b11ew7coa499cy81avya.kr/skin/sub_page.php?page_idx=141,부산,129.0283136,35.1492892,부산광역시 부산진구 가야대로510번길 84
가온안마지압원,"부산광역시 수영구 수영로 691-10, 2층 (수영동)",759-7577,http://xn--hz2b11ew7coa499cy81avya.kr/skin/sub_page.php?page_idx=141,부산,129.1154415,35.1682284,부산광역시 수영구 수영로 691-10
가자장수힐링안마원,부산광역시 동구 조방로 39-11 (범일동),635-7575,http://xn--hz2b11ew7coa499cy81avya.kr/skin/sub_page.php?page_idx=141,부산,129.0610574,35.1393896,부산광역시 동구 조방로 39-11
가장좋은날안마지압원,부산광역시 사하구 승학로71번길 30 당리푸르지오 상가 110동 303호 (당리동),205-7577,http://xn--hz2b11ew7coa499cy81avya.kr/skin/sub_page.php?page_idx=141,부산,128.9770189,35.1047274,부산광역시 사하구 승학로71번길 30 당리푸르지오
강남힐링지압안마원,"부산광역시 부산진구 전포대로300번길20, 궁전스카이오피스텔 3층 301호 (전포동)",805-2816,http://xn--hz2b11ew7coa499cy81avya.kr/skin/sub_page.php?page_idx=141,부산,129.0662399,35.1645664,부산광역시 부산진구 전포대로300번길 20
강동근안마원,부산광역시 사하구 낙동대로 352 (당리동),529-7070,http://xn--hz2b11ew7coa499cy81avya.kr/skin/sub_page.php?page_idx=141,부산,128.9790964,35.1013522,부산광역시 사하구 낙동대로 352
건강사랑지압안마원,부산광역시 동구 중앙대로 181 (초량동),204-3312,http://xn--hz2b11ew7coa499cy81avya.kr/skin/sub_page.php?page_idx=141,부산,129.0386074,35.1136094,부산광역시 동구 중앙대로 181
건강안마지압원,"부산광역시 부산진구 가야대로 761, 3층 (부전동)",711-6722,http://xn--hz2b11ew7coa499cy81avya.kr/skin/sub_page.php?page_idx=141,부산,129.0548714,35.1578968,부산광역시 부산진구 가야대로 761
경주지압안마원,"부산광역시 동래구 석사로 34번길 22, 2층 (사직동)",010-3099-6662,http://xn--hz2b11ew7coa499cy81avya.kr/skin/sub_page.php?page_idx=141,부산,129.0637308,35.198846,부산광역시 동래구 석사로34번길 22
광안건강안마원,부산광역시 수영구 광안로7번길 8 (광안동),728-1844,http://xn--hz2b11ew7coa499cy81avya.kr/skin/sub_page.php?page_idx=141,부산,129.1140393,35.1573958,부산광역시 수영구 광안로7번길 8
그린안마원,부산광역시 북구 백양대로 1022-1 (구포동),343-7579,http://xn--hz2b11ew7coa499cy81avya.kr/skin/sub_page.php?page_idx=141,부산,128.9952531,35.1969171,부산광역시 북구 백양대로 1022-1
금봉안마원,부산광역시 부산진구 범일로 160 (범천동) 5층,636-3836,http://xn--hz2b11ew7coa499cy81avya.kr/skin/sub_page.php?page_idx=141,부산,129.0595916,35.1443168,부산광역시 부산진구 범일로 160 중앙빌딩
금정안마지압원,부산광역시 금정구 구서중앙로15번길 9 (구서동),582-9896,http://xn--hz2b11ew7coa499cy81avya.kr/skin/sub_page.php?page_idx=141,부산,129.0895968,35.2544264,부산광역시 금정구 구서중앙로15번길 9
기장지압안마원,부산광역시 기장군 기장읍 대청로22번길 19,723-3631,http://xn--hz2b11ew7coa499cy81avya.kr/skin/sub_page.php?page_idx=141,부산,129.2125811,35.2369237,부산광역시 기장군 기장읍 대청로22번길 19
김성심건강안마원,"부산광역시 남구 수영로 282, 310호 (대연동, 현대오피스텔)",918-7575,http://xn--hz2b11ew7coa499cy81avya.kr/skin/sub_page.php?page_idx=141,부산,129.0974388,35.1358271,부산광역시 남구 수영로 282 현대오피스텔
김현희안마원,부산광역시 사상구 가야대로 330 (주례동),805-7575,http://xn--hz2b11ew7coa499cy81avya.kr/skin/sub_page.php?page_idx=141,부산,129.0085799,35.15068,부산광역시 사상구 가야대로 330 삼선빌딩
노벨안마원,"부산광역시 부산진구 새싹로 30, 경동파크타워 1층 (부전동)",803-5599,http://xn--hz2b11ew7coa499cy81avya.kr/skin/sub_page.php?page_idx=141,부산,129.0573287,35.1606013,부산광역시 부산진구 새싹로 30 경동파크타워
뉴그린안마원,"부산광역시 중구 중앙대로 129, 5층 503호 (대창동1가, 삼성빌딩)",466-8575,http://xn--hz2b11ew7coa499cy81avya.kr/skin/sub_page.php?page_idx=141,부산,129.0368231,35.1092487,부산광역시 중구 중앙대로 129
늘푸른세상안마원,부산광역시 부산진구 서전로58번길 80 (전포동),816-9766,http://xn--hz2b11ew7coa499cy81avya.kr/skin/sub_page.php?page_idx=141,부산,129.0660068,35.1541984,부산광역시 부산진구 서전로58번길 80
다손안마원,"부산광역시 사상구 사상로 512 2층 a동 204호 (모라동, 모라리버빌)",304-9801,http://xn--hz2b11ew7coa499cy81avya.kr/skin/sub_page.php?page_idx=141,부산,128.9893371,35.1900365,부산광역시 사상구 사상로 512 모라리버빌
다원약손안마원,부산광역시 해운대구 윗반송로51번길 37-29 (반송동),542-8397,http://xn--hz2b11ew7coa499cy81avya.kr/skin/sub_page.php?page_idx=141,부산,129.1546607,35.2302248,부산광역시 해운대구 윗반송로51번길 37-29
대동안마지압원,부산광역시 서구 구덕로 284 (동대신동1가),245-6123,http://xn--hz2b11ew7coa499cy81avya.kr/skin/sub_page.php?page_idx=141,부산,129.0185183,35.1094028,부산광역시 서구 구덕로 284
대신안마원,부산광역시 서구 구덕로265번길 1 (서대신동1가),247-3799,http://xn--hz2b11ew7coa499cy81avya.kr/skin/sub_page.php?page_idx=141,부산,129.0194981,35.1080159,부산광역시 서구 구덕로265번길 1
대연명인지압원,"부산광역시 남구 수영로 196번길 9, 2층 (대연동)",622-2500,http://xn--hz2b11ew7coa499cy81avya.kr/skin/sub_page.php?page_idx=141,부산,129.0881501,35.1344572,부산광역시 남구 수영로196번길 9 동키치킨
더죤지압안마원,부산광역시 사상구 사상로 175 (괘법동),311-7677,http://xn--hz2b11ew7coa499cy81avya.kr/skin/sub_page.php?page_idx=141,부산,128.9855625,35.1610717,부산광역시 사상구 사상로 175 김정열비뇨기과
더테라피전통안마지압원,부산광역시 부산진구 중앙대로 969번길 11 (양정동),852-7845,http://xn--hz2b11ew7coa499cy81avya.kr/skin/sub_page.php?page_idx=141,부산,129.0723655,35.1759123,부산광역시 부산진구 중앙대로969번길 11 양정롯데갤러리움아파트
덕심지압원,"부산광역시 사하구 낙동대로356번길  19, 1층 (당리동)",903-6517,http://xn--hz2b11ew7coa499cy81avya.kr/skin/sub_page.php?page_idx=141,부산,128.9788456,35.1015364,부산광역시 사하구 낙동대로 356
동광지압안마원,"부산광역시 중구 동광길47, 3층 301호 (동광동5가, 지엠빌딩)",468-2285,http://xn--hz2b11ew7coa499cy81avya.kr/skin/sub_page.php?page_idx=141,부산,129.0345361,35.1048967,부산광역시 중구 동광길 47
동방JC안마원,"부산광역시 해운대구 해운대해변로203, 오션타워 5층 521호 (우동)",010-7521-0120,http://xn--hz2b11ew7coa499cy81avya.kr/skin/sub_page.php?page_idx=141,부산,129.1537907,35.1588118,부산광역시 해운대구 해운대해변로 203 오션타워
동방수기요법안마원,부산광역시 동래구 아시아드대로 157 (사직동),503-7504,http://xn--hz2b11ew7coa499cy81avya.kr/skin/sub_page.php?page_idx=141,부산,129.064959,35.1984834,부산광역시 동래구 아시아드대로 157
동보지압원,"부산광역시 부산진구 중앙대로 940, 4층 (양정동, 인제빌딩)",851-2998,http://xn--hz2b11ew7coa499cy81avya.kr/skin/sub_page.php?page_idx=141,부산,129.0720991,35.1735997,부산광역시 부산진구 중앙대로 940
동삼안마원,부산광역시 영도구 동삼로 68 (동삼동),403-4174,http://xn--hz2b11ew7coa499cy81avya.kr/skin/sub_page.php?page_idx=141,부산,129.0703957,35.0795044,부산광역시 영도구 동삼로 68
동의안마원,부산광역시 부산진구 가야공원로14번길 82 (개금동),894-8103,http://xn--hz2b11ew7coa499cy81avya.kr/skin/sub_page.php?page_idx=141,부산,129.0253091,35.1521527,부산광역시 부산진구 가야공원로14번길 82
두드림안마원,부산광역시 사하구 낙동대로450번길 12 (당리동),201-0440,http://xn--hz2b11ew7coa499cy81avya.kr/skin/sub_page.php?page_idx=141,부산,128.9702333,35.1057892,부산광역시 사하구 낙동대로450번길 12
로하스안마원,부산광역시 사상구 가야대로 258 (주례동),312-8575,http://xn--hz2b11ew7coa499cy81avya.kr/skin/sub_page.php?page_idx=141,부산,129.0009258,35.1500439,부산광역시 사상구 가야대로 258 부산의료기
마이더스안마원,부산광역시 해운대구 재반로 89-5 (재송동),783-1950,http://xn--hz2b11ew7coa499cy81avya.kr/skin/sub_page.php?page_idx=141,부산,129.1251437,35.1867108,부산광역시 해운대구 재반로 89-5 김해뒷고기
명가정통지압안마원,"부산광역시 부산진구 동평로 350, 양정현대프라자 5층 507호 (양정동)",633-2551,http://xn--hz2b11ew7coa499cy81avya.kr/skin/sub_page.php?page_idx=141,부산,129.0632545,35.1745373,부산광역시 부산진구 동평로 350 양정현대프라자
몸편한약손안마원,부산광역시 연제구 고분로13번길 61-3 (연산동),864-3617,http://xn--hz2b11ew7coa499cy81avya.kr/skin/sub_page.php?page_idx=141,부산,129.085702,35.188331,부산광역시 연제구 고분로13번길 61-3
바디케어지압원,부산광역시 부산진구 가야대로 525 (가야동),909-0365,http://xn--hz2b11ew7coa499cy81avya.kr/skin/sub_page.php?page_idx=141,부산,129.0294499,35.153795,부산광역시 부산진구 가야대로 525
바른몸건강지킴이안마원,"부산광역시 수영구 연수로401번길 4, 4층 (수영동)",761-1188,http://xn--hz2b11ew7coa499cy81avya.kr/skin/sub_page.php?page_idx=141,부산,129.1135134,35.1687307,부산광역시 수영구 연수로401번길 4
박기관안마지압원,"부산광역시 서구 해안새벽시장길 48, 2층 (충무동1가)",242-9955,http://xn--hz2b11ew7coa499cy81avya.kr/skin/sub_page.php?page_idx=141,부산,129.0249666,35.0941701,부산광역시 서구 해안새벽시장길 48
백세건강지압안마원,부산광역시 해운대구 윗반송로 51번길 91-31 (반송동),542-6764,http://xn--hz2b11ew7coa499cy81avya.kr/skin/sub_page.php?page_idx=141,부산,129.1554123,35.2315547,부산광역시 해운대구 윗반송로51번길 91-31
백진안마원,"부산광역시 영도구 태종로98, 5층 502호 (대교동2가, 모닝아일랜드)",412-1010,http://xn--hz2b11ew7coa499cy81avya.kr/skin/sub_page.php?page_idx=141,부산,129.0414763,35.0912131,부산광역시 영도구 태종로 98 모닝아일랜드
벧엘지압침술원,부산광역시 남구 석포로 125 (대연동),624-8872,http://xn--hz2b11ew7coa499cy81avya.kr/skin/sub_page.php?page_idx=141,부산,129.0911268,35.1285944,부산광역시 남구 석포로 125
부산보건안마센터안마원,"부산광역시 강서구 명지국제8로 229, 201호 (명지동, 부산명지지구아이메디컬)",553-0754,http://xn--hz2b11ew7coa499cy81avya.kr/skin/sub_page.php?page_idx=141,부산,128.917995,35.0985822,부산광역시 강서구 명지국제8로 229 부산명지지구아이메디컬
부산안마지압원,부산광역시 남구 고동골로4번길 17 (문현동),463-5459,http://xn--hz2b11ew7coa499cy81avya.kr/skin/sub_page.php?page_idx=141,부산,129.0722005,35.1375322,부산광역시 남구 고동골로4번길 17
사랑지압원,부산광역시 금정구 서부로 39 (서동),525-9697,http://xn--hz2b11ew7coa499cy81avya.kr/skin/sub_page.php?page_idx=141,부산,129.101922,35.2170691,부산광역시 금정구 서부로 39
사쿠라안마원,부산광역시 해운대구 좌동순환로8번길 54-11 (중동),612-0002,http://xn--hz2b11ew7coa499cy81avya.kr/skin/sub_page.php?page_idx=141,부산,129.1696934,35.1690263,부산광역시 해운대구 좌동순환로8번길 54-11
삼보지압원,부산광역시 부산진구 서전로 68번길 8 (전포동),802-3550,http://xn--hz2b11ew7coa499cy81avya.kr/skin/sub_page.php?page_idx=141,부산,129.0670876,35.1574773,부산광역시 부산진구 서전로68번길 8
서강안마지압원,"부산광역시 사하구 낙동대로 280, 사하역비스타동원상가 301동 B102호 (괴정동)",929-5414,http://xn--hz2b11ew7coa499cy81avya.kr/skin/sub_page.php?page_idx=141,부산,128.9842553,35.1001154,부산광역시 사하구 낙동대로 280 사하역 비스타 동원
서면제일약손안마원,"부산광역시 부산진구 새싹로 26-1, 3층 (부전동)",808-3882,http://xn--hz2b11ew7coa499cy81avya.kr/skin/sub_page.php?page_idx=141,부산,129.057395,35.1601624,부산광역시 부산진구 새싹로 26-1
성심안마원,부산광역시 사하구 다대로136번길 6 (신평1동),202-7997,http://xn--hz2b11ew7coa499cy81avya.kr/skin/sub_page.php?page_idx=141,부산,128.9775942,35.0904703,부산광역시 사하구 다대로136번길 6
센텀엘림안마원,"부산광역시 해운대구 센텀3로 20, 벡스코 비즈니스 호텔 318호 (우동)",720-8100,http://xn--hz2b11ew7coa499cy81avya.kr/skin/sub_page.php?page_idx=141,부산,129.1329585,35.1678901,부산광역시 해운대구 센텀3로 20 벡스코 비지니스호텔
소생안마원,부산광역시 연제구 연산동 1480-12 2층 203호,010-2357-6202,http://xn--hz2b11ew7coa499cy81avya.kr/skin/sub_page.php?page_idx=141,부산,129.0760655,35.1838899,부산광역시 연제구 거제천로118번길 23 엔학미지앙
손안마원,부산광역시 중구 대청로99번길 19-4 (대청동4가),465-8808,http://xn--hz2b11ew7coa499cy81avya.kr/skin/sub_page.php?page_idx=141,부산,129.0308751,35.1046252,부산광역시 중구 대청로99번길 19-4
수앤수안마원,부산광역시 해운대구 해운대로 814 (좌동),701-1144,http://xn--hz2b11ew7coa499cy81avya.kr/skin/sub_page.php?page_idx=141,부산,129.1776778,35.1695768,부산광역시 해운대구 해운대로 814 세종월드프라자
수정지압안마원,"부산광역시 금정구 서동로 149번길 11, 2층 (서동)",526-2552,http://xn--hz2b11ew7coa499cy81avya.kr/skin/sub_page.php?page_idx=141,부산,129.103331,35.2153391,부산광역시 금정구 서동로149번길 11
수지압안마원,부산광역시 북구 백양대로 1180 2층 201호 (구포동),333-7574,http://xn--hz2b11ew7coa499cy81avya.kr/skin/sub_page.php?page_idx=141,부산,129.0052121,35.2076215,부산광역시 북구 백양대로 1180
수풀림안마원,부산광역시  중구 중앙대로 80 노블리안 지하1층 (중앙동4가),462-9595,http://xn--hz2b11ew7coa499cy81avya.kr/skin/sub_page.php?page_idx=141,부산,129.0367199,35.1047917,부산광역시 중구 중앙대로 80 노블리안2
승록안마원,"부산광역시 부산진구 진연로 9, 301호 (양정동, 제나두)",868-8955,http://xn--hz2b11ew7coa499cy81avya.kr/skin/sub_page.php?page_idx=141,부산,129.0740669,35.1785357,부산광역시 부산진구 진연로 9 제나두
신만수물리지압원,부산광역시 부산진구 가야대로 718 (범천동),804-7923,http://xn--hz2b11ew7coa499cy81avya.kr/skin/sub_page.php?page_idx=141,부산,129.0500612,35.1570543,부산광역시 부산진구 가야대로 718
신세계안마원,부산광역시 해운대구 재반로 204 (반여동),990-9679,http://xn--hz2b11ew7coa499cy81avya.kr/skin/sub_page.php?page_idx=141,부산,129.1308859,35.1953722,부산광역시 해운대구 재반로 204 야무진 FASHION
썬안마원,"부산광역시 해운대구 재반로 103번길 가길 58, 101호 (재송동)",731-0399,http://xn--hz2b11ew7coa499cy81avya.kr/skin/sub_page.php?page_idx=141,부산,129.1259987,35.1875421,부산광역시 해운대구 재반로 102 꾸바꾸바
약손경락지압원,부산광역시 동래구 명륜로103번길 2 (명륜동),557-1470,http://xn--hz2b11ew7coa499cy81avya.kr/skin/sub_page.php?page_idx=141,부산,129.082807,35.2033378,부산광역시 동래구 명륜로103번길 2
약손지압원,부산광역시 북구 만덕대로 129 (덕천동),332-5632,http://xn--hz2b11ew7coa499cy81avya.kr/skin/sub_page.php?page_idx=141,부산,129.0188318,35.2133433,부산광역시 북구 만덕대로 129
약청사지압원,부산광역시 중구 흑교로 79 (보수동2가),247-3110,http://xn--hz2b11ew7coa499cy81avya.kr/skin/sub_page.php?page_idx=141,부산,129.0232154,35.1061912,부산광역시 중구 흑교로 79
양지안마지압원,"부산광역시 사하구 낙동대로 376, 3층 (당리동)",205-2522,http://xn--hz2b11ew7coa499cy81avya.kr/skin/sub_page.php?page_idx=141,부산,128.9771593,35.1026455,부산광역시 사하구 낙동대로 376
어울림지압원,"부산광역시 남구 못골로12번길 35, 6층 602호 (대연동)",907-8478,http://xn--hz2b11ew7coa499cy81avya.kr/skin/sub_page.php?page_idx=141,부산,129.0857478,35.1355082,부산광역시 남구 못골로12번길 35
연산우리들안마원,부산광역시 연제구 월드컵대로10번길 2 (연산동),544-9928,http://xn--hz2b11ew7coa499cy81avya.kr/skin/sub_page.php?page_idx=141,부산,129.0865798,35.1754428,부산광역시 연제구 월드컵대로10번길 2
영도지압안마원,부산광역시 영도구 동삼서로 6-4 (동삼동),403-6829,http://xn--hz2b11ew7coa499cy81avya.kr/skin/sub_page.php?page_idx=141,부산,129.06878,35.079442,부산광역시 영도구 동삼서로 6-4
영성안마원,부산광역시 남구 전포대로 76 (문현동),634-7576,http://xn--hz2b11ew7coa499cy81avya.kr/skin/sub_page.php?page_idx=141,부산,129.0670858,35.1435624,부산광역시 남구 전포대로 76
영지압원,부산광역시 서구 천마로 145-1 (남부민동),010-6708-2816,http://xn--hz2b11ew7coa499cy81avya.kr/skin/sub_page.php?page_idx=141,부산,129.0232022,35.0887932,부산광역시 서구 천마로 145-1
예림안마원,"부산광역시 서구 대영로 78, 2층 (동대신동1가, 동대맨션)",255-3175,http://xn--hz2b11ew7coa499cy81avya.kr/skin/sub_page.php?page_idx=141,부산,129.0197022,35.1103374,부산광역시 서구 대영로 78 동대맨션
온지압안마원,부산광역시 동구 조방로 38 (범일동),867-9417,http://xn--hz2b11ew7coa499cy81avya.kr/skin/sub_page.php?page_idx=141,부산,129.0614206,35.1400343,부산광역시 동구 조방로 38
용약손안마원,부산광역시 동래구 명안로39길 4 (안락동),523-5052,http://xn--hz2b11ew7coa499cy81avya.kr/skin/sub_page.php?page_idx=141,부산,129.1046658,35.2000796,부산광역시 동래구 명안로 40
용인안마원,부산광역시 사하구 다대로140번길 163 (신평동),203-7297,http://xn--hz2b11ew7coa499cy81avya.kr/skin/sub_page.php?page_idx=141,부산,128.9745487,35.0929255,부산광역시 사하구 다대로140번길 163
우리안마원,"부산광역시 남구 못골 번영로 11, 5층 (대연동, 성산빌딩)",626-7575,http://xn--hz2b11ew7coa499cy81avya.kr/skin/sub_page.php?page_idx=141,부산,129.0889406,35.1361685,부산광역시 남구 못골번영로 11
우리전통안마원,"부산광역시 연제구 과정로 202, 2층 (연산동)",753-3379,http://xn--hz2b11ew7coa499cy81avya.kr/skin/sub_page.php?page_idx=141,부산,129.1052502,35.187987,부산광역시 연제구 과정로 202
우진지압원,부산광역시 북구 화명신도시로 129 골든프라자 502호 (화명동),361-1116,http://xn--hz2b11ew7coa499cy81avya.kr/skin/sub_page.php?page_idx=141,부산,129.0106656,35.2356071,부산광역시 북구 화명신도시로 129 골든프라자
웰빙안마원,부산광역시 부산진구 당감서로9번길 3 (당감동),896-9675,http://xn--hz2b11ew7coa499cy81avya.kr/skin/sub_page.php?page_idx=141,부산,129.0362121,35.1615931,부산광역시 부산진구 당감서로9번길 3
위드지압원,부산광역시 부산진구 동평로420번길 13 (양정동),852-7566,http://xn--hz2b11ew7coa499cy81avya.kr/skin/sub_page.php?page_idx=141,부산,129.0701839,35.172538,부산광역시 부산진구 동평로420번길 13
이든7575지압원,"부산광역시 해운대구 해운대해변로 291, 304호 (중동, 크리스탈비치오피스텔)",703-7958,http://xn--hz2b11ew7coa499cy81avya.kr/skin/sub_page.php?page_idx=141,부산,129.1624781,35.1607299,부산광역시 해운대구 해운대해변로 291 크리스탈비치오피스텔
이상운안마원,"부산광역시 북구 금곡대로 280-4, 4층 (화명동, 해동빌딩)",362-7588,http://xn--hz2b11ew7coa499cy81avya.kr/skin/sub_page.php?page_idx=141,부산,129.0138378,35.2332116,부산광역시 북구 금곡대로 280-4 해동빌딩
자오지압안마원,부산광역시 동래구 아시아드대로 250 (온천동),501-7532,http://xn--hz2b11ew7coa499cy81avya.kr/skin/sub_page.php?page_idx=141,부산,129.0685936,35.2058736,부산광역시 동래구 아시아드대로 250
재생안마원,"부산광역시 사하구 낙동대로 301 (괴정동, 일동지에닌아파트)",293-0994,http://xn--hz2b11ew7coa499cy81avya.kr/skin/sub_page.php?page_idx=141,부산,128.9843313,35.0989879,부산광역시 사하구 낙동대로 301 일동지에닌
정다운안마원,"부산광역시 사하구 다대로 704, 401호 (다대동, 몰운대종합시장상가)",262-3089,http://xn--hz2b11ew7coa499cy81avya.kr/skin/sub_page.php?page_idx=141,부산,128.9646215,35.048772,부산광역시 사하구 다대로 704 몰운대종합시장상가
조만호약손지압원,부산광역시 부산진구 동성로 134 (전포동),805-1237,http://xn--hz2b11ew7coa499cy81avya.kr/skin/sub_page.php?page_idx=141,부산,129.0645354,35.1609657,부산광역시 부산진구 동성로 134
주안마원,부산광역시 남구 수영로219번길 6 (대연동),623-1722,http://xn--hz2b11ew7coa499cy81avya.kr/skin/sub_page.php?page_idx=141,부산,129.0906129,35.1353587,부산광역시 남구 수영로219번길 6
지성안마지압원,부산광역시 금정구 동부곡로12번길 39 (부곡동),515-9675,http://xn--hz2b11ew7coa499cy81avya.kr/skin/sub_page.php?page_idx=141,부산,129.0946918,35.2248097,부산광역시 금정구 동부곡로12번길 39
지압박사안마원,"부산광역시 수영구 수영로 384번길 26, 2층 (남천동)",622-2807,http://xn--hz2b11ew7coa499cy81avya.kr/skin/sub_page.php?page_idx=141,부산,129.1075625,35.1398634,부산광역시 수영구 수영로384번길 26
진(건강)안마원,부산광역시 동구 중앙대로349번길 38 (수정동),464-7535,http://xn--hz2b11ew7coa499cy81avya.kr/skin/sub_page.php?page_idx=141,부산,129.0451936,35.1264221,부산광역시 동구 중앙대로349번길 38
진성약손안마지압원,부산광역시 서구 천마로 226-1 (충무동),245-8248,http://xn--hz2b11ew7coa499cy81avya.kr/skin/sub_page.php?page_idx=141,부산,129.022531,35.0956992,부산광역시 서구 천마로 226-1
찐안마원,"부산광역시 동래구 명장로 56-1, 2층 (명장동)",532-8585,http://xn--hz2b11ew7coa499cy81avya.kr/skin/sub_page.php?page_idx=141,부산,129.1070912,35.2045593,부산광역시 동래구 명장로 56-1
착한손바른안마원,"부산광역시 기장군 정관읍 정관로 499, 401호",727-2778,http://xn--hz2b11ew7coa499cy81avya.kr/skin/sub_page.php?page_idx=141,부산,129.1708156,35.3256952,부산광역시 기장군 정관읍 정관로 499
참사랑약손지압안마원,부산광역시 영도구 청학동 448-1,415-5141,http://xn--hz2b11ew7coa499cy81avya.kr/skin/sub_page.php?page_idx=141,부산,129.0602743,35.0918583,부산광역시 영도구 청학로31번길 6
천부안마원,부산광역시 북구 학사로17번나길 25 (화명동),361-7572,http://xn--hz2b11ew7coa499cy81avya.kr/skin/sub_page.php?page_idx=141,부산,129.0084022,35.2232089,부산광역시 북구 학사로17번나길 25
청담안마지압원,"부산광역시 부산진구 새싹로83-2번지, 2층 (부암동)",802-7999,http://xn--hz2b11ew7coa499cy81avya.kr/skin/sub_page.php?page_idx=141,부산,129.0532632,35.1642347,부산광역시 부산진구 새싹로 83-2
초원지압안마원,부산광역시 남구 고동골로 78번길 54 삼부맨션 101호 (문현동),635-8006,http://xn--hz2b11ew7coa499cy81avya.kr/skin/sub_page.php?page_idx=141,부산,129.0743532,35.1437887,부산광역시 남구 고동골로78번길 54 삼부맨션
충무안마원,부산광역시 서구 구덕로124번길 8-1 (토성동4가),247-0129,http://xn--hz2b11ew7coa499cy81avya.kr/skin/sub_page.php?page_idx=141,부산,129.0226683,35.0970505,부산광역시 서구 구덕로124번길 8-1
탑지압테라피안마원,"부산광역시 수영구 남천동 69-22번지, 3층",623-1120,http://xn--hz2b11ew7coa499cy81avya.kr/skin/sub_page.php?page_idx=141,부산,129.1080316,35.1425922,부산광역시 수영구 남천서로 4
토닥토닥안마원,"부산광역시 동래구 충렬사로 38, 2층 (안락동)",010-5178-5305,http://xn--hz2b11ew7coa499cy81avya.kr/skin/sub_page.php?page_idx=141,부산,129.0979483,35.2024199,부산광역시 동래구 충렬사로 38
톡톡건강안마원,"부산광역시 해운대구 대천로 205, 벽산아파트 상가동 303호 (좌동)",,http://xn--hz2b11ew7coa499cy81avya.kr/skin/sub_page.php?page_idx=141,부산,129.1799815,35.1705655,부산광역시 해운대구 대천로 205 벽산1차아파트
통증없는바른몸지압원,"부산광역시 해운대구 아랫반송로 13-1, 2층 (반송동)",544-9675,http://xn--hz2b11ew7coa499cy81avya.kr/skin/sub_page.php?page_idx=141,부산,129.1476493,35.2255748,부산광역시 해운대구 아랫반송로 13-1
팔팔지압원,"부산광역시 사상구 사상로 88, 5층 (감전동)",313-0188,http://xn--hz2b11ew7coa499cy81avya.kr/skin/sub_page.php?page_idx=141,부산,128.9920914,35.1551619,부산광역시 사상구 사상로 88 TY빌딩
푸른지압원,"부산광역시 해운대구 양운로 88, 102동 203호 (좌동, 해운대쌍용플래티넘트윈)",923-7575,http://xn--hz2b11ew7coa499cy81avya.kr/skin/sub_page.php?page_idx=141,부산,129.1752589,35.1708521,부산광역시 해운대구 양운로 88 해운대쌍용플래티넘트윈
한국전통안마원,"부산광역시 동래구 사직북로 3, 501호 (사직동, 사직동백진빌딩)",507-2116,http://xn--hz2b11ew7coa499cy81avya.kr/skin/sub_page.php?page_idx=141,부산,129.0606482,35.1961787,부산광역시 동래구 사직북로 3 사직동백진빌딩
한미척추교정지압원,부산광역시 연제구 과정로 82 (연산동),751-4976,http://xn--hz2b11ew7coa499cy81avya.kr/skin/sub_page.php?page_idx=141,부산,129.1073971,35.1785814,부산광역시 연제구 과정로 82
한서안마원,부산광역시 남구 못골번영로 79-1 (대연동),622-8275,http://xn--hz2b11ew7coa499cy81avya.kr/skin/sub_page.php?page_idx=141,부산,129.0887175,35.1422843,부산광역시 남구 못골번영로 79-1
한성지압원,"부산광역시 동구 고관로 164번길, 6층 (좌천동)",632-1122,http://xn--hz2b11ew7coa499cy81avya.kr/skin/sub_page.php?page_idx=141,부산,129.0507061,35.1315811,부산광역시 동구 고관로 164
해동지압원,부산광역시 사하구 장림번영로 103-1 (장림동),262-8397,http://xn--hz2b11ew7coa499cy81avya.kr/skin/sub_page.php?page_idx=141,부산,128.9767422,35.0807485,부산광역시 사하구 장림번영로 103-1
해밀안마원,"부산광역시 부산진구 서전로 9번길 27, 순흥빌딩 4층 501호 (부전동)",819-1992,http://xn--hz2b11ew7coa499cy81avya.kr/skin/sub_page.php?page_idx=141,부산,129.0608981,35.1591119,부산광역시 부산진구 서전로9번길 27
행복지압원,"부산광역시 북구 만덕3로 15, 1층 (만덕동)",334-1925,http://xn--hz2b11ew7coa499cy81avya.kr/skin/sub_page.php?page_idx=141,부산,129.0259089,35.2124922,부산광역시 북구 만덕3로 15
행복한힐링안마원,부산광역시 사하구 동매로 81번길 1 (하단동),202-9393,http://xn--hz2b11ew7coa499cy81avya.kr/skin/sub_page.php?page_idx=141,부산,128.9669397,35.1025767,부산광역시 사하구 동매로81번길 1
화명지압안마원,"부산광역시 북구 금곡대로 303번길 12, 샤롯데 203호 (화명동)",362-7575,http://xn--hz2b11ew7coa499cy81avya.kr/skin/sub_page.php?page_idx=141,부산,129.0130605,35.2356812,부산광역시 북구 금곡대로303번길 12 샤롯데
회복지압원,부산광역시 동래구 여고북로 167 (온천동),501-3369,http://xn--hz2b11ew7coa499cy81avya.kr/skin/sub_page.php?page_idx=141,부산,129.0739818,35.2021801,부산광역시 동래구 여고북로 167
효사랑안마지압원,"부산광역시 사하구 장평로 449번길 26, 청아하늘정원 2차 상가 101호 (괴정동)",205-3331,http://xn--hz2b11ew7coa499cy81avya.kr/skin/sub_page.php?page_idx=141,부산,128.9853488,35.0987569,부산광역시 사하구 장평로449번길 26 천아하늘정원2차아파트
몸편한안마원,대구광역시 달서구 달구벌대로1545.골든뷰메디타워 6층,053-562-1256,http://www.dganma.com/bbs/board.php?bo_table=find&wr_id=27,대구,128.5360949,35.8503551,대구광역시 달서구 달구벌대로 1545 골든뷰 메디타워
수성매니어건강안마원,"대구광역시 수성구 범어로16길 14, 2층 (범어동) (수성구청역 3번 출구)",053-754-8388,http://www.dganma.com/bbs/board.php?bo_table=find&wr_id=18,대구,128.6363519,35.8559072,대구광역시 수성구 범어로16길 14
건강지킴이안마원,"대구시 남구 대봉로 42, 한도상가 103호",053-654-0115,http://www.dganma.com/bbs/board.php?bo_table=find&wr_id=15,대구,128.6043937,35.8424877,대구광역시 남구 대봉로 42 한도아파트
허준안마원,대구시 중구 남일동 131-1번지 평강빌딩201호,053)254-7579,http://www.dganma.com/bbs/board.php?bo_table=find&wr_id=14,대구,128.592796,35.8690875,대구광역시 중구 중앙대로79길 13 근린생활시설
제일안마원,대구광역시 동구 율하동로 23길 38 (율하동 228-15),053)290-0116,http://www.dganma.com/bbs/board.php?bo_table=find&wr_id=13,대구,128.6979942,35.870415,대구광역시 동구 율하동로23길 38
조은건강안마센터,대구광역시 수성구 범어동 752 3층,053)424-5577,http://www.dganma.com/bbs/board.php?bo_table=find&wr_id=10,대구,128.6255026,35.8503638,대구광역시 수성구 동대구로 224
웰빙안마원,"대구시 남구 명덕로 46, 동산빌딩 3층",053)652-7575,http://www.dganma.com/bbs/board.php?bo_table=find&wr_id=9,대구,128.5758606,35.8591764,대구광역시 남구 명덕로 46
약손안마원,"대구광역시 중구  태평로1가 1-187, 태평라이프아파트  241호",053)425-7695,http://www.dganma.com/bbs/board.php?bo_table=find&wr_id=8,대구,128.5976461,35.8748306,대구광역시 중구 태평로 177 태평라이프아파트
이창숙안마원,대구광역시 서구 국채보상로75길 36-2,053-564-8575,http://www.dganma.com/bbs/board.php?bo_table=find&wr_id=5,대구,128.5724897,35.8754021,대구광역시 서구 국채보상로75길 36-2
영광안마원,대구시 중구 남일동 131-1,053-253-1889 / 010-4509-2260,http://www.dganma.com/bbs/board.php?bo_table=find&wr_id=4,대구,128.592796,35.8690875,대구광역시 중구 중앙대로79길 13 근린생활시설
토닥토닥 몸사랑 안마원,대구시 수성구 범어동 35-1번지 범어역 우방유쉘상가 지하1층 제2-B02호,053-964-9373,http://www.dganma.com/bbs/board.php?bo_table=find&wr_id=3,대구,128.6257698,35.8616237,대구광역시 수성구 동대구로 345 범어역우방유쉘
뉴몸튼튼안마원,"대구광역시 달서구 월성로 20, 건도파라다이스 3층",053-633-9917,http://www.dganma.com/bbs/board.php?bo_table=find&wr_id=2,대구,128.5331508,35.8315758,대구광역시 달서구 월성로 20 건도파라다이스
장성안마원,포항시 북구 새천년대로1076번길 27-6(두호동 1101-5),010-9141-7578,http://kbanma.or.kr/bbs/board.php?bo_table=e_b&sca=%ED%8F%AC%ED%95%AD%EC%8B%9C,경북,129.3745575,36.0647368,경상북도 포항시 북구 새천년대로1076번길 27-6
상주 척추 안마원,상주시 동수로 69(서문동 61-7),010-2533-0298,http://kbanma.or.kr/bbs/board.php?bo_table=e_b&sca=%EC%83%81%EC%A3%BC%EC%8B%9C,경북,128.1556249,36.4188707,경상북도 상주시 동수로 69
O-편한케어안마원,고령군 대가야읍 쾌빈리 554-8(왕릉로 95),054-610-4789,http://kbanma.or.kr/bbs/board.php?bo_table=e_b&sca=%EA%B3%A0%EB%A0%B9%EA%B5%B0,경북,128.2665561,35.7283639,경상북도 고령군 대가야읍 왕릉로 95
라파지압안마원,영덕군 영덕읍 남석2길 5,010-3939-6618,http://kbanma.or.kr/bbs/board.php?bo_table=e_b&sca=%EC%98%81%EB%8D%95%EA%B5%B0,경북,129.3672156,36.4104944,경상북도 영덕군 영덕읍 남석2길 5
중앙 백안마원,"경주시 화랑로 53, 2층 (성건동)",010-5691-9989,http://kbanma.or.kr/bbs/board.php?bo_table=e_b&sca=%EA%B2%BD%EC%A3%BC%EC%8B%9C,경북,129.2066463,35.8449429,경상북도 경주시 화랑로 53
가자안마원,경주시 북정로 61(성동동),010-2533-8746,http://kbanma.or.kr/bbs/board.php?bo_table=e_b&sca=%EA%B2%BD%EC%A3%BC%EC%8B%9C,경북,129.215308,35.8463733,경상북도 경주시 북정로 61
약손안마지압원,울진군 울진읍 울진 중앙로 208,010-3399-8898,http://kbanma.or.kr/bbs/board.php?bo_table=e_b&sca=%EC%9A%B8%EC%A7%84%EA%B5%B0,경북,129.4011756,37.0000927,경상북도 울진군 울진읍 울진중앙로 208
영주안마원,영주시 중앙로 74(영주동),054-637-3309,http://kbanma.or.kr/bbs/board.php?bo_table=e_b&sca=%EC%98%81%EC%A3%BC%EC%8B%9C,경북,128.624262,36.8218836,경상북도 영주시 중앙로 74
경북안마원,경주시 강동면 강동로 23,010-3549-9080,http://kbanma.or.kr/bbs/board.php?bo_table=e_b&sca=%EA%B2%BD%EC%A3%BC%EC%8B%9C,경북,129.2739245,35.9879219,경상북도 경주시 강동면 강동로 23
건강지압 안마원,경주시 성건동 342-14,010-4725-6988,http://kbanma.or.kr/bbs/board.php?bo_table=e_b&sca=%EA%B2%BD%EC%A3%BC%EC%8B%9C,경북,129.2062833,35.8423495,경상북도 경주시 원효로 49 왕산빌딩
바른체형 안마원,안동시 경동로 159(송현동),054-853-3838,http://kbanma.or.kr/bbs/board.php?bo_table=e_b&sca=%EC%95%88%EB%8F%99%EC%8B%9C,경북,128.6791787,36.5750263,경상북도 안동시 경동로 159
황금안마원,포항시 북구 장성동 1575-18,010-3534-2058,http://kbanma.or.kr/bbs/board.php?bo_table=e_b&sca=%ED%8F%AC%ED%95%AD%EC%8B%9C,경북,129.38627,36.0753318,경상북도 포항시 북구 법원로 1
가고픈 약손안마원,경주시 금성로 280,054-776-9877,http://kbanma.or.kr/bbs/board.php?bo_table=e_b&sca=%EA%B2%BD%EC%A3%BC%EC%8B%9C,경북,129.2072573,35.8426792,경상북도 경주시 금성로 280
다나안마원,영천시 야사동 334-35,010-5556-8733,http://kbanma.or.kr/bbs/board.php?bo_table=e_b&sca=%EC%98%81%EC%B2%9C%EC%8B%9C,경북,128.9428096,35.9742385,경상북도 영천시 상록4길 66
약손명가 안마원,김천시 중앙공원길 9,054-432-7744,http://kbanma.or.kr/bbs/board.php?bo_table=e_b&sca=%EA%B9%80%EC%B2%9C%EC%8B%9C,경북,128.1191956,36.1200148,경상북도 김천시 중앙공원길 9
수 안마원,구미시 봉곡남로 110(봉곡동)2층,010-3668-6378,http://kbanma.or.kr/bbs/board.php?bo_table=e_b&sca=%EA%B5%AC%EB%AF%B8%EC%8B%9C,경북,128.3140989,36.1498923,경상북도 구미시 봉곡남로 110
가 안마원,"경주시 금성로 295, 경주 중앙시장 상가 제 8호 2층 4호",054-777-6568,http://kbanma.or.kr/bbs/board.php?bo_table=e_b&sca=%EA%B2%BD%EC%A3%BC%EC%8B%9C,경북,129.2067453,35.8439605,경상북도 경주시 금성로 295 경주중앙시장
청춘 힐링 안마원,"상주시 상서문3길 80, 1층",010-6564-1122,http://kbanma.or.kr/bbs/board.php?bo_table=e_b&sca=%EC%83%81%EC%A3%BC%EC%8B%9C,경북,128.1558679,36.414011,경상북도 상주시 상서문3길 80
안마나라 치료원,"경주시 북성로 51번길, 26-10 경주오피스텔 213호",010-3661-0201,http://kbanma.or.kr/bbs/board.php?bo_table=e_b&sca=%EA%B2%BD%EC%A3%BC%EC%8B%9C,경북,129.2077154,35.849446,경상북도 경주시 북성로51번길 26-10 경주오피스텔
ACE 안마원,경주시 태종로 699번길 20-1,010-3534-1199,http://kbanma.or.kr/bbs/board.php?bo_table=e_b&sca=%EA%B2%BD%EC%A3%BC%EC%8B%9C,경북,129.2050052,35.8404173,경상북도 경주시 태종로699번길 20-1
몸사랑 경락안마원,"구미시 상사서로 223(사곡동 603-179), 코스모스 상가 1층",054-463-8259,http://kbanma.or.kr/bbs/board.php?bo_table=e_b&sca=%EA%B5%AC%EB%AF%B8%EC%8B%9C,경북,128.3571024,36.1016712,경상북도 구미시 상사서로 223
시원한 안마 지압원,포항시 북구 성실로 30-10(장성동 866-192),"054-232-6546, 010-2804-6546",http://kbanma.or.kr/bbs/board.php?bo_table=e_b&sca=%ED%8F%AC%ED%95%AD%EC%8B%9C,경북,129.3760727,36.0664351,경상북도 포항시 북구 성실로 30-10
쌍사 수 안마원,포항시 북구 중흥로 140번길 7-2,054-277-6369,http://kbanma.or.kr/bbs/board.php?bo_table=e_b&sca=%ED%8F%AC%ED%95%AD%EC%8B%9C,경북,129.3546526,36.0167209,경상북도 포항시 북구 중흥로140번길 7-2
포항 이동 안마원,"포항시 남구 대이로 93(대잠동), 2층",054-610-7575,http://kbanma.or.kr/bbs/board.php?bo_table=e_b&sca=%ED%8F%AC%ED%95%AD%EC%8B%9C,경북,129.3405019,36.0234444,경상북도 포항시 남구 대이로 93
포항안마원,포항시 남구 대도동 14-7 금성대도타운 상가107호,054-273-8857 / 010-3399-8898,http://kbanma.or.kr/bbs/board.php?bo_table=e_b&sca=%ED%8F%AC%ED%95%AD%EC%8B%9C,경북,129.3644795,36.0239358,경상북도 포항시 남구 양학천로136번길 37 금성대도타운
인동안마원,구미시 인동중앙로7길 11,054-473-9875,http://kbanma.or.kr/bbs/board.php?bo_table=e_b&sca=%EA%B5%AC%EB%AF%B8%EC%8B%9C,경북,128.4214188,36.1086921,경상북도 구미시 인동중앙로7길 11
전통안마원,영주시 지천로 184번길 22,010-9938-7558,http://kbanma.or.kr/bbs/board.php?bo_table=e_b&sca=%EC%98%81%EC%A3%BC%EC%8B%9C,경북,128.6203011,36.8154108,경상북도 영주시 지천로184번길 22
사랑케어 안마원,포항시 북구 대신동 956-30,054-244-7720,http://kbanma.or.kr/bbs/board.php?bo_table=e_b&sca=%ED%8F%AC%ED%95%AD%EC%8B%9C,경북,129.3649556,36.0482184,경상북도 포항시 북구 월막길24번길 1-2
테라피 지압 안마원,봉화군 봉화읍 내성로 94 2층,054-673-3301,http://kbanma.or.kr/bbs/board.php?bo_table=e_b&sca=%EB%B4%89%ED%99%94%EA%B5%B0,경북,128.7406245,36.8907516,경상북도 봉화군 봉화읍 내성로 94 커피비
건강안마원,"구미시 원평동 444-8번지 (경북 구미시 원남로 130-1, 1층)",054-444-7588,http://kbanma.or.kr/bbs/board.php?bo_table=e_b&sca=%EA%B5%AC%EB%AF%B8%EC%8B%9C,경북,128.3340509,36.1263184,경상북도 구미시 원남로 130-1
힐링안마원,"경산시 중방동 859-4번지 (경안로 39길 31, 동현빌딩 1층)",053-801-6633,http://kbanma.or.kr/bbs/board.php?bo_table=e_b&sca=%EA%B2%BD%EC%82%B0%EC%8B%9C,경북,128.7342652,35.8234122,경상북도 경산시 경안로39길 31
복손안마원,경산시 옥산동 407번지 (성암로 5길 11),"053-812-2988, 010-3823-4849",http://kbanma.or.kr/bbs/board.php?bo_table=e_b&sca=%EA%B2%BD%EC%82%B0%EC%8B%9C,경북,128.7199527,35.8233028,경상북도 경산시 성암로5길 11
조은안마원,경남 창원시 성산구 마디미서로 54,,http://knanma.com/parlor/view?m=16&id=250,경남,128.6808909,35.2208386,경상남도 창원시 성산구 마디미서로 54 서울아동병원
최선생안마원,경남 진주시 진주역로 114,,http://knanma.com/parlor/view?m=16&id=249,경남,128.115588,35.1515096,경상남도 진주시 진주역로 114 시티프라디움
제일약손안마원,경남 사천시 사천읍 정의길 41,,http://knanma.com/parlor/view?m=16&id=248,경남,128.0886502,35.0848362,경상남도 사천시 사천읍 정의길 41 성민쌀상회
바른몸약손안마원(밀양),경남 밀양시 내이2길 8,,http://knanma.com/parlor/view?m=16&id=226,경남,128.7440034,35.497131,경상남도 밀양시 내이2길 8
건암물리지압원,경남 창원시 진해구 동진로 56-4,,http://knanma.com/parlor/view?m=16&id=223,경남,128.7015034,35.1519863,경상남도 창원시 진해구 동진로 56-4
함양안마원,경남 함양군 수동면 수동1길 172,,http://knanma.com/parlor/view?m=16&id=217,경남,127.7853155,35.5217699,경상남도 함양군 수동면 수동1길 172
홍선생안마원,경남 창녕군 남지읍 동포7길 9,,http://knanma.com/parlor/view?m=16&id=206,경남,128.477311,35.3896661,경상남도 창녕군 남지읍 동포7길 9
참편안안마원,경남 진주시 의곡길 3,,http://knanma.com/parlor/view?m=16&id=205,경남,128.082461,35.1976719,경상남도 진주시 의곡길 3
진주지압안마센터,경남 진주시 돗골로94번길 6,,http://knanma.com/parlor/view?m=16&id=204,경남,128.1130579,35.1764386,경상남도 진주시 돗골로94번길 6
건강안마원,경남 의령군 의령읍 의병로15길 3,,http://knanma.com/parlor/view?m=16&id=200,경남,128.258685,35.3196037,경상남도 의령군 의령읍 의병로15길 3
주원전통안마원,경남 양산시 삼호동부로 39,,http://knanma.com/parlor/view?m=16&id=199,경남,129.1676931,35.4079608,경상남도 양산시 삼호동부로 39
정유섬지압원,경남 양산시 양주3길 11-10,,http://knanma.com/parlor/view?m=16&id=198,경남,129.0327259,35.3407706,경상남도 양산시 양주3길 11-10
이곳생명샘지압안마원,경남 양산시 북안남3길 23,,http://knanma.com/parlor/view?m=16&id=197,경남,129.0376645,35.3460222,경상남도 양산시 북안남3길 23
약손건강안마원,경남 양산시 동면 금오4길 66,,http://knanma.com/parlor/view?m=16&id=196,경남,129.0274564,35.3133355,경상남도 양산시 동면 금오4길 66
창원안마원,경남 창원시 의창구 도계로 102,,http://knanma.com/parlor/view?m=16&id=195,경남,128.6403112,35.2559253,경상남도 창원시 의창구 도계로 102 대남상가아파트
라파지압안마원,경남 양산시 물금읍 청운로 185,,http://knanma.com/parlor/view?m=16&id=194,경남,129.0028103,35.3172103,경상남도 양산시 물금읍 청운로 185 오즈시티
명인안마지압센터,경남 창원시 성산구 원이대로393번길 25,,http://knanma.com/parlor/view?m=16&id=193,경남,128.6625597,35.2399604,경상남도 창원시 성산구 원이대로393번길 25 케이프타운
두드림안마센터,경남 창원시 성산구 용지로 74,,http://knanma.com/parlor/view?m=16&id=192,경남,128.676637,35.2224402,경상남도 창원시 성산구 용지로 74 전원상가
바른안마원,경남 창원시 성산구 상남동 73-4,,http://knanma.com/parlor/view?m=16&id=191,경남,128.6794787,35.2204845,경상남도 창원시 성산구 상남로 71 창원코아상가
윤안마원,경남 창원시 성산구 마디미로31번길 10,,http://knanma.com/parlor/view?m=16&id=190,경남,128.6846677,35.2210273,경상남도 창원시 성산구 마디미로31번길 10 새미래빌딩
화타의손안마원,경남 창원시 마산회원구 합성옛길 271,,http://knanma.com/parlor/view?m=16&id=189,경남,128.5874534,35.2428688,경상남도 창원시 마산회원구 합성옛길 271
행복한지압원,경남 창원시 마산회원구 용마로 126,,http://knanma.com/parlor/view?m=16&id=188,경남,128.5857644,35.2232596,경상남도 창원시 마산회원구 용마로 126
제일안마센터,경남 창원시 마산회원구 양덕로 193,,http://knanma.com/parlor/view?m=16&id=187,경남,128.5797945,35.2339728,경상남도 창원시 마산회원구 양덕로 193 제일빌딩
전통안마지압센터,경남 창원시 마산회원구 삼호로 36,,http://knanma.com/parlor/view?m=16&id=186,경남,128.5867897,35.221414,경상남도 창원시 마산회원구 삼호로 36
한효안마센터,경남 창원시 마산회원구 북성로 118,,http://knanma.com/parlor/view?m=16&id=185,경남,128.5708996,35.2175499,경상남도 창원시 마산회원구 북성로 118 한효프라자 빌딩
기룡안마지압센터,경남 창원시 마산합포구 진동면 서촌숲끝길 16,,http://knanma.com/parlor/view?m=16&id=184,경남,128.4875585,35.1163605,경상남도 창원시 마산합포구 진동면 서촌숲끝길 16
정일품안마통증관리,경남 창원시 마산합포구 오동서17길 10-16,,http://knanma.com/parlor/view?m=16&id=183,경남,128.5738044,35.2101447,경상남도 창원시 마산합포구 오동서17길 10-16
사계절건강지압안마원,경남 사천시 벌리2길 7,,http://knanma.com/parlor/view?m=16&id=181,경남,128.080896,34.9399242,경상남도 사천시 벌리2길 7 어썸초밥
마이더스안마원,경남 창원시 의창구 반계로 103,,http://knanma.com/parlor/view?m=16&id=180,경남,128.616305,35.2547833,경상남도 창원시 의창구 반계로 103 대동중앙아파트
약손안마원,경남 창원시 의창구 북면 감계리 234-2,,http://knanma.com/parlor/view?m=16&id=179,경남,128.5940529,35.3020144,경상남도 창원시 의창구 북면 감계로 304
편강안마센터,경남 창원시 성산구 상남로 246,,http://knanma.com/parlor/view?m=16&id=178,경남,128.6911841,35.2329951,경상남도 창원시 성산구 상남로 246
백세안마원,경남 창원시 성산구 신월로 8,,http://knanma.com/parlor/view?m=16&id=177,경남,128.6898129,35.2305149,경상남도 창원시 성산구 신월로 8
핸드테크 지압원,경남 창원시 마산합포구 성호남1길 21,,http://knanma.com/parlor/view?m=16&id=176,경남,128.5702792,35.2053042,경상남도 창원시 마산합포구 성호남1길 21
건강찾기안마원,경남 창원시 마산합포구 반월동1길 18,,http://knanma.com/parlor/view?m=16&id=175,경남,128.5647057,35.1909566,경상남도 창원시 마산합포구 반월동1길 18
강안마지압원,경남 사천시 사천읍 사천읍성로 16,,http://knanma.com/parlor/view?m=16&id=174,경남,128.0860115,35.0851212,경상남도 사천시 사천읍 사천읍성로 16 노래방기기전문점
정선생지압안마원,경남 김해시 번화1로68번길 7,,http://knanma.com/parlor/view?m=16&id=173,경남,128.8007019,35.1939039,경상남도 김해시 번화1로68번길 7 장안플라자
편한몸안마원,경남 창원시 의창구 원이대로 283,,http://knanma.com/parlor/view?m=16&id=172,경남,128.6509948,35.2427123,경상남도 창원시 의창구 원이대로 283 청마상가
장유힐링지압원,경남 김해시 능동로7번길 8-23,,http://knanma.com/parlor/view?m=16&id=171,경남,128.795216,35.1969429,경상남도 김해시 능동로7번길 8-23
팔팔안마원,경남 창원시 의창구 팔용로 420,,http://knanma.com/parlor/view?m=16&id=170,경남,128.6124423,35.2542048,경상남도 창원시 의창구 팔용로 420 유토피아상가
웰빙지압원,경남 김해시 함박로119번길 18,,http://knanma.com/parlor/view?m=16&id=169,경남,128.867717,35.2336301,경상남도 김해시 함박로119번길 18 덕산아파트상가
성보수기안마원,경남 김해시 활천로16번길 9,,http://knanma.com/parlor/view?m=16&id=168,경남,128.8948992,35.2292299,경상남도 김해시 활천로16번길 9 경남빌라
현안마원,경남 창원시 의창구 평산로159번길 9,,http://knanma.com/parlor/view?m=16&id=167,경남,128.6223497,35.2566523,경상남도 창원시 의창구 평산로159번길 9
실로암안마지압원,경남 창원시 진해구 용재로 11-1,,http://knanma.com/parlor/view?m=16&id=166,경남,128.8112832,35.1023416,경상남도 창원시 진해구 용재로 11-1
보성안마원,경남 김해시 내외중앙로 44,,http://knanma.com/parlor/view?m=16&id=165,경남,128.86689,35.2338863,경상남도 김해시 내외중앙로 44
더조은안마원,경남 창원시 진해구 충장로657번길 28,,http://knanma.com/parlor/view?m=16&id=164,경남,128.7065878,35.130552,경상남도 창원시 진해구 충장로657번길 28
바른몸약손안마원,경남 통영시 광도면 죽림2로 76-163,,http://knanma.com/parlor/view?m=16&id=163,경남,128.421193,34.8774297,경상남도 통영시 광도면 죽림2로 76-163
참좋은지압안마센터,경남 통영시 새터길 18,,http://knanma.com/parlor/view?m=16&id=162,경남,128.4181154,34.8408719,경상남도 통영시 새터길 18 용정크럽
통영지압안마원,경남 통영시 당동길 4,,http://knanma.com/parlor/view?m=16&id=161,경남,128.4092982,34.8367806,경상남도 통영시 당동길 4
무병장수안마원,경남 함안군 가야읍 가야10길 13,,http://knanma.com/parlor/view?m=16&id=160,경남,128.4093731,35.2773623,경상남도 함안군 가야읍 가야10길 13 전원아파트
백세건강지압원,경남 김해시 가락로93번길 7,,http://knanma.com/parlor/view?m=16&id=159,경남,128.8804116,35.2346574,경상남도 김해시 가락로93번길 7
로뎀지압원,경남 김해시 내외중앙로 44,,http://knanma.com/parlor/view?m=16&id=158,경남,128.86689,35.2338863,경상남도 김해시 내외중앙로 44
라파지압원,경남 김해시 진영읍 여래로 27,,http://knanma.com/parlor/view?m=16&id=157,경남,128.7348017,35.3036957,경상남도 김해시 진영읍 여래로 27
한국안마센터,경남 고성군 고성읍 중앙로25번길 76,,http://knanma.com/parlor/view?m=16&id=156,경남,128.324204,34.9775668,경상남도 고성군 고성읍 중앙로25번길 76
햇빛안마클리닉,경남 거제시 옥포로 250,,http://knanma.com/parlor/view?m=16&id=155,경남,128.6900696,34.8969216,경상남도 거제시 옥포로 250 옥현시장
최용석지압안마원,경남 합천군 합천읍 중앙로 33-32,,http://knanma.com/parlor/view?m=16&id=154,경남,128.1576971,35.5631639,경상남도 합천군 합천읍 중앙로 33-32
가정바른손안마원,인천광역시 서구 가정동 617-3 가정봄프라자 301호,032-568-2230,https://anma.or.kr/bbs/board.php?bo_table=B14&wr_id=80&page=1,인천,126.6720429,37.5267389,인천광역시 서구 봉오재3로110번길 7 가정봄프라자
라임안마원,인천광역시 서구 청라동 162-9 라임타워 502호,032-721-5453,https://anma.or.kr/bbs/board.php?bo_table=B14&wr_id=79&page=1,인천,126.6529162,37.5334657,인천광역시 서구 청라라임로 65 라임타워
바른체형교정안마원,"인천 미추홀구 경원대로 869, 209호 (주안동,르네상스타워)",032-227-7575,https://anma.or.kr/bbs/board.php?bo_table=B14&wr_id=78&page=1,인천,126.6891695,37.4604009,인천광역시 미추홀구 경원대로 869 르네상스빌딩
상쾌한안마원,"인천 부평구 주부토로33, 4층 (부평동)",032-503-0177,https://anma.or.kr/bbs/board.php?bo_table=B14&wr_id=77&page=1,인천,126.7248773,37.4981237,인천광역시 부평구 주부토로 33
건강지킴안마원,"인천 계양구 계산새로87번길 16, 202호 (용종동, 계양신명스카이홈)",032-547-8580,https://anma.or.kr/bbs/board.php?bo_table=B14&wr_id=76&page=1,인천,126.7383117,37.5393783,인천광역시 계양구 계산새로87번길 16 계양신명스카이홈
계산지압안마원,"인천 계양구 장제로 719-23, 502호 (작전동)",032-555-2236,https://anma.or.kr/bbs/board.php?bo_table=B14&wr_id=75&page=1,인천,126.733076,37.5329348,인천광역시 계양구 장제로 719-23
검암지압안마원,"인천 서구 검암로 27, 중앙프라자 201호 (검암동)",032-716-9166,https://anma.or.kr/bbs/board.php?bo_table=B14&wr_id=74&page=1,인천,126.6802642,37.5665808,인천광역시 서구 검암로 27 중앙프라자
가좌보건안마원,"인천 서구 건지로399번길 3, 301호 (가좌동)",032-710-7571,https://anma.or.kr/bbs/board.php?bo_table=B14&wr_id=73&page=1,인천,126.6858219,37.4960798,인천광역시 서구 건지로399번길 3
가온안마원,인천 미추홀구 인주대로162 삼성빌딩5층 (용현동),032-888-3697,https://anma.or.kr/bbs/board.php?bo_table=B14&wr_id=72&page=1,인천,126.6548779,37.4559514,인천광역시 미추홀구 인주대로 162 삼성빌딩
신의손길안마원,"인천 부평구 세월천로 23, 2층 (청천동)",032-502-5302,https://anma.or.kr/bbs/board.php?bo_table=B14&wr_id=71&page=1,인천,126.7068335,37.512651,인천광역시 부평구 세월천로 23
검단서재민안마원,"인천 서구 완정로10번길 6-6, 302호 (마전동,두경프라자)",032-568-4880,https://anma.or.kr/bbs/board.php?bo_table=B14&wr_id=70&page=1,인천,126.6734315,37.594541,인천광역시 서구 완정로10번길 6-6 두경프라자
쉼터안마원,인천 미추홀구 경인남길102번길 107(용현동),032-442-6636,https://anma.or.kr/bbs/board.php?bo_table=B14&wr_id=69&page=1,인천,126.6636178,37.4510859,인천광역시 미추홀구 경인남길102번길 107
건강연수안마원,"인천 연수구 학나래로6번길 35, 5층 (선학동)",032-818-8575,https://anma.or.kr/bbs/board.php?bo_table=B14&wr_id=68&page=1,인천,126.6975803,37.4247284,인천광역시 연수구 학나래로6번길 35
가람안마원,인천 중구 하늘별빛로65번길 7-9(중산동) 스카이타워 502호,032-751-3746,https://anma.or.kr/bbs/board.php?bo_table=B14&wr_id=66&page=1,인천,126.5646474,37.4884979,인천광역시 중구 하늘별빛로65번길 7-9
국가대표안마원,"인천 옹진군 영흥면 영흥로 298, 101호",032-880-0591,https://anma.or.kr/bbs/board.php?bo_table=B14&wr_id=65&page=1,인천,126.4815107,37.2559181,인천광역시 옹진군 영흥면 영흥로 298 창의교육
오스마일안마원,인천 미추홀구 신기길 28 (주안동),010-9511-5169,https://anma.or.kr/bbs/board.php?bo_table=B14&wr_id=64&page=2,인천,126.6764718,37.4469404,인천광역시 미추홀구 신기길 28
두드림안마지압원,"인천 남동구 장승로9, 4층 (만수동, 신비프라자)",032-464-7778,https://anma.or.kr/bbs/board.php?bo_table=B14&wr_id=63&page=2,인천,126.734229,37.4466317,인천광역시 남동구 장승로 9 신비프라자
힐링스토리,인천 연수구 아트센터대로 107 커넬워크 302동(가을동),032-834-7675,https://anma.or.kr/bbs/board.php?bo_table=B14&wr_id=62&page=2,인천,126.6386166,37.400948,인천광역시 연수구 아트센터대로 107 커낼워크D3 AUTUMN
산모라인,인천 계양구 양지로 7 (동양동),010-9386-9111,https://anma.or.kr/bbs/board.php?bo_table=B14&wr_id=61&page=2,인천,126.7547712,37.559375,인천광역시 계양구 양지로 7 주공아파트
휴안마토피아안마원,"인천 미추홀구 경인로 391, 현대아케이트 3층 7호 (주안동)",032-202-8575,https://anma.or.kr/bbs/board.php?bo_table=B14&wr_id=60&page=2,인천,126.6835638,37.4585713,인천광역시 미추홀구 경인로 391 주안현대아파트
해피안마원,"인천 부평구 원길로 34, 502 (청천동,중앙프라자)",032-503-0191,https://anma.or.kr/bbs/board.php?bo_table=B14&wr_id=59&page=2,인천,126.7149218,37.5066121,인천광역시 부평구 원길로 34 중앙프라자
한국국가대표안마원,"인천 연수구 비류대로 208, 4층 (옥련동)",032-834-8575,https://anma.or.kr/bbs/board.php?bo_table=B14&wr_id=58&page=2,인천,126.6576991,37.4274233,인천광역시 연수구 비류대로 208
청라약손안마원,"인천 서구 청라루비로 95, 204호 (청라동, 경연프라자)",032-569-2999,https://anma.or.kr/bbs/board.php?bo_table=B14&wr_id=57&page=2,인천,126.6401439,37.5337439,인천광역시 서구 청라루비로 95 경연프라자
참존안마지압원,"인천 서구 청라에메랄드로102번길 8-22, 4층(연희동,미라클프라자)",032-566-5560,https://anma.or.kr/bbs/board.php?bo_table=B14&wr_id=56&page=2,인천,126.6589366,37.5334033,인천광역시 서구 청라에메랄드로102번길 8-22 미라클프라자
참조은지압안마원,"인천 부평구 경원대로 1264, 4층 (부평동)",032-434-8484,https://anma.or.kr/bbs/board.php?bo_table=B14&wr_id=55&page=2,인천,126.7100628,37.4893338,인천광역시 부평구 경원대로 1264
조은아침지압원,"인천 미추홀구 독배로 380, 2층 (용현동)",032-868-1444,https://anma.or.kr/bbs/board.php?bo_table=B14&wr_id=54&page=2,인천,126.6487778,37.4536768,인천광역시 미추홀구 독배로 380
장수지압안마원,"인천 연수구 앵고개로 262, 501 (동춘동)",032-815-7770,https://anma.or.kr/bbs/board.php?bo_table=B14&wr_id=53&page=2,인천,126.6725683,37.4075008,인천광역시 연수구 앵고개로 262 동경프라자
인천해광안마센터,"인천 동구 송현로 14, 5층 (송현동)",032-777-3288,https://anma.or.kr/bbs/board.php?bo_table=B14&wr_id=52&page=2,인천,126.6345013,37.4775629,인천광역시 동구 송현로 14 솔빛빌딩
으뜸안마원,"인천 미추홀구 주안로 213번길 15, 202호 (주안동, 간석역프라자)",032-437-3375,https://anma.or.kr/bbs/board.php?bo_table=B14&wr_id=51&page=2,인천,126.6935767,37.4642205,인천광역시 미추홀구 주안로213번길 15 간석역프라자
오케이지압안마원,인천 중구 제물량로 103 (신흥동1가),032-777-7858,https://anma.or.kr/bbs/board.php?bo_table=B14&wr_id=50&page=2,인천,126.6316039,37.4680719,인천광역시 중구 제물량로 103
영종안마원,"인천 중구 영종대로 100, 204호 (운서동, 신성하우스빌)",032-752-2080,https://anma.or.kr/bbs/board.php?bo_table=B14&wr_id=49&page=3,인천,126.4900699,37.494896,인천광역시 중구 영종대로 100 신성하우스빌
시원안마지압원,"인천 강화군 강화읍 송악길6번길 20, 고려팰리스 1창 B동 101호",032-933-7535,https://anma.or.kr/bbs/board.php?bo_table=B14&wr_id=47&page=3,인천,126.4824612,37.7484966,인천광역시 강화군 강화읍 송악길6번길 20 고려팰리스
시각복지안마원,인천 미추홀구 경원대로640번길 26-17 (관교동),032-426-8575,https://anma.or.kr/bbs/board.php?bo_table=B14&wr_id=46&page=3,인천,126.6953261,37.4406861,인천광역시 미추홀구 경원대로640번길 26-17
석남약손안마원,인천 서구 가정로301 2층(석남동),032-577-7582,https://anma.or.kr/bbs/board.php?bo_table=B14&wr_id=44&page=3,인천,126.6723681,37.511714,인천광역시 서구 가정로 301
새아침안마원,"인천 남동구 장승남로 36, 305호 (만수동, 만수프라자)",032-464-7475,https://anma.or.kr/bbs/board.php?bo_table=B14&wr_id=43&page=3,인천,126.7362018,37.4431662,인천광역시 남동구 장승남로 36
부평약손안마원,인천 부평구 부평대로 167번길 33 (부평동),032-511-1600,https://anma.or.kr/bbs/board.php?bo_table=B14&wr_id=42&page=3,인천,126.7187676,37.5060949,인천광역시 부평구 부평대로167번길 33
바른자세안마원,"인천 계양구 경명대로 1138, 5층 (계산동)",032-545-8235,https://anma.or.kr/bbs/board.php?bo_table=B14&wr_id=41&page=3,인천,126.7333378,37.5428008,인천광역시 계양구 경명대로 1138
리앤드안마원,"인천 부평구 경원대로1367번길 18, 2층(부평동)",032-330-4400,https://anma.or.kr/bbs/board.php?bo_table=B14&wr_id=39&page=3,인천,126.7209744,37.4920733,인천광역시 부평구 경원대로1367번길 18
랑안마원,인천 중구 우현로 78 (인현동),032-764-0999,https://anma.or.kr/bbs/board.php?bo_table=B14&wr_id=38&page=3,인천,126.6304572,37.4738609,인천광역시 중구 우현로 78
라파안마원,"인천 계양구 계양문화로 86, 306 (용종동)",032-555-1522,https://anma.or.kr/bbs/board.php?bo_table=B14&wr_id=37&page=3,인천,126.7371321,37.5383265,인천광역시 계양구 계양문화로 86
동양안마지압원,인천 동구 송현로 11번길 10 (송현동),032-762-3766,https://anma.or.kr/bbs/board.php?bo_table=B14&wr_id=36&page=3,인천,126.6336915,37.4780265,인천광역시 동구 송현로11번길 10
다좋은행복안마원,"인천 미추홀구 주안로 75, 202호 (주안동)",032-863-7669,https://anma.or.kr/bbs/board.php?bo_table=B14&wr_id=34&page=3,인천,126.6780318,37.4643397,인천광역시 미추홀구 주안로 75
가나안지압안마원,"인천 남동구 남동대로 890, 501 (간석동, 탑메디칼)",032-427-1015,https://anma.or.kr/bbs/board.php?bo_table=B14&wr_id=33&page=3,인천,126.7086711,37.4618407,인천광역시 남동구 남동대로 890 탑메디칼빌딩
김영수지압안마원,인천 서구 서달로 14-8(석남동),032-431-7358,https://anma.or.kr/bbs/board.php?bo_table=B14&wr_id=32&page=3,인천,126.6793483,37.4995521,인천광역시 서구 서달로 14-8
김연서라파안마원,"인천 계양구 하느재로5번길 5, 2층 (계산동)",010-9185-8188,https://anma.or.kr/bbs/board.php?bo_table=B14&wr_id=31&page=3,인천,126.7244585,37.543914,인천광역시 계양구 하느재로5번길 5
간석힐링안마원,"인천 남동구 경인로644번길 69, 2층 (간석동)",032-431-7533,https://anma.or.kr/bbs/board.php?bo_table=B14&wr_id=30&page=4,인천,126.7118399,37.4660594,인천광역시 남동구 경인로644번길 69
기적의약손안마원,"인천 부평구 체육관로14, 308 (삼산동,삼성메디플러스)",032-362-6677,https://anma.or.kr/bbs/board.php?bo_table=B14&wr_id=29&page=4,인천,126.7330981,37.5083887,인천광역시 부평구 체육관로 14 삼산지구 복합시설
굿안마원,"인천 남동구 만수로21, 2층 (만수동)",032-289-3535,https://anma.or.kr/bbs/board.php?bo_table=B14&wr_id=27&page=4,인천,126.7311554,37.4590052,인천광역시 남동구 만수로 21
국민건강안마원,"인천 부평구 수변로 13, 302 (부개동)",032-208-8890,https://anma.or.kr/bbs/board.php?bo_table=B14&wr_id=26&page=4,인천,126.7395012,37.487911,인천광역시 부평구 수변로 13
국가명인지압안마원,"인천 서구 심곡로 81, 2층 (심곡동,국제빌딩)",032-561-6675,https://anma.or.kr/bbs/board.php?bo_table=B14&wr_id=25&page=4,인천,126.6785882,37.5422063,인천광역시 서구 심곡로 81
국가대표안마원,"인천 동구 솔빛로91번길 2-1, 4층 (송림동)",032-772-8575,https://anma.or.kr/bbs/board.php?bo_table=B14&wr_id=24&page=4,인천,126.6437762,37.4761788,인천광역시 동구 솔빛로91번길 2-1
국가대표케이에이(KA)안마원,"인천 연수구 용담로125번길 41, 301 (연수동)",032-821-8575,https://anma.or.kr/bbs/board.php?bo_table=B14&wr_id=23&page=4,인천,126.6798172,37.4157897,인천광역시 연수구 용담로125번길 41 메카리움오피스텔
광천명인지압안마원,인천 연수구 새말로 107 (연수동),032-814-1239,https://anma.or.kr/bbs/board.php?bo_table=B14&wr_id=22&page=4,인천,126.6811838,37.4186672,인천광역시 연수구 새말로 107
계양건강안마원,"인천 계양구 장제로995번길 7, 501 (박촌동,무진빌딩)",032-515-1015,https://anma.or.kr/bbs/board.php?bo_table=B14&wr_id=21&page=4,인천,126.7446185,37.5538427,인천광역시 계양구 장제로995번길 7
계수나무안마원,"인천 부평구 수변로9번길 4, 3층 (부개동,효정빌딩)",032-362-0505,https://anma.or.kr/bbs/board.php?bo_table=B14&wr_id=20&page=4,인천,126.7394093,37.487659,인천광역시 부평구 수변로9번길 4 효정빌딩
건강하세요안마원,"인천 미추홀구 소성로 177, 4층 (학익동,동호빌딩)",032-874-8757,https://anma.or.kr/bbs/board.php?bo_table=B14&wr_id=19&page=4,인천,126.6680491,37.4416569,인천광역시 미추홀구 소성로 177 동호빌딩
건강을주는안마원,"인천 미추홀구 토금북로 46, 2층 (용현동)",032-881-3575,https://anma.or.kr/bbs/board.php?bo_table=B14&wr_id=18&page=4,인천,126.6390595,37.4534541,인천광역시 미추홀구 토금북로 46
강화지압안마원,"인천 강화군 강화읍 중앙로 43, 202호 (터미널상가)",032-932-6625  010-2325-4585,https://anma.or.kr/bbs/board.php?bo_table=B14&wr_id=17&page=4,인천,126.4904043,37.7397958,인천광역시 강화군 강화읍 중앙로 43 강화여객자동차터미널
가장조은안마원,"인천 연수구 청능대로 109, 803 (연수동,탑피온)",032-813-3652,https://anma.or.kr/bbs/board.php?bo_table=B14&wr_id=16&page=4,인천,126.6767228,37.4129945,인천광역시 연수구 청능대로 109 탑피온
국가대표안마원,"인천 남동구 논고개로123번길 35, 406 (논현동, 칼리오페)",032-817-6725,https://anma.or.kr/bbs/board.php?bo_table=B14&wr_id=15&page=4,인천,126.7220901,37.4015154,인천광역시 남동구 논고개로123번길 35 칼리오페
가고파안마원,"울산광역시 남구 봉월로 162, 2층층 (신정동)",010-4527-1009,http://usanma.or.kr/bbs/content.php?co_id=d_c,울산,129.3077231,35.5466826,울산광역시 남구 봉월로 162
KSS근력강화,"울산광역시 남구 장검1길 21-16, 표현평면회화미술학원 (무거동)",010-3677-9646,http://usanma.or.kr/bbs/content.php?co_id=d_c,울산,129.2560381,35.5534118,울산광역시 남구 장검1길 21-16 표현평면회화미술학원
동양지압치료원,울산광역시 남구 삼산로317번길 12-7 (삼산동),010-9297-8575,http://usanma.or.kr/bbs/content.php?co_id=d_c,울산,129.342219,35.5411392,울산광역시 남구 삼산로317번길 12-7
몸사랑지압원,"울산광역시 남구 옥현로46번길 5-2, 2층 (무거동)",010-4150-0065,http://usanma.or.kr/bbs/content.php?co_id=d_c,울산,129.261682,35.5404581,울산광역시 남구 옥현로46번길 5-2
바른손지압원,울산광역시 남구 문수로369번길 16 (옥동),010-3442-2235,http://usanma.or.kr/bbs/content.php?co_id=d_c,울산,129.2941954,35.5360188,울산광역시 남구 문수로369번길 16
성신수기원,"울산광역시 남구 돋질로37번길 36, 2층 (신정동)",010-5374-3788,http://usanma.or.kr/bbs/content.php?co_id=d_c,울산,129.3089926,35.5404466,울산광역시 남구 돋질로37번길 36
수앤수안마원,"울산광역시 남구 삼산로 125, 2층 (달동)",010-8580-0017,http://usanma.or.kr/bbs/content.php?co_id=d_c,울산,129.3210229,35.536092,울산광역시 남구 삼산로 125
신의손지압원,"울산광역시 남구 봉월로82번길 6, 1층 (신정동)",010-2321-3347,http://usanma.or.kr/bbs/content.php?co_id=d_c,울산,129.3063172,35.5398347,울산광역시 남구 봉월로82번길 6
영생지압안마원,"울산광역시 남구 월평로 66, 2층 (신정동)",010-3283-7500,http://usanma.or.kr/bbs/content.php?co_id=d_c,울산,129.3126927,35.5420607,울산광역시 남구 월평로 66
제일지압안마원,"울산광역시 남구 문수로369번길 32, 1층 (신정동)", 010-2543-6544,http://usanma.or.kr/bbs/content.php?co_id=d_c,울산,129.2945733,35.5371771,울산광역시 남구 문수로369번길 32
태양지압교정원,울산광역시 남구 수암로115번길 6-18 (신정동),010-8553-5999,http://usanma.or.kr/bbs/content.php?co_id=d_c,울산,129.3212696,35.5285135,울산광역시 남구 수암로115번길 6-18
힐링안마원,울산광역시 남구 중앙로156번길 51 (달동),010-4590-8443,http://usanma.or.kr/bbs/content.php?co_id=d_c,울산,129.3196646,35.5366116,울산광역시 남구 중앙로156번길 51
수안지압원,"울산광역시 동구 진성1길 47 (전하동, 한라한빛타운 상가)",010-6618-6777,http://usanma.or.kr/bbs/content.php?co_id=d_c,울산,129.4264396,35.5120606,울산광역시 동구 진성1길 47 한라한빛타운 상가
척추지압안마원,울산광역시 동구 방어진순환도로 715 (전하동),010-3874-2535,http://usanma.or.kr/bbs/content.php?co_id=d_c,울산,129.4295387,35.5055742,울산광역시 동구 방어진순환도로 715
더바디테라피,"울산광역시 북구 명촌5길 5-3, JH빌딩 2층 (진장동)",010-4549-5042,http://usanma.or.kr/bbs/content.php?co_id=d_c,울산,129.3574422,35.5578418,울산광역시 북구 명촌5길 5-3 JH빌딩
엔젤안마원,울산광역시 북구 명촌13길 5-1 (명촌동),010-9327-3369,http://usanma.or.kr/bbs/content.php?co_id=d_c,울산,129.3518008,35.5555399,울산광역시 북구 명촌13길 5-1
건강지압안마원,울산광역시 울주군 온양읍 태화7길 36,010-3230-5563,http://usanma.or.kr/bbs/content.php?co_id=d_c,울산,129.2793656,35.4148432,울산광역시 울주군 온양읍 태화7길 36 석류빌
안마원의품격,"울산광역시 중구 동천6길 12, 101호 (서동, 해성빌라트)",010-7464-4585,http://usanma.or.kr/bbs/content.php?co_id=d_c,울산,129.3453584,35.5825757,울산광역시 중구 동천6길 12 해성빌라트
약손안마원,"울산광역시 중구 학성로 150, 5층 (학산동)",010-3887-8888,http://usanma.or.kr/bbs/content.php?co_id=d_c,울산,129.3273721,35.5561735,울산광역시 중구 학성로 150 대신증권
가타리나안마원,서울특별시 종로구 필운대로 15 (필운동),02-736-5965,http://www.anmawon.com/FindShop/Detail?shopId=02-0058,서울,126.9692473,37.5775924,서울특별시 종로구 필운대로 15
강남건강안마센터,"서울특별시 강남구 개포로 615 (개포동)석탑프라자 6층 603,604호",02-451-6010,http://www.anmawon.com/FindShop/Detail?shopId=02-0043,서울,127.0756013,37.4926645,서울특별시 강남구 개포로 615 석탑프라자
강서지압안마원,서울 강서구 강서로 385(마곡동 794-1)우성에스비타워 1004호,02-2662-7722,http://www.anmawon.com/FindShop/Detail?shopId=02-0004,서울,126.838266,37.5601067,서울특별시 강서구 강서로 385 우성에스비타워
강재만안마원,서울시 강북구 한천로139길 10 일심빌딩 302호,02-906-9990,http://www.anmawon.com/FindShop/Detail?shopId=02-0165,서울,127.0261223,37.6398014,서울특별시 강북구 한천로139길 10 일심빌딩
강지압안마원,서울특별시 종로구 진흥로 432 (구기동)4층 403호,02-379-3705,http://www.anmawon.com/FindShop/Detail?shopId=02-0059,서울,126.9566038,37.6082018,서울특별시 종로구 진흥로 432 요진오피스텔쉐레이
강흥수안마원,서울시 강서구 마곡서로 152 (마곡동) A동 304호,02-852-5588,http://www.anmawon.com/FindShop/Detail?shopId=02-0060,서울,126.8259797,37.5676701,서울특별시 강서구 마곡서로 152 두산더랜드타워
건강지압안마원,서울시 동대문구 보문로 18(신설동)(신설동 81-31),02-953-5050,http://www.anmawon.com/FindShop/Detail?shopId=02-0020,서울,127.0234427,37.57723,서울특별시 동대문구 보문로 18
건강클리닉안마원,서울특별시 성북구 한천로78길 36 (석관동)(석관동128-4) 2층,02-969-0511,http://www.anmawon.com/FindShop/Detail?shopId=02-0033,서울,127.0643177,37.6121007,서울특별시 성북구 한천로78길 36
건강플러스지압안마원,서울특별시 영등포구 당산로 122(당산동3가 270) 우미빌딩 121호,02-584-5456,http://www.anmawon.com/FindShop/Detail?shopId=02-0061,서울,126.8969496,37.5254126,서울특별시 영등포구 당산로 122 우미빌딩
건강한지압안마원,서울시 송파구 백제고분로48길 4 3층(방이동 110-6),02-371-0816,http://www.anmawon.com/FindShop/Detail?shopId=02-0155,서울,127.1136646,37.5116736,서울특별시 송파구 백제고분로48길 4
금호지압안마원,서울시 성동구 장터길 27(금호동3가) 2층,02-2272-8770,http://www.anmawon.com/FindShop/Detail?shopId=02-0161,서울,127.0188994,37.5484295,서울특별시 성동구 장터길 27
김해숙힐링안마원,서울특별시 관악구 남부순환로 1526(신림동) 2층,02-864-7578,http://www.anmawon.com/FindShop/Detail?shopId=02-0064,서울,126.9202393,37.4826184,서울특별시 관악구 남부순환로 1526 풍진빌딩
나클린안마원,서울특별시 도봉구 마들로 624 (방학동)206호,02-995-4000,http://www.anmawon.com/FindShop/Detail?shopId=02-0065,서울,127.0466493,37.6657881,서울특별시 도봉구 마들로 624 대상타운현대아파트
남산안마원,서울특별시 중구 퇴계로16길 35-21 (남산동1가) 1층,02-318-7582,http://www.anmawon.com/FindShop/Detail?shopId=02-0042,서울,126.9841376,37.5589021,서울특별시 중구 퇴계로16길 35-21
남양안마원,서울특별시 도봉구 노해로41길 10 (쌍문동),02-3394-7001,http://www.anmawon.com/FindShop/Detail?shopId=02-0110,서울,127.0267612,37.6494319,서울특별시 도봉구 노해로41길 10
늘푸른안마원,서울특별시 동대문구 망우로21가길 4 (휘경동) 2층 (휘경동) 2층,02-6080-8275,http://www.anmawon.com/FindShop/Detail?shopId=02-0160,서울,127.0624868,37.5906525,서울특별시 동대문구 망우로21가길 4
늘함안마원,서울시 송파구 오금로 13길 22 301호,02-424-3313,http://www.anmawon.com/FindShop/Detail?shopId=02-0159,서울,127.1101464,37.5137203,서울특별시 송파구 오금로13길 22
닥터수,서울특별시 종로구 대학로12길 69 (동숭동) 4층,02-743-2333,http://www.anmawon.com/FindShop/Detail?shopId=02-0175,서울,127.0039781,37.581013,서울특별시 종로구 대학로12길 69 태원빌딩
대성안마원,서울특별시 강북구 인수봉로56길 9-2 (수유동) 1층,010-2016-7575,http://www.anmawon.com/FindShop/Detail?shopId=02-0179,서울,127.0136449,37.6367278,서울특별시 강북구 인수봉로56길 9-2
더나은안마원,"서울특별시 도봉구 방학동 652-20, 201호",02-954-1030,http://www.anmawon.com/FindShop/Detail?shopId=02-0186,서울,127.0427003,37.669798,서울특별시 도봉구 도봉로153길 13
도봉안마원,서울특별시 도봉구 노해로60길 104 (쌍문동 100-26) 2층,"010-6263-6360, 02-900-6889",http://www.anmawon.com/FindShop/Detail?shopId=02-0070,서울,127.0325617,37.6470049,서울특별시 도봉구 노해로60길 104
도암안마원,"서울특별시 서초구 방배로13길 18 (방배동, 방배아크로타워) 213-214호",02-583-7553,http://www.anmawon.com/FindShop/Detail?shopId=02-0071,서울,126.9953391,37.4831047,서울특별시 서초구 방배로13길 18 방배아크로타워
도원안마원,서울특별시 관악구 남현3길 69 (남현동)(남현동 1062-20) 파크빌오피스텔 102호,02-586-3426,http://www.anmawon.com/FindShop/Detail?shopId=02-0072,서울,126.9802106,37.4754087,서울특별시 관악구 남현3길 69 파크빌오피스텔
동일지압안마원,서울특별시 동작구 동작대로17길 11 (사당동)(사당동 1009-25),02-585-0238,http://www.anmawon.com/FindShop/Detail?shopId=02-0073,서울,126.9804739,37.4827173,서울특별시 동작구 동작대로17길 11 사당동근생주택
라파안마원,서울특별시 양천구 중앙로 237 (신정동 1182-11) 507호,"010-5298-6111, 02-2647-7975",http://www.anmawon.com/FindShop/Detail?shopId=02-0075,서울,126.8536541,37.5177474,서울특별시 양천구 중앙로 237
마곡지압안마원,서울 강서구 강서로 462 대룡드림타워 2층 203호,02-3665-2677,http://www.anmawon.com/FindShop/Detail?shopId=02-0138,서울,126.841407,37.5666172,서울특별시 강서구 강서로 462 대룡드림타워-1
맑은손안마원,"서울시 마포구 양화로3길 37, 2층(합정동 386-39)",02-336-8753,http://www.anmawon.com/FindShop/Detail?shopId=02-0153,서울,126.9112176,37.5505639,서울특별시 마포구 양화로3길 37
메디칼지압안마원,서울특별시 구로구 구로동로26길 8(구로동 731-1),02-855-7576,http://www.anmawon.com/FindShop/Detail?shopId=02-0011,서울,126.8847379,37.4902569,서울특별시 구로구 구로동로26길 8 기산빅프라자
명인지압안마원,서울특별시 서초구 서초대로 306(서초동) 201호,"010-9351-7575, 02-522-9555",http://www.anmawon.com/FindShop/Detail?shopId=02-0080,서울,127.0151597,37.4938614,서울특별시 서초구 서초대로 306 서초1동우편취급소
명지압안마원,"서울특별시 광진구 자양로5길 8(자양동, 태솔타운) 201호",02-453-7418,http://www.anmawon.com/FindShop/Detail?shopId=02-0009,서울,127.0849065,37.5320841,서울특별시 광진구 자양로5길 8 태솔타운
몸사랑지압안마원(마포),서울특별시 마포구 서강로 104(신수동 66-4) 2층,02-332-2809,http://www.anmawon.com/FindShop/Detail?shopId=02-0081,서울,126.93336,37.5522305,서울특별시 마포구 서강로 104
무병장수안마원,서울특별시 동대문구 왕산로33길 21 (제기동) 2층,02-969-1475,http://www.anmawon.com/FindShop/Detail?shopId=02-0083,서울,127.0417184,37.5802671,서울특별시 동대문구 왕산로33길 21
밀알안마원,서울특별시 마포구 월드컵북로 184 (성산동) 2층,010-5553-7503,http://www.anmawon.com/FindShop/Detail?shopId=02-0085,서울,126.9083867,37.5681393,서울특별시 마포구 월드컵북로 184
바른손길안마원,서울특별시 관악구 관악로15길 6 (봉천동) 4층,02-878-1275,http://www.anmawon.com/FindShop/Detail?shopId=02-0141,서울,126.9520784,37.4804114,서울특별시 관악구 관악로15길 6
바른척추안마원,서울특별시 강서구 공항대로 227 (마곡동) 마곡센트럴타워 1차 406호,02-3664-7572,http://www.anmawon.com/FindShop/Detail?shopId=02-0174,서울,126.8326863,37.5596003,서울특별시 강서구 공항대로 227 마곡센트럴타워Ⅰ
박덕화안마원,서울특별시 강북구 도봉로 325(수유동),02-905-9993,http://www.anmawon.com/FindShop/Detail?shopId=02-0180,서울,127.0243657,37.637326,서울특별시 강북구 도봉로 325 수성타워
발산안마원,서울특별시 강서구 강서로 349(내발산동 654-4) 1층,02-2661-1375,http://www.anmawon.com/FindShop/Detail?shopId=02-0003,서울,126.8374016,37.5568905,서울특별시 강서구 강서로 349
백지압안마원,서울특별시 노원구 동일로 1343 (상계동),02-932-6700,http://www.anmawon.com/FindShop/Detail?shopId=02-0181,서울,127.0620148,37.6484977,서울특별시 노원구 동일로 1343 동일프라자빌딩
보라매맥진안마원,서울동작구 대방동1길 15-1하이빌,02-832-7575,http://www.anmawon.com/FindShop/Detail?shopId=02-0187,서울,126.9259212,37.5002109,서울특별시 동작구 대방동1길 15-1 하이빌
보라매지압안마원,서울특별시 관악구 봉천로 223-1 (봉천동 972-21) 2층,"010-3341-3145, 02-875-2789",http://www.anmawon.com/FindShop/Detail?shopId=02-0087,서울,126.9266734,37.4900101,서울특별시 관악구 봉천로 223-1
북창지압안마원,서울특별시 중구 남대문로1길 26-3 (북창동 71-4) 효림빌딩 3층,02-755-7113,http://www.anmawon.com/FindShop/Detail?shopId=02-0088,서울,126.9776247,37.562357,서울특별시 중구 남대문로1길 26-3
새아침안마원,서울특별시 양천구 신월로 309-1 (신정동 976-6)976-6,"010-5284-9999, 02-2695-6666",http://www.anmawon.com/FindShop/Detail?shopId=02-0037,서울,126.8553185,37.5218121,서울특별시 양천구 신월로 309-1
새힘힐링안마원,서울특별시 광진구 능동로39길 9 (중곡동 648-20) 201호,02-452-0691,http://www.anmawon.com/FindShop/Detail?shopId=02-0164,서울,127.079564,37.5584367,서울특별시 광진구 능동로39길 9
서울건강안마원,서울특별시 동작구 여의대방로 134-1 (대방동) 봉림빌딩 303호,02-825-9988,http://www.anmawon.com/FindShop/Detail?shopId=02-0022,서울,126.9207254,37.4990402,서울특별시 동작구 여의대방로 134-1
서울보건안마센터,"서울특별시 영등포구 당산로 214 (당산동5가, 당산 삼성 래미안) 상가동 지층09호",02-2069-1114,http://www.anmawon.com/FindShop/Detail?shopId=02-0050,서울,126.9031452,37.5322866,서울특별시 영등포구 당산로 214 당산 삼성 래미안
서울보건안마원,서울특별시 강남구 개포로 510(개포동 186-16) 401호,02-576-7573,http://www.anmawon.com/FindShop/Detail?shopId=02-0154,서울,127.0683608,37.4892964,서울특별시 강남구 개포로 510 현대빌딩
서울보건안마원,"서울시 양천구 목동로 177, 정동빌딩 402호",02-2694-1114,http://www.anmawon.com/FindShop/Detail?shopId=02-0156,서울,126.8645119,37.5243084,서울특별시 양천구 목동로 177 정동프라자
성심건강지압안마원,서울특별시 도봉구 노해로 341 (창동 338) 신원리베르텔 314호,02-905-9663,http://www.anmawon.com/FindShop/Detail?shopId=02-0090,서울,127.0459347,37.6514553,서울특별시 도봉구 노해로 341 신원리베르텔
손박사지압교정안마원,"서울 영등포구 신길동833 (여의대방로 197), 2층",02-822-4441,http://www.anmawon.com/FindShop/Detail?shopId=02-0150,서울,126.9218142,37.5045449,서울특별시 영등포구 여의대방로 197
승록안마원,서울시 영등포구 도영로 80 (도림동 819) 대우미래사랑 101동 207호,02-845-7775,http://www.anmawon.com/FindShop/Detail?shopId=02-0093,서울,126.9004813,37.511514,서울특별시 영등포구 도영로 80 대우미래사랑
승록안마원(중곡),서울시 광진구 중곡동29-80,02-461-7078,http://www.anmawon.com/FindShop/Detail?shopId=02-0010,서울,127.0854566,37.567611,서울특별시 광진구 능동로 436
승록자극요법안마원,"서울특별시 성동구 금호산9가길 34 (금호동3가, 금화아트빌)",02-2238-9087,http://www.anmawon.com/FindShop/Detail?shopId=02-0094,서울,127.0188274,37.5518601,서울특별시 성동구 금호산9가길 34 금화아트빌
신동만안마원,서울특별시 동대문구 경동시장로 11 (제기동) 2층,02-960-7844,http://www.anmawon.com/FindShop/Detail?shopId=02-0177,서울,127.0405989,37.5799091,서울특별시 동대문구 경동시장로 11
신의한손안마원,서울시 은평구 대조동 188-1 2층,02-356-7445,http://www.anmawon.com/FindShop/Detail?shopId=02-0145,서울,126.9242678,37.6157078,서울특별시 은평구 통일로 803-1 서부빌딩
실로암장애인근로사업장,서울 관악구 봉천동931-14,02-888-0729,http://www.anmawon.com/FindShop/Detail?shopId=02-0096,서울,126.9412408,37.4830741,서울특별시 관악구 남부순환로 1717 실로암시각장애인복지관
심광안마원,서울특별시 도봉구 노해로60길 26 (쌍문동),02-900-5173,http://www.anmawon.com/FindShop/Detail?shopId=02-0097,서울,127.0344053,37.6502257,서울특별시 도봉구 노해로60길 26
아바통증완화클리닉안마원,서울특별시 서초구 서초중앙로 107 (서초동 1575-9) 502호,010-8732-4949,http://www.anmawon.com/FindShop/Detail?shopId=02-0098,서울,127.0137966,37.4914591,서울특별시 서초구 서초중앙로 107 삼화빌딩
약손119안마원(서대문),서울특별시 서대문구 신촌역로 4 (대현동101-22) 2층,02-332-4300,http://www.anmawon.com/FindShop/Detail?shopId=02-0027,서울,126.9431302,37.5571133,서울특별시 서대문구 신촌역로 4
약손365안마원(목동),서울특별시 양천구 목동중앙북로7길 13 (목동 609-17) 3층,02-2655-2200,http://www.anmawon.com/FindShop/Detail?shopId=02-0099,서울,126.8672854,37.5487456,서울특별시 양천구 목동중앙북로7길 13 남강빌딩
약손경락안마원,서울특별시 서대문구 세무서길 84 (홍제동 268-6),02-394-6969,http://www.anmawon.com/FindShop/Detail?shopId=02-0100,서울,126.9471555,37.5914047,서울특별시 서대문구 세무서길 84
약손헬스케어(개봉동),서울특별시 구로구 개봉로6길 8 (개봉동) 201호,02-2685-2065,http://www.anmawon.com/FindShop/Detail?shopId=02-0101,서울,126.8569696,37.4867895,서울특별시 구로구 개봉로6길 8
약손CARE안마원,서울특별시 성북구 삼양로12길 7 (길음동) 지하1층,02-985-7572,http://www.anmawon.com/FindShop/Detail?shopId=02-0102,서울,127.0231023,37.6101131,서울특별시 성북구 삼양로12길 7
약수안마원,"서울특별시 중구 동호로10길 30 (신당동, 약수하이츠) 상가동 305호",02-2233-3040,http://www.anmawon.com/FindShop/Detail?shopId=02-0103,서울,127.0147458,37.5548919,서울특별시 중구 동호로10길 30 약수하이츠
어머니약손안마원,"서울특별시 강남구 삼성로 212 (대치동, 은마아파트) 202호",02-2057-7582,http://www.anmawon.com/FindShop/Detail?shopId=02-0104,서울,127.0650701,37.4977415,서울특별시 강남구 삼성로 212 은마아파트
엄지지압안마원,서울특별시 중랑구 면목로85길 8 (상봉동 108-36) 성우빌딩 2층,02-496-9703,http://www.anmawon.com/FindShop/Detail?shopId=02-0152,서울,127.0857637,37.5933418,서울특별시 중랑구 면목로85길 8 성우빌딩
엔자임힐링마사지전통경락안마원,서울특별시 마포구 만리재옛길 8 (신공덕동) 2층,"02-719-2234, 010-3350-5440",http://www.anmawon.com/FindShop/Detail?shopId=02-0106,서울,126.9545537,37.5449628,서울특별시 마포구 만리재옛길 8
영광지압힐링센터안마원,서울특별시 서대문구 북아현로 26-10 (북아현동),"010-2480-1135, 02-393-4568",http://www.anmawon.com/FindShop/Detail?shopId=02-0108,서울,126.9569759,37.5598379,서울특별시 서대문구 북아현로 26-10
예침지압안마원,"서울특별시 강북구 노해로7가길 30-5 (수유동, 엘루체) 201호",02-983-0065,http://www.anmawon.com/FindShop/Detail?shopId=02-0052,서울,127.0203619,37.6372051,서울특별시 강북구 노해로7가길 30-5 엘루체
우리안마원,"서울특별시 종로구 사직로8길 42 (내수동, 광화문시대) 719호",02-725-3298,http://www.anmawon.com/FindShop/Detail?shopId=02-0041,서울,126.9731379,37.573774,서울특별시 종로구 사직로8길 42 광화문시대
윤앤안마원,"서울특별시 관악구 신림로 318 (신림동, 청암두산위브센티움) 609호",010-2788-0240,http://www.anmawon.com/FindShop/Detail?shopId=02-0069,서울,126.9302485,37.4825924,서울특별시 관악구 신림로 318 청암두산위브센티움
은평건강안마원,서울특별시 은평구 은평로13길 3-1 (응암동) 2층,02-358-9675,http://www.anmawon.com/FindShop/Detail?shopId=02-0142,서울,126.9255891,37.6016169,서울특별시 은평구 은평로13길 3-1
은혜지압안마원,서울특별시 강동구 양재대로116길 29 (길동 364-12) 2층,02-489-0489,http://www.anmawon.com/FindShop/Detail?shopId=02-0112,서울,127.1421587,37.5384482,서울특별시 강동구 양재대로116길 29 금영빌딩
이성호안마원,서울특별시 광진구 아차산로49길 34-4 (구의동 252-128),02-446-2895,http://www.anmawon.com/FindShop/Detail?shopId=02-0048,서울,127.0845886,37.5383364,서울특별시 광진구 아차산로49길 34-4
이아소안마원,서울특별시 금천구 금하로 734-1(시흥동),02-869-7776,http://www.anmawon.com/FindShop/Detail?shopId=02-0183,서울,126.9113145,37.4502935,서울특별시 금천구 금하로 734-1
이조은안마원,"서울특별시 은평구 통일로67길 11 (대조동 9-40, 해오름시티) 2층 201호",02-354-8575,http://www.anmawon.com/FindShop/Detail?shopId=02-0039,서울,126.9281646,37.6106276,서울특별시 은평구 통일로67길 11 해오름시티
전통안마지압원,서울특별시 중구 퇴계로88길 61 (신당동) 3층,02-2238-8085,http://www.anmawon.com/FindShop/Detail?shopId=02-0115,서울,127.0195635,37.5632753,서울특별시 중구 퇴계로88길 61
전통약손안마원,서울특별시 은평구 통일로 833-5 (대조동) 201호,02-389-3897,http://www.anmawon.com/FindShop/Detail?shopId=02-0040,서울,126.9217977,37.6175608,서울특별시 은평구 통일로 833-5
정주지압안마원,서울특별시 양천구 오목로24길 17-1 (신정동 970-13),02-2608-9032,http://www.anmawon.com/FindShop/Detail?shopId=02-0116,서울,126.8525355,37.5227274,서울특별시 양천구 오목로24길 17-1
정지압안마원,서울특별시 관악구 남부순환로 1703 (봉천동 944-14) 2층,02-873-2879,http://www.anmawon.com/FindShop/Detail?shopId=02-0007,서울,126.9395413,37.4836028,서울특별시 관악구 남부순환로 1703
정지압안마원(신당),서울특별시 중구 동호로12길 60 (신당동 370-93),010-5252-2421,http://www.anmawon.com/FindShop/Detail?shopId=02-0117,서울,127.011853,37.5578111,서울특별시 중구 동호로12길 60
정체안마원,서울특별시 관악구 봉천로 493 (봉천동) 3층,02-6408-8868,http://www.anmawon.com/FindShop/Detail?shopId=02-0151,서울,126.9547678,37.4816863,서울특별시 관악구 봉천로 493
정통지압안마원(양천),서울시 양천구 신정동992-1 307호,02-2668-6556,http://www.anmawon.com/FindShop/Detail?shopId=02-0038,서울,126.863005,37.525697,서울특별시 양천구 오목로 232 보성팰리스
조은지압안마원,서울특별시 노원구 동일로180길 37 (공릉동) 2층,070-7717-7575,http://www.anmawon.com/FindShop/Detail?shopId=02-0184,서울,127.0762635,37.6226954,서울특별시 노원구 동일로180길 37 공릉상가
참손길안마원(대치),서울특별시 강남구 테헤란로70길 10 (대치동) 4층,"02-1599-3175, 02-566-3175",http://www.anmawon.com/FindShop/Detail?shopId=02-0143,서울,127.0532078,37.5049976,서울특별시 강남구 테헤란로70길 10 동헌빌딩
참손길안마원(사당),서울특별시 동작구 동작대로 83 (사당동) 4층,02-1600-3175,http://www.anmawon.com/FindShop/Detail?shopId=02-0077,서울,126.9816296,37.4840375,서울특별시 동작구 동작대로 83 헤라피스빌딩
참손길안마원(합정),서울특별시 마포구 성지길 25-11 (합정동) 2층,02-332-3175,http://www.anmawon.com/FindShop/Detail?shopId=02-0144,서울,126.9140408,37.5474274,서울특별시 마포구 성지길 25-11
참손길지압안마원,"서울특별시 영등포구 여의대방로 375 (여의도동) 401,402호",02-785-3175,http://www.anmawon.com/FindShop/Detail?shopId=02-0176,서울,126.9307891,37.5189066,서울특별시 영등포구 여의대방로 375 아일렉스타워
청량리명안마원,서울시 동대문구 왕산로228 청아빌딩 2층,010-4290-2505 02-961-8100,http://www.anmawon.com/FindShop/Detail?shopId=02-0092,서울,127.0477725,37.5818277,서울특별시 동대문구 왕산로 228
청솔지압안마원,"서울특별시 은평구 은평로13길 5-14 (응암동 85-24, 삼부하이빌) 402호",02-546-8557,http://www.anmawon.com/FindShop/Detail?shopId=02-0046,서울,126.9249126,37.6017019,서울특별시 은평구 은평로13길 5-14 삼부하이빌
체형밸런스안마원,서울시 서초구 서초동 1659-13,02-3446-2808,http://www.anmawon.com/FindShop/Detail?shopId=02-0167,서울,127.015957,37.4931845,서울특별시 서초구 서초대로54길 24
춘강안마원,"서울특별시 서초구 효령로21길 10 (방배동, 자이빌리지) 101호",02-3471-7734,http://www.anmawon.com/FindShop/Detail?shopId=02-0029,서울,126.9928304,37.4806613,서울특별시 서초구 효령로21길 10 자이빌리지
케이지압안마원,서울특별시 강남구 학동로42길 73 (논현동) 2층,02-549-1478,http://www.anmawon.com/FindShop/Detail?shopId=02-0182,서울,127.0377899,37.5109809,서울특별시 강남구 학동로42길 73
클린3호점안마원,서울시 서초구 양재동 6-36,02-585-3133,http://www.anmawon.com/FindShop/Detail?shopId=02-0173,서울,127.0410968,37.4818478,서울특별시 서초구 바우뫼로41길 30 양재테크노3차아파트
클린안마센터서울5호점,서울특별시 강남구 일원로9길 10 (일원동),02-445-0530,http://www.anmawon.com/FindShop/Detail?shopId=02-0119,서울,127.0823911,37.489443,서울특별시 강남구 일원로9길 10
클린안마센터서울7호점,"서울특별시 도봉구 해등로 118 (창동, 상아1차아파트) 상가동 205호",02-907-1116,http://www.anmawon.com/FindShop/Detail?shopId=02-0019,서울,127.0424203,37.6541696,서울특별시 도봉구 해등로 118 상아1차아파트
태양지압안마원,서울 금천구 시흥동841-46,02-896-7575,http://www.anmawon.com/FindShop/Detail?shopId=02-0120,서울,126.9034075,37.4543644,서울특별시 금천구 금하로11길 8
튼튼안마원,서울 동작구 대방동415-6,070-8728-7579,http://www.anmawon.com/FindShop/Detail?shopId=02-0122,서울,126.921055,37.49868,서울특별시 동작구 여의대방로24가길 10
평강안마원(구로),서울 구로구 구로동26 신도림포스빌 401호,010-8126-0997,http://www.anmawon.com/FindShop/Detail?shopId=02-0125,서울,126.89166,37.5057065,서울특별시 구로구 새말로 102 신도림포스빌
한강안마원(동작),서울특별시 동작구 노량진로 206 (노량진동),02-814-5114,http://www.anmawon.com/FindShop/Detail?shopId=02-0129,서울,126.9486586,37.5127519,서울특별시 동작구 노량진로 206 백명트렌디타워
한국정통안마원,서울특별시 노원구 동일로 1368(상계동) 501호,02-932-7577,http://www.anmawon.com/FindShop/Detail?shopId=02-0185,서울,127.0619362,37.6507458,서울특별시 노원구 동일로 1368 롯데프라자빌딩
해동안마원,서울특별시 중랑구 중랑역로 99 (중화동),02-433-6887,http://www.anmawon.com/FindShop/Detail?shopId=02-0045,서울,127.07781,37.6024355,서울특별시 중랑구 중랑역로 100 정상빌딩
행복안마원,서울 영등포구 당산동1가369번지 1층,011-9733-9733,http://www.anmawon.com/FindShop/Detail?shopId=02-0131,서울,126.8981024,37.5230299,서울특별시 영등포구 영등포로25길 23-1
황제지압안마원,서울특별시 동대문구 고산자로 459 1층,010-6279-8292,http://www.anmawon.com/FindShop/Detail?shopId=02-0162,서울,127.0382054,37.580666,서울특별시 동대문구 고산자로 459
힐링수안마원,서울시 동작구 대방동 339-14,02-814-5516,http://www.anmawon.com/FindShop/Detail?shopId=02-0023,서울,126.9282308,37.5128133,서울특별시 동작구 노량진로 20-5 레토하우스
힐링스토리안마원,서울시 광진구 자양동 627-21번지 덕산빌딩 201호,02-3436-7582,http://www.anmawon.com/FindShop/Detail?shopId=02-0133,서울,127.0838652,37.5350665,서울특별시 광진구 자양로 81
힐링스토리안마원,서울시 노원구 상계동 323-13 대국빌딩 3층,02.931.5550,http://www.anmawon.com/FindShop/Detail?shopId=02-0149,서울,127.0645763,37.6554135,서울특별시 노원구 노해로 509 대국빌딩
힐링약손안마원,서울시 강북구 도봉로 34-8 레드스타타워4층,02-6368-6111,http://www.anmawon.com/FindShop/Detail?shopId=02-0168,서울,127.0308153,37.6122736,서울특별시 강북구 도봉로 34-8
힐링캠프훈안마원,서울 서초구 서초동1691-1 현대빌딩 5층,02-573-3007,http://www.anmawon.com/FindShop/Detail?shopId=02-0134,서울,127.0155443,37.4947183,서울특별시 서초구 서초중앙로24길 18
KS약손명가안마원,서울 중랑구 면목7동634-10 한성빌딩 4층,02-438-3375,http://www.anmawon.com/FindShop/Detail?shopId=02-0136,서울,127.0871827,37.5797626,서울특별시 중랑구 면목로39길 8 한성빌딩
ks약손명가안마원,서울특별시 중랑구 면목로39길 8 (면목동) 한성빌딩 4층,02-438-3375,http://www.anmawon.com/FindShop/Detail?shopId=02-0178,서울,127.0871899,37.5797729,서울특별시 중랑구 면목로39길 8 한성빌딩
OJS치유안마원,서울시 용산구  녹사평대로 168-11 1층,02-2275-0675,http://www.anmawon.com/FindShop/Detail?shopId=02-0135,서울,126.9896094,37.5334038,서울특별시 용산구 녹사평대로 168-11
가나안안마원,"경기 부천시 부일로 414-6, 한일코지세상 A동 2층",032-667-7575,http://www.anmawon.com/FindShop/Detail?shopId=031-0040,경기,126.7760686,37.4866527,경기도 부천시 부일로 414-6 한일코지세상
가능안마원,"경기도 의정부시 의정부동 403-20, 1층",031-871-5015,http://www.anmawon.com/FindShop/Detail?shopId=031-0194,경기,127.0398712,37.744897,경기도 의정부시 가능로74번길 39-18
강남 안마원,"경기도 부천시 도당동 279-5, 301호",032-665-2254,http://www.anmawon.com/FindShop/Detail?shopId=031-0228,경기,126.7805721,37.5061671,경기도 부천시 옥산로 142
건강100세안마원,"경기도 남양주시 화도읍 마석우리288-7, 2층",031-559-0119,http://www.anmawon.com/FindShop/Detail?shopId=031-0214,경기,127.3098345,37.6521369,경기도 남양주시 화도읍 마석중앙로 91
건강드림안마원,경기도 고양시 일산동구 정발산동 1139 석우빌딩 502호,031-921-2001,http://www.anmawon.com/FindShop/Detail?shopId=031-0011,경기,126.7762173,37.6743832,경기도 고양시 일산동구 일산로 460 석우빌딩
건강백세지압안마원(수원),"경기도 수원시 장안구 영화동 345-3, 2동",031-242-0506,http://www.anmawon.com/FindShop/Detail?shopId=031-0063,경기,127.0106291,37.2914156,경기도 수원시 장안구 정조로945번길 24
건강안마원(수원),경기도 수원시 팔달구 우만동 527-34,031-212-7722,http://www.anmawon.com/FindShop/Detail?shopId=031-0176,경기,127.030758,37.2825366,경기도 수원시 팔달구 팔달문로 135
건강약손지압안마원,"경기도 의정부시 의정부동 406-4, 2층",031-856-8822,http://www.anmawon.com/FindShop/Detail?shopId=031-0121,경기,127.0395895,37.7466575,경기도 의정부시 가능로 78
건강지압교정안마원,"경기도 수원시 권선구 금곡동 240-27, 1층",031-294-7585,http://www.anmawon.com/FindShop/Detail?shopId=031-0218,경기,126.9577583,37.2698891,경기도 수원시 권선구 금호로 57
건강지압안마원,"경기 안산시 상록구 본오3동 덕암빌딩 873-9 202, 203호",031-409-8575,http://www.anmawon.com/FindShop/Detail?shopId=031-0080,경기,126.876052,37.2902799,경기도 안산시 상록구 본삼로 45 덕암빌딩
건강지압안마원(여주),"경기도 여주시 대신면 율촌리 363-15, 덕암빌딩 2층",031-883-8799,http://www.anmawon.com/FindShop/Detail?shopId=031-0099,경기,127.5835069,37.373332,경기도 여주시 대신면 여양로 1484
경기안마원,"경기도 수원시 권선구 세류3동 477-14, 1층",031-233-8438,http://www.anmawon.com/FindShop/Detail?shopId=031-0058,경기,127.01275,37.2603669,경기도 수원시 권선구 정조로 575
경락약손치료안마원,"경기도 시흥시 정왕동 1728-20, 407호",031-432-6282,http://www.anmawon.com/FindShop/Detail?shopId=031-0073,경기,126.7339281,37.3460772,경기도 시흥시 중심상가로 161 그라미아빌딩
경안지압안마원,"경기도 안양시 동안구 관양동 1474-10, 2층",031-423-3171,http://www.anmawon.com/FindShop/Detail?shopId=031-0201,경기,126.9718644,37.404503,경기도 안양시 동안구 관악대로 442
고경환 지압안마원,"경기도 수원시 팔달구 화서2동 644-5, 그린프라자 5층",031-255-3337,http://www.anmawon.com/FindShop/Detail?shopId=031-0068,경기,126.9910674,37.2849952,경기도 수원시 팔달구 덕영대로697번길 17 그린프라자
광명바른손안마원,경기도 광명시 철산동 441 그랜드프라자 5층,02.2612.1255,http://www.anmawon.com/FindShop/Detail?shopId=031-0144,경기,126.8705587,37.474515,경기도 광명시 디지털로33번길 5
교하보건 안마원,"경기도 파주시 청석로 272(동패동), 센터프라자 405호",031-944-9967,http://www.anmawon.com/FindShop/Detail?shopId=031-0223,경기,126.717702,37.7261179,경기도 파주시 청석로 272 센타프라자1
국가대표안마센터 김포점,"경기도 김포시 김포한강8로 382(구래동), 고은메디타워 505호",031-997-8187,http://www.anmawon.com/FindShop/Detail?shopId=031-0033,경기,126.6266123,37.6435559,경기도 김포시 김포한강8로 382
국가대표안마원,"경기도 부천시 중동 1141-1, 무광오피스빌딩 4층",032-327-8575,http://www.anmawon.com/FindShop/Detail?shopId=031-0173,경기,126.7728441,37.5028999,경기도 부천시 길주로 276 무광오피스빌딩
그린힐마사지지압안마원,"경기 군포시 금정동 870-8, 그린힐스포츠센터 지하1층",031-396-8770,http://www.anmawon.com/FindShop/Detail?shopId=031-0032,경기,126.9375659,37.3566508,경기도 군포시 산본로 276
금손지압안마원,경기도 남양주시 별내동 1008 쎈타프라자 901호,010-9251-2978,http://www.anmawon.com/FindShop/Detail?shopId=031-0234,경기,127.124981,37.6464215,경기도 남양주시 별내2로 64 쎈타프라자
금오힐링수안마원,"경기도 의정부시 신곡동 761-1, 금오센타프라자 7층금오센타프라자 7층",031-851-2044,http://www.anmawon.com/FindShop/Detail?shopId=031-0195,경기,127.0698855,37.749537,경기도 의정부시 청사로5번길 8-17 센타프라자
금파경락지압아마원,"경기도 김포시 김포한강7로22번길 174-106, 1층",031-984-4022,http://www.anmawon.com/FindShop/Detail?shopId=031-0160,경기,126.6425533,37.642225,경기도 김포시 김포한강7로22번길 174-106
김승곤지압안마원,"경기도 안양시 만안구 안양동 534, 엘리제빌리지 212호",010-2732-4875,http://www.anmawon.com/FindShop/Detail?shopId=031-0186,경기,126.933791,37.3848325,경기도 안양시 만안구 안양로 110 엘리제빌리지
김포보건힐링안마원,"경기도 김포시 풍무동 532-3, 프라임빌복합상가 2층 206호",010-4422-8255,http://www.anmawon.com/FindShop/Detail?shopId=031-0205,경기,126.7277976,37.5968543,경기도 김포시 유현로 52 프라임빌복합상가
나은힐링안마원,"경기도 용인시 기흥구 죽전로 29, 포레스트프라자 7층",031-889-6699,http://www.anmawon.com/FindShop/Detail?shopId=031-0190,경기,127.1120832,37.3207465,경기도 용인시 기흥구 죽전로 29 포레스트프라자
나음안마원,"경기도 평택시 합정동 746-8, 3층",031-692-4252,http://www.anmawon.com/FindShop/Detail?shopId=031-0129,경기,127.093579,36.9915524,경기도 평택시 평택3로 28
내손안마원,"경기도 의왕시 포일동 662, 파레사타워 401호",031-422-3507,http://www.anmawon.com/FindShop/Detail?shopId=031-0110,경기,126.9847629,37.3959701,경기도 의왕시 포일세거리로 3 파레사타워
네이버 안마원,"경기도 부천시 원미구 중동 1145-2, 네이버시티빌딩 2층",032-321-9717,http://www.anmawon.com/FindShop/Detail?shopId=031-0039,경기,126.7716324,37.5012028,경기도 부천시 중동로248번길 52 네이버시티빌딩
뉴부일지압안마원,"경기도 부천시 심곡본동 554-3, 2층",032-655-8275,http://www.anmawon.com/FindShop/Detail?shopId=031-0050,경기,126.7848133,37.4831954,경기도 부천시 경인로 263
늘사랑약손안마원,"경기도 의정부시 호원동 430, 우성아파트 상가 210,211호",031-837-7075,http://www.anmawon.com/FindShop/Detail?shopId=031-0116,경기,127.0487993,37.7235824,경기도 의정부시 평화로322번길 52 호원3차우성아파트
늘푸른남양주안마원,"경기도 남양주시 평내동 203-2, 혜림빌딩 3층 301호",031-591-5950,http://www.anmawon.com/FindShop/Detail?shopId=031-0165,경기,127.2369922,37.6494396,경기도 남양주시 경춘로 1298 혜림빌딩
다나건강안마원,"경기도 광명시 광명동 208-8, 1층",02-2617-6600,http://www.anmawon.com/FindShop/Detail?shopId=031-0156,경기,126.8503745,37.4779507,경기도 광명시 너부대로 46
다나안마원,"경기도 고양시 덕양구 주교동 621, 우담빌딩 2층",031-966-8576,http://www.anmawon.com/FindShop/Detail?shopId=031-0019,경기,126.8382256,37.6591419,경기도 고양시 덕양구 마상로 140 임성빌딩
다나지압안마원,"경기도 의정부시 용현동 554-7, 경은빌딩 4층",031-853-0112,http://www.anmawon.com/FindShop/Detail?shopId=031-0211,경기,127.0874296,37.737585,경기도 의정부시 충의로 62
다산지압안마원,"경기도 남양주시 다산동 4135-5, 2층",031-555-0875,http://www.anmawon.com/FindShop/Detail?shopId=031-0161,경기,127.1566572,37.6052438,경기도 남양주시 경춘로 380 대진빌딩
다온 안마원,경기도 안산시 상록구 이동 716-1 삼성프라자 1층,031-439-1919,http://www.anmawon.com/FindShop/Detail?shopId=031-0219,경기,126.8526222,37.3079614,경기도 안산시 상록구 중보로 55 삼성프라자
대산안마원,경기 포천시 영북면 운천리483-1외 1필지1층,031-532-0982,http://www.anmawon.com/FindShop/Detail?shopId=031-0130,경기,127.273152,38.0936744,경기도 포천시 영북면 영북로 217
덕계지압안마원,경기도 양주시 덕계동 451-29,031-858-8088,http://www.anmawon.com/FindShop/Detail?shopId=031-0010,경기,127.048833,37.8208813,경기도 양주시 평화로1466번길 8
덕소안마원,"경기도 남양주시 와부읍 수레로 12, 2층",031-577-2230,http://www.anmawon.com/FindShop/Detail?shopId=031-0162,경기,127.2135157,37.5867016,경기도 남양주시 와부읍 수레로 12
동두천안마원,경기도 동두천시 생골로 16(생연동),031-865-7852,http://www.anmawon.com/FindShop/Detail?shopId=031-0037,경기,127.0597571,37.9001597,경기도 동두천시 생골로 16
동인보건 안마원,경기도 광주시 목동 392-10 동인요양원 지하 1층,031-797-5501,http://www.anmawon.com/FindShop/Detail?shopId=031-0226,경기,127.1949006,37.3825305,경기도 광주시 목동길46번길 28 동인요양원
동탄보건안마원,"경기도 화성시 동탄대로19길 10(오산동), 신유메디프라자 703,704호",031-372-7791,http://www.anmawon.com/FindShop/Detail?shopId=031-0238,경기,127.0977682,37.1971942,경기도 화성시 동탄대로19길 10
동화안마원,"경기도 화성시 봉담읍 동화리 600-6, 지존타워 402호",031-278-5741,http://www.anmawon.com/FindShop/Detail?shopId=031-0137,경기,126.9593576,37.2164562,경기도 화성시 봉담읍 동화길 93-6
두손지압안마원,"경기도 부천시 괴안동 128-1, 역곡프라자 205호",032-346-8875,http://www.anmawon.com/FindShop/Detail?shopId=031-0043,경기,126.8127433,37.4851022,경기도 부천시 경인로 519
두손헬스케어 안마원,경기도 안산시 상록구 사동 1306-10,031-409-2070,http://www.anmawon.com/FindShop/Detail?shopId=031-0220,경기,126.8503765,37.2964135,경기도 안산시 상록구 네고지2길 17
드림안마원,경기도 수원시 영통구 매탄동 1205-7,031-893-7575,http://www.anmawon.com/FindShop/Detail?shopId=031-0065,경기,127.052166,37.271557,경기도 수원시 영통구 매봉로35번길 16-6
따뜻한손 안마원,"경기도 양평군 양평읍 남북로 9, 2층",031-774-3763,http://www.anmawon.com/FindShop/Detail?shopId=031-0224,경기,127.5003699,37.4837392,경기도 양평군 양평읍 남북로 9
라파건강안마원,"경기도 성남시 분당구 정자동 159-1, 백궁프라자1빌딩 402호",031-719-9062,http://www.anmawon.com/FindShop/Detail?shopId=031-0142,경기,127.1063146,37.365435,경기도 성남시 분당구 성남대로331번길 13
라파안마원,"경기도 과천시 별양상가로 7(별양동), 벽산상가 408호",02-507-8575,http://www.anmawon.com/FindShop/Detail?shopId=031-0020,경기,126.9929622,37.4280075,경기도 과천시 별양상가로 7 벽산상가
라파의집지압안마원,"경기도 안산시 단원구 선부광장1로 14(선부동, 광원빌딩), 3층",031-410-4475,http://www.anmawon.com/FindShop/Detail?shopId=031-0182,경기,126.8072904,37.335869,경기도 안산시 단원구 선부광장1로 14 광원빌딩
라파힐링케어안마원,고양시 일산동구 강석로 145(마두동)2층,031-901-4789,http://www.anmawon.com/FindShop/Detail?shopId=031-0210,경기,126.7779253,37.6535041,경기도 고양시 일산동구 강석로 145 고양축협 마두지점
로뎀안마원,"경기도 안산시 단원구 고잔동 531-2, 에메랄드빌딩 5층",031-411-4321,http://www.anmawon.com/FindShop/Detail?shopId=031-0179,경기,126.8328731,37.3176389,경기도 안산시 단원구 고잔2길 16 에머랄드빌딩
마법의약손안마원,"경기도 부천시 상동로 105(상동), 현해프라자 504호",032-326-8875,http://www.anmawon.com/FindShop/Detail?shopId=031-0046,경기,126.7527977,37.5066959,경기도 부천시 상동로 105 현해프라자
맑은손안마원,"경기도 의정부시 시민로 134(의정부동), 2층",031-878-9888,http://www.anmawon.com/FindShop/Detail?shopId=031-0007,경기,127.0499759,37.7378472,경기도 의정부시 시민로 134
맑은손지압안마원,"경기도 구리시 인창동 670-7 화성골드프라자, 3층 307호",031-553-5006,http://www.anmawon.com/FindShop/Detail?shopId=031-0027,경기,127.1405198,37.604429,경기도 구리시 건원대로 36 화성골드프라자
맥 안마원(부천),경기도 부천시 상동 541-1 메가플러스 214호(2층),032-511-8575,http://www.anmawon.com/FindShop/Detail?shopId=031-0227,경기,126.7537203,37.5051441,경기도 부천시 상동로 90 메가플러스
맥안마원,"경기도 파주시 금촌동 767-3, 1층",031-941-3557,http://www.anmawon.com/FindShop/Detail?shopId=031-0127,경기,126.7764515,37.7603239,경기도 파주시 금정14길 32
명문당지압안마원,경기도 동두천시 생연동 677-8,031-865-6866,http://www.anmawon.com/FindShop/Detail?shopId=031-0036,경기,127.0541495,37.9015367,경기도 동두천시 어수로106번길 16
명성지압안마원,"경기도 용인시 수지구 죽전동 1176-3, SR프라자 202호",031-897-6636,http://www.anmawon.com/FindShop/Detail?shopId=031-0106,경기,127.1212223,37.3319709,경기도 용인시 수지구 현암로 107 SR프라자
명성지압안마원,"경기도 수원시 팔달구 화양로5번길 1(화서동), 401호",031-241-7482,http://www.anmawon.com/FindShop/Detail?shopId=031-0079,경기,126.9988752,37.2790608,경기도 수원시 팔달구 화양로5번길 1 정재빌딩
모담지압안마원,"경기 수원시 팔달구 인계로94번길 8, 4층",010-9060-6666,http://www.anmawon.com/FindShop/Detail?shopId=031-0060,경기,127.0275277,37.2678503,경기도 수원시 팔달구 인계로94번길 8
모란약손안마원,"경기도 성남시 중원구 광명로 20-1(성남동), 3층",031-753-1116,http://www.anmawon.com/FindShop/Detail?shopId=031-0174,경기,127.1314766,37.4331055,경기도 성남시 중원구 광명로 20-1
문산제일안마원,"경기도 파주시 문산읍 문향로49번길 20, 로얄빌딩 303호",031-953-8387,http://www.anmawon.com/FindShop/Detail?shopId=031-0009,경기,126.7843218,37.8565149,경기도 파주시 문산읍 문향로49번길 20 로얄빌딩
바디사이언스늘푸른안마원,"경기도 수원시 영통구 영통동 996-4, 보보스프라자 309호",031-204-6595,http://www.anmawon.com/FindShop/Detail?shopId=031-0213,경기,127.0750343,37.2544769,경기도 수원시 영통구 봉영로 1612 보보스프라자
박찬일지압원,"경기도 이천시 중리동 215-7, 2층",031-638-6936,http://www.anmawon.com/FindShop/Detail?shopId=031-0123,경기,127.4459764,37.277361,경기도 이천시 중리천로82번길 26 중리빌딩
백세지압안마원,"경기도 남양주시 진접읍 장현리 634-4, 장현프라자 206호",070-8621-8945,http://www.anmawon.com/FindShop/Detail?shopId=031-0163,경기,127.1809447,37.7177458,경기도 남양주시 진접읍 장현로 77 장현프라자
벧엘새아침안마원,"경기 고양시 덕양구 토당동 869-3, 피렌체뷰 204호",031-972-8546,http://www.anmawon.com/FindShop/Detail?shopId=031-0152,경기,126.8231897,37.6182628,경기도 고양시 덕양구 토당로 18 피렌체뷰
부일지압안마원,"경기도 부천시 심곡본동 551-12, 1층",032-346-6665,http://www.anmawon.com/FindShop/Detail?shopId=031-0169,경기,126.7835197,37.4834056,경기도 부천시 자유로 68 심곡본동 근린생활시설
부천보건지압안마센터 안마원,"경기도 부천시 상동로 69(상동), 새롬프라자15차 304호",032-321-7954,http://www.anmawon.com/FindShop/Detail?shopId=031-0172,경기,126.7522343,37.5037563,경기도 부천시 상동로 69 새롬프라자(15차)
부천약손지압안마원,경기 부천시 송내동 349-8 103~104호,032-654-8575,http://www.anmawon.com/FindShop/Detail?shopId=031-0051,경기,126.7569838,37.4871916,경기도 부천시 송내대로42번길 65
부천지압안마원,"경기도 부천시 중동 1143-3, 303호",032-675-9374,http://www.anmawon.com/FindShop/Detail?shopId=031-0138,경기,126.7731223,37.5016027,경기도 부천시 중동로254번길 78 필타운
분당건강안마원(성남),"경기도 성남시 분당구 금곡동 166, 이코노샤르망 806호",031-717-3132,http://www.anmawon.com/FindShop/Detail?shopId=031-0055,경기,127.1073827,37.3503985,경기도 성남시 분당구 돌마로 47 이코노샤르망
서광민속안마원,"경기도 안산시 상록구 각골로 68-1, 3층",031-409-5996,http://www.anmawon.com/FindShop/Detail?shopId=031-0082,경기,126.8729475,37.2955663,경기도 안산시 상록구 각골로 68-1
서울안마원,"경기도 부천시 부일로 320(중동), 203호",032-665-5932,http://www.anmawon.com/FindShop/Detail?shopId=031-0171,경기,126.7655589,37.4881959,경기도 부천시 부일로 320
서울포인트지압안마원,경기도 안산시 단원구 고잔동 705-4 동일프라자 206호,010-4013-1489,http://www.anmawon.com/FindShop/Detail?shopId=031-0239,경기,126.8286482,37.3131332,경기도 안산시 단원구 광덕3로 145-5 동일프라자
서현국가공인안마센터안마원,"경기도 성남시 분당구 불정로376번길 7(서현동), 건일빌딩 302호",010-5244-1118,http://www.anmawon.com/FindShop/Detail?shopId=031-0235,경기,127.1370505,37.3737399,경기도 성남시 분당구 불정로376번길 7 건일빌딩
서현지압안마센터안마원,"경기도 부천시 소사로 775(원종동), 2층",032-673-7274,http://www.anmawon.com/FindShop/Detail?shopId=031-0245,경기,126.8045589,37.5254378,경기도 부천시 소사로 775
선한손지압안마원,"경기도 안양시 동안구 관양동 1422-12, 4층 401호",031-426-9475,http://www.anmawon.com/FindShop/Detail?shopId=031-0187,경기,126.9615818,37.4042515,경기도 안양시 동안구 관악대로 349
성심무병프로젝트안마원,경기 의정부시 신곡동 676-14 지하1층,031-842-7755,http://www.anmawon.com/FindShop/Detail?shopId=031-0114,경기,127.0562959,37.7437819,경기도 의정부시 추동로5번길 23
소생지압안마원,"경기도 부천시 경인로 469-1, 4층",032-325-8275,http://www.anmawon.com/FindShop/Detail?shopId=031-0049,경기,126.8079077,37.4829108,경기도 부천시 경인로 469-1
손길지압 안마원,"경기도 포천시 소흘읍 송우로 53, 우덕프라자 304-1호",031-544-5653,http://www.anmawon.com/FindShop/Detail?shopId=031-0231,경기,127.1430703,37.82871,경기도 포천시 소흘읍 송우로 53 우덕프라자
손안마원,"경기도 광주시 파발로 103, 2층",031-797-7655,http://www.anmawon.com/FindShop/Detail?shopId=031-0023,경기,127.2592113,37.4135128,경기도 광주시 파발로 103
솔모루지압안마원,"경기도 포천시 소흘읍 송우로 65, 메듀파크빌딩 706호",031-542-7589,http://www.anmawon.com/FindShop/Detail?shopId=031-0131,경기,127.1416385,37.8293912,경기도 포천시 소흘읍 송우로 65 메듀파크
송안마원,"경기도 파주시 조리읍 봉일천리 157-1, 1층",031-947-1318,http://www.anmawon.com/FindShop/Detail?shopId=031-0125,경기,126.8056191,37.7433225,경기도 파주시 조리읍 공릉장터길 27 무궁화아파트
송창운안마원,"경기도 안산시 단원구 고잔동 727-2, 현대타운 107호",031-411-1413,http://www.anmawon.com/FindShop/Detail?shopId=031-0181,경기,126.8326362,37.31329,경기도 안산시 단원구 광덕동로 99 현대타운
승록안마원(군포),경기도 군포시 산본동 1142-7 중앙타워 301호,031-398-8586,http://www.anmawon.com/FindShop/Detail?shopId=031-0030,경기,126.9315728,37.3579336,경기도 군포시 번영로 489 중앙타워
시온안마원,"경기도 의정부시 금오동 473-2, 삼성프라자 4층",031-853-5675,http://www.anmawon.com/FindShop/Detail?shopId=031-0111,경기,127.0696991,37.7519177,경기도 의정부시 청사로 41 삼성프라자
시흥보건효자약손안마원,경기 시흥시 거모동 1658-19외 1필지 503호,031-494-4475,http://www.anmawon.com/FindShop/Detail?shopId=031-0075,경기,126.7839416,37.3402679,경기도 시흥시 도일로 110-2
신.약손안마원,"경기 안양시 동안구 평촌동 930-5, 1층",031-386-1348,http://www.anmawon.com/FindShop/Detail?shopId=031-0085,경기,126.9651391,37.3830928,경기도 안양시 동안구 관평로69번길 7-13
신기한손안마원,"경기도 용인시 기흥구 구갈동 383-3 , 명지빌딩 2층",031-283-4155,http://www.anmawon.com/FindShop/Detail?shopId=031-0192,경기,127.1140522,37.2776637,경기도 용인시 기흥구 구갈로28번길 23 명지빌딩
신성안마원,"경기도 안양시 만안구 안양6동 500-2, 1층",031-465-7525,http://www.anmawon.com/FindShop/Detail?shopId=031-0090,경기,126.9284992,37.3862333,경기도 안양시 만안구 수리산로12번길 26
실로암안마원(수원),경기 수원시 팔달구 우만2동 67-4외 3필지 202호,031-217-7790,http://www.anmawon.com/FindShop/Detail?shopId=031-0059,경기,127.0424724,37.278241,경기도 수원시 팔달구 중부대로239번길 58
아픈데척척지압안마원,경기 오산시 양산동 382-3 지하,031-378-2205,http://www.anmawon.com/FindShop/Detail?shopId=031-0101,경기,127.0234293,37.1956024,경기도 오산시 한신대길 125-1
안녕지압안마원,"경기도 화성시 송산동 148-26, 파인빌 101호",031-234-7275,http://www.anmawon.com/FindShop/Detail?shopId=031-0200,경기,127.0145437,37.2092798,경기도 화성시 화산로 58
안산보건안마원센터,"경기도 안산시 상록구 이동 716-12, 캠퍼스타운 409호",031-418-9985,http://www.anmawon.com/FindShop/Detail?shopId=031-0178,경기,126.8523953,37.3084656,경기도 안산시 상록구 광덕1로 386 캠퍼스타운
안성지압안마원,"경기도 안성시 낙원동 56-1, 102호",031-8057-2103,http://www.anmawon.com/FindShop/Detail?shopId=031-0184,경기,127.2758254,37.0037554,경기도 안성시 장기로 118
약손건강안마 지압원,경기도 시흥시 대야동 498-12 동진빌딩 2층,031-404-7599,http://www.anmawon.com/FindShop/Detail?shopId=031-0225,경기,126.786143,37.4422949,경기도 시흥시 대골안길 86 동진빌딩
약손공간지압안마원,"경기도 부천시 경인로3번길 28(송내동), 2층",032-666-8588,http://www.anmawon.com/FindShop/Detail?shopId=031-0168,경기,126.7545438,37.4838156,경기도 부천시 경인로3번길 28
약손안마원(안양),"경기도 안양시 동안구 관양동 1505-25 삼우프라자, 502호",031-424-2343,http://www.anmawon.com/FindShop/Detail?shopId=031-0088,경기,126.977352,37.4007676,경기도 안양시 동안구 흥안대로 524 삼우프라자
약손안마원(여주),"경기도 여주시 하동 187-5, 1층",031-882-0975,http://www.anmawon.com/FindShop/Detail?shopId=031-0188,경기,127.632032,37.2991143,경기도 여주시 청심로 106
약손안마원(하남),경기도 하남시 덕풍동 394-1 하남프라자 306호,031-793-7708,http://www.anmawon.com/FindShop/Detail?shopId=031-0199,경기,127.2019484,37.5399568,경기도 하남시 신장로 156 하남프라자
약손지압안마원,"경기도 고양시 일산서구 일산동 1064-3 신일산연합상가, 지하1층",031-915-1375,http://www.anmawon.com/FindShop/Detail?shopId=031-0015,경기,126.7657618,37.678951,경기도 고양시 일산서구 일산로 562 신일산연합상가
약손지압안마원,경기도 수원시 권선구 금곡동 1124 광일프라자 506호,031-298-8575,http://www.anmawon.com/FindShop/Detail?shopId=031-0237,경기,126.9544811,37.2731831,경기도 수원시 권선구 금곡로212번길 25 광일프라자
약손지압안마원(안양),경기도 안양시 만안구 안양동 676-91 안양 메쎄 포스빌 807호,031-445-8275,http://www.anmawon.com/FindShop/Detail?shopId=031-0087,경기,126.9207803,37.3988241,경기도 안양시 만안구 안양로 303 안양 메쎄 포스빌
양평헬스케어안마원,"경기도 양평군 지평면 지평로 398, 1층",031-773-7687,http://www.anmawon.com/FindShop/Detail?shopId=031-0098,경기,127.6369162,37.4753616,경기도 양평군 지평면 지평로 398
엄지안마원,"경기도 가평군 가평읍 대곡리 239-20, 2층",031-581-1271,http://www.anmawon.com/FindShop/Detail?shopId=02-0139,경기,127.5143195,37.8260812,경기도 가평군 가평읍 오리나무길 15-1 주연테크
엔돌핀안마원,"경기도 오산시 오산로 347(궐동), 보화빌딩 2층",031-376-7579,http://www.anmawon.com/FindShop/Detail?shopId=031-0100,경기,127.0670033,37.1576921,경기도 오산시 오산로 347
엔돌핀안마원(수원),"경기도 수원시 팔달구 인계동 749-7, 2층",031-233-7774,http://www.anmawon.com/FindShop/Detail?shopId=031-0066,경기,127.0227907,37.2753374,경기도 수원시 팔달구 중부대로 54
여주경락지압안마원,"경기도 여주시 청심로 116-1(하동), 1층",031-885-0177,http://www.anmawon.com/FindShop/Detail?shopId=031-0189,경기,127.6333171,37.2987622,경기도 여주시 청심로 116-1
예쁘제경락경혈지압안마원,"경기도 수원시 장안구 파장로54번길 6, 1층",031-269-1573,http://www.anmawon.com/FindShop/Detail?shopId=031-0071,경기,126.9951274,37.3058828,경기도 수원시 장안구 파장로54번길 6
예손지압안마원(고양),"경기도 고양시 덕양구 원흥동 629-1, 반도 유스퀘어 805호",031-967-8208,http://www.anmawon.com/FindShop/Detail?shopId=031-0151,경기,126.8753674,37.649684,경기도 고양시 덕양구 삼송로 12 반도 유스퀘어
예손지압안마원(시흥),"경기도 시흥시 은계호수로 49, 시흥 센트럴돔 그랑트리 캐슬 3033,3034호",031-315-8677,http://www.anmawon.com/FindShop/Detail?shopId=031-0072,경기,126.8020504,37.4458742,경기도 시흥시 은계호수로 49 시흥 센트럴돔 그랑트리 캐슬
예침지압안마원,"경기도 군포시 고산로250번길 32(당동, 덕산아파트), 3동상가 401호",031-399-0027,http://www.anmawon.com/FindShop/Detail?shopId=031-0031,경기,126.9452243,37.3489038,경기도 군포시 고산로250번길 32 덕산아파트
오병헌 건강 안마원,"경기도 용인시 처인구 김량장동 344-3, 1층",031-322-8993,http://www.anmawon.com/FindShop/Detail?shopId=031-0103,경기,127.2014329,37.2326611,경기도 용인시 처인구 중부대로 1414-1
오손도손 건강안마원,경기도 가평군 가평읍 읍내리 618-6,010-7345-2652,http://www.anmawon.com/FindShop/Detail?shopId=031-0150,경기,127.5115911,37.8322263,경기도 가평군 가평읍 옥골길 3
오포참조은안마원,"경기도 광주시 오포읍 양벌리 372-2, 3층",031-765-1222,http://www.anmawon.com/FindShop/Detail?shopId=031-0149,경기,127.253876,37.377331,경기도 광주시 오포읍 양벌로215번길 4
오학안마원,"경기도 여주시 천송동 491-3, 1층(반지하)",031-884-2999,http://www.anmawon.com/FindShop/Detail?shopId=031-0207,경기,127.6494583,37.303096,경기도 여주시 여양로 222-9
올리브 안마원,"경기도 의정부시 의정부동 200-1, 2층",031-841-0608,http://www.anmawon.com/FindShop/Detail?shopId=02-0169,경기,127.0474373,37.7420685,경기도 의정부시 평화로562번길 8
용인지압안마원,"경기도 용인시 수지구 상현동 66-9 상현종합상가, 208호",031-266-7275,http://www.anmawon.com/FindShop/Detail?shopId=031-0002,경기,127.0852496,37.3088586,경기도 용인시 수지구 만현로 88 상현종합상가
용지압안마힐링센터안마원,"경기도 용인시 수지구 성복2로 17(성복동), 골드프라자 B314호",031-264-7575,http://www.anmawon.com/FindShop/Detail?shopId=031-0208,경기,127.0810234,37.3107116,경기도 용인시 수지구 성복2로 17 골드프라자1
용희재 안마원,"경기도 안산시 상록구 사동 1540-5, 2층",031-437-7975,http://www.anmawon.com/FindShop/Detail?shopId=031-0076,경기,126.8470239,37.3036061,경기도 안산시 상록구 석호로 88
우리케어안마원,"경기도 동두천시 생연동 569-4, 1층",031-865-8275,http://www.anmawon.com/FindShop/Detail?shopId=031-0216,경기,127.0568948,37.9125503,경기도 동두천시 동두천로 340-17 우리케어안마원
운정안마원,경기도 파주시 목동동 939-4 월드타워 3차 305호,031-949-3143,http://www.anmawon.com/FindShop/Detail?shopId=031-0212,경기,126.7343829,37.7277707,경기도 파주시 책향기로 573
원당가족안마원,경기도 고양시 덕양구 주교동 612-5 보은빌딩 301호,031-966-8575,http://www.anmawon.com/FindShop/Detail?shopId=031-0016,경기,126.8343282,37.6571289,경기도 고양시 덕양구 마상로126번길 73 보은빌딩
원당안마원,경기 군포시 당동 778-4,031-427-1788,http://www.anmawon.com/FindShop/Detail?shopId=031-0029,경기,126.9476793,37.3529582,경기도 군포시 군포역1길 36
웰빙카페지압안마원,경기도 수원시 권선구 곡선로50번길 334층,031-232-7775,http://www.anmawon.com/FindShop/Detail?shopId=031-0147,경기,127.0295836,37.2386953,경기도 수원시 권선구 곡선로 48
웰빙카페지압안마원,"경기도 수원시 권선구 곡반정동 575-1, 4층",031-232-7775,http://www.anmawon.com/FindShop/Detail?shopId=031-0148,경기,127.0291617,37.2373438,경기도 수원시 권선구 곡선로50번길 33
웰빙케어안마원,"경기도 남양주시 화도읍 마석우리 383-8, 별나라타워 301호",031-591-5188,http://www.anmawon.com/FindShop/Detail?shopId=031-0034,경기,127.3033671,37.6570253,경기도 남양주시 화도읍 마석중앙로37번길 47 별나라타워
으뜸힐링안마원,"경기도 성남시 수정구 창곡동 547-2, 으뜸프라자 1동 302호",031-723-9777,http://www.anmawon.com/FindShop/Detail?shopId=031-0215,경기,127.1400815,37.4670537,경기도 성남시 수정구 위례광장로 27 으뜸프라자
은혜지압안마원,경기도 안산시 단원구 광덕1로 56 (초지동) 로얄프라자 408호,031-439-8575,http://www.anmawon.com/FindShop/Detail?shopId=031-0003,경기,126.8157718,37.3082167,경기도 안산시 단원구 광덕1로 56 로얄프라자
의손안마원,경기 고양시 덕양구 행신동 763-2 외 1필지 백산오피스텔 201호,031-973-0908,http://www.anmawon.com/FindShop/Detail?shopId=031-0014,경기,126.8350139,37.613635,경기도 고양시 덕양구 용현로5번길 24 백산오피스텔
의왕지압안마원,경기도 의왕시 오전동 108 현대프라자 502호,031-429-8533,http://www.anmawon.com/FindShop/Detail?shopId=031-0193,경기,126.9671015,37.3594455,경기도 의왕시 모락로 16 현대프라자
이손힐링안마원,경기도 안성시 석정동 24-1 크리스탈빌딩 1003호,070-8823-1218,http://www.anmawon.com/FindShop/Detail?shopId=031-0241,경기,127.2673652,37.0077806,경기도 안성시 중앙로 366 크리스탈빌딩
이희진지압안마원,"경기도 부천시 상동 296, 2층",032-667-6500,http://www.anmawon.com/FindShop/Detail?shopId=031-0042,경기,126.7604367,37.4906393,경기도 부천시 석천로 38
일산보건안마원,경기도 고양시 일산동구 장항동 895-1 우신프라자 306호,031-901-5890,http://www.anmawon.com/FindShop/Detail?shopId=031-0153,경기,126.7771981,37.6512818,경기도 고양시 일산동구 장백로 184 우신프라자
자연지압안마원,"경기도 부천시 춘의동 210-6, 2층",032-667-1414,http://www.anmawon.com/FindShop/Detail?shopId=031-0044,경기,126.7858641,37.4995189,경기도 부천시 부천로 173
장봉민건강지압안마원,경기도 하남시 망월동 1117 미사강변 노블레스 313호,031-699-3700,http://www.anmawon.com/FindShop/Detail?shopId=031-0132,경기,127.1930138,37.5615511,경기도 하남시 미사강변동로 73 미사강변 노블레스
장수건강안마센터안마원,경기 성남시 분당구 금곡동 153 썬프라자 601~602호,031-718-7722,http://www.anmawon.com/FindShop/Detail?shopId=031-0143,경기,127.1107912,37.3504148,경기도 성남시 분당구 돌마로 79 썬프라자
장수건강안마원(남양주),경기도 남양주시 금곡동 427-23 대성빌딩 302호,031-559-4788,http://www.anmawon.com/FindShop/Detail?shopId=031-0035,경기,127.20871,37.6338862,경기도 남양주시 금곡로 50 대성빌딩
재이안마원,"경기도 고양시 일산동구 정발산로 47(장항동), 웅신아트프라자 415호",031-932-0288,http://www.anmawon.com/FindShop/Detail?shopId=031-0232,경기,126.7737463,37.6577626,경기도 고양시 일산동구 정발산로 47 웅신아트
정안마원,경기도 안양시 동안구 관양동 1603-8 한솔빌딩 407호,031-423-5115,http://www.anmawon.com/FindShop/Detail?shopId=031-0093,경기,126.9619775,37.3934116,경기도 안양시 동안구 관평로182번길 30 한솔빌딩
제일 안마원,경기도 고양시 덕양구 화정동 967-3 글로리아빌딩 310호,031-963-9222,http://www.anmawon.com/FindShop/Detail?shopId=031-0012,경기,126.8324163,37.6354782,경기도 고양시 덕양구 화정로 53-1 글로리아빌딩
조은안마원,"경기도 부천시 여월동 7-53, 2층",032-654-6825,http://www.anmawon.com/FindShop/Detail?shopId=031-0170,경기,126.8006635,37.5197863,경기도 부천시 삼작로352번길 2
좋은손길안마원,경기도 안산시 단원구 고잔동 707 안산법조타운 302호,031-483-7565,http://www.anmawon.com/FindShop/Detail?shopId=031-0077,경기,126.8276969,37.3123164,경기도 안산시 단원구 광덕서로 86 안산법조타운
지압 안마원,"경기도 용인시 기흥구 흥덕2로 46(영덕동, 휴먼시아 흥덕마을4단지) 상가동 201호",031-284-8348,http://www.anmawon.com/FindShop/Detail?shopId=031-0104,경기,127.0748469,37.272315,경기도 용인시 기흥구 흥덕2로 46 휴먼시아 흥덕마을4단지
진실 안마원,"경기도 안산시 상록구 본삼로 17 (본오동), 202호",010-2821-6881,http://www.anmawon.com/FindShop/Detail?shopId=031-0221,경기,126.861914,37.3012194,경기도 안산시 상록구 본삼로 17
참손길지압안마원,경기도 수원시 팔달구 매산로1가 11-12 아이메카 상가 1003호,031-258-7555,http://www.anmawon.com/FindShop/Detail?shopId=031-0070,경기,127.0005271,37.2678966,경기도 수원시 팔달구 덕영대로 905 아이메카 상가
참손길지압안마원(광교역점),"경기도 수원시 영통구 이의동 1257-4 광교 파인렉스2 303,304호",031-212-7554,http://www.anmawon.com/FindShop/Detail?shopId=031-0240,경기,127.0430926,37.2995761,경기도 수원시 영통구 대학3로4번길 2 광교 파인렉스2
참손길지압안마원(안양),경기도 안양시 동안구 관양동 1488-7 우정타운 601호,1522-8622,http://www.anmawon.com/FindShop/Detail?shopId=031-0092,경기,126.9753779,37.4024806,경기도 안양시 동안구 관악대로 480 우정타운
참손길지압힐링센터안마원(부천점),경기도 부천시 심곡동 161-9 오성빌딩 2층,032-664-7582,http://www.anmawon.com/FindShop/Detail?shopId=031-0242,경기,126.7840566,37.4886738,경기도 부천시 부천로 50-1 오성빌딩
참조은안마원,경기도 안양시 만안구 안양동 782-68 project 240 tower 1105호,031-444-8566,http://www.anmawon.com/FindShop/Detail?shopId=031-0185,경기,126.9198719,37.3999567,경기도 안양시 만안구 병목안로 2 PROJECT 240 TOWER
참조은약손안마원,"경기도 의정부시 의정부동 235-53, 도우빌딩 202호",031-821-8070,http://www.anmawon.com/FindShop/Detail?shopId=031-0196,경기,127.0444915,37.7488866,경기도 의정부시 신촌로84번길 37
참좋은손안마원,경기도 안산시 단원구 고잔동 769-4 중앙프라자 509호,031-487-8978,http://www.anmawon.com/FindShop/Detail?shopId=031-0222,경기,126.8323529,37.3099429,경기도 안산시 단원구 광덕동로 61 중앙프라자
천마힐링안마원,남양주시 화도읍 묵현리 444-1외 1필지 1층,031-559-7001,http://www.anmawon.com/FindShop/Detail?shopId=031-0217,경기,127.274105,37.6596033,경기도 남양주시 화도읍 먹갓로 64
청송안마원,"경기도 의왕시 고천동 299-11, 3층",031-421-6346,http://www.anmawon.com/FindShop/Detail?shopId=031-0108,경기,126.9762112,37.3497742,경기도 의왕시 오전천로 26
최은영 힐링 지압안마원,경기도 화성시 반송동 93-8 서해더블루 201호,031-8003-0904,http://www.anmawon.com/FindShop/Detail?shopId=031-0134,경기,127.0722948,37.2022217,경기도 화성시 메타폴리스로 47-7 서해더블루
최재춘엄지로지압 안마원,경기도 화성시 병점동 292 태안병점 브이타운 109호,031-232-9924,http://www.anmawon.com/FindShop/Detail?shopId=031-0230,경기,127.0421061,37.2063363,경기도 화성시 병점중앙로 87 태안병점 브이타운
추나안마원,"경기도 고양시 덕양구 내유동 275-2, 드림타운2차 B-100호",010-5598-5586,http://www.anmawon.com/FindShop/Detail?shopId=031-0244,경기,126.8535104,37.717653,경기도 고양시 덕양구 내유길 38-22
치료손지압안마원,"경기도 부천시 심곡동 93-4, 2층",032-664-7111~2,http://www.anmawon.com/FindShop/Detail?shopId=031-0045,경기,126.7848175,37.494463,경기도 부천시 부천로 113
쿠라시온안마원,"경기도 성남시 분당구 수내동 7-5, 코리아나빌딩 307호",031-714-8897,http://www.anmawon.com/FindShop/Detail?shopId=031-0246,경기,127.1162551,37.379569,경기도 성남시 분당구 황새울로258번길 32 코리아나빌딩
클래식안마원,경기도 구리시 수택동 487-17 한림빌딩 3층,031-563-3002,http://www.anmawon.com/FindShop/Detail?shopId=031-0236,경기,127.1448821,37.5967136,경기도 구리시 검배로 56-1 한림빌딩
태양안마원,경기도 고양시 덕양구 성사동 696 삼성홈타워오피스텔 204호,031-965-1888,http://www.anmawon.com/FindShop/Detail?shopId=031-0206,경기,126.8372244,37.6571265,경기도 고양시 덕양구 호국로 798 삼성홈타워오피스텔
태양안마원(이천),"경기도 이천시 서희로 45(중리동), 2층",031-634-6656,http://www.anmawon.com/FindShop/Detail?shopId=031-0197,경기,127.4423726,37.2796541,경기도 이천시 서희로 45
태평안마원,경기도 성남시 수정구 태평동 6973 연안빌딩 503호,031-757-4452,http://www.anmawon.com/FindShop/Detail?shopId=031-0056,경기,127.1273134,37.4401331,경기도 성남시 수정구 성남대로 1235 연안빌딩
평온건강안마원,"경기도 용인시 처인구 김량장동 296-53, 아이렉스타워 707호",031-338-8575,http://www.anmawon.com/FindShop/Detail?shopId=031-0191,경기,127.2036222,37.2346119,경기도 용인시 처인구 금령로 64
평화지압안마원,"경기도 안산시 상록구 월피동 463-6, 301호",031-401-1966,http://www.anmawon.com/FindShop/Detail?shopId=031-0183,경기,126.8538069,37.3343467,경기도 안산시 상록구 시낭로 38-1
푸른지압안마원,경기도 고양시 일산서구 주엽동 81 강선마을13단지아파트 상가동(뉴서울쇼핑) 3층 97호,031-908-0789,http://www.anmawon.com/FindShop/Detail?shopId=031-0154,경기,126.7660838,37.6667113,경기도 고양시 일산서구 중앙로 1371 강선마을13단지아파트
풀림과편안안마원,경기도 안양시 동안구 호계동 711-1 대영골든타워 306호,031-456-7566,http://www.anmawon.com/FindShop/Detail?shopId=031-0091,경기,126.954758,37.3674191,경기도 안양시 동안구 엘에스로 45 대영골든타워
프로힐링지압안마원,경기도 수원시 장안구 조원동 894 일호골든타워 513호,031-252-7975,http://www.anmawon.com/FindShop/Detail?shopId=031-0067,경기,127.0080745,37.3031416,경기도 수원시 장안구 경수대로 940 일호골든타워
플러스지압안마원,경기도 부천시 상동 542 영플러스 206호,032-225-7587,http://www.anmawon.com/FindShop/Detail?shopId=031-0146,경기,126.7535058,37.504481,경기도 부천시 상동로 84 영플러스
플러스지압안마원,경기도 부천시 상동 542-1 영플러스 2층 206호,032-225-7587,http://www.anmawon.com/FindShop/Detail?shopId=031-0203,경기,126.7535058,37.504481,경기도 부천시 상동로 84 영플러스
피로타파안마원,"경기도 수원시 팔달구 인계동 1039-7, 동림빌딩 4층",031-236-0022,http://www.anmawon.com/FindShop/Detail?shopId=031-0057,경기,127.0315397,37.266092,경기도 수원시 팔달구 인계로124번길 27-15
피로타파안마원,"경기도 고양시 일산동구 마두동 798-5, 401호",031-932-8875,http://www.anmawon.com/FindShop/Detail?shopId=031-0017,경기,126.7775269,37.6532383,경기도 고양시 일산동구 중앙로 1192
한국정통지압안마원,경기도 파주시 금촌동 791-8,031-946-0866,http://www.anmawon.com/FindShop/Detail?shopId=031-0124,경기,126.7792627,37.7557387,경기도 파주시 문화로 5
한빛건강안마원,경기도 용인시 처인구 김량장동 338 조양유통상가 201호,031-321-7575,http://www.anmawon.com/FindShop/Detail?shopId=031-0107,경기,127.2009387,37.2336631,경기도 용인시 처인구 금령로40번길 13 조양유통상가아파트
한중안마원,경기도 평택시 합정동 936-2 유경아트빌3차 101호,031-684-1546,http://www.anmawon.com/FindShop/Detail?shopId=031-0128,경기,127.1027652,36.9868573,경기도 평택시 조개터로2번길 35 유경아트빌3차
해피 안마원,"경기도 부천시 경인로 316-1(소사본동), 2층",070-8235-0688,http://www.anmawon.com/FindShop/Detail?shopId=031-0229,경기,126.7906525,37.4823053,경기도 부천시 경인로 316-1
행복건강안마원(양주),경기도 양주시 광사동 232-3,031-878-2218,http://www.anmawon.com/FindShop/Detail?shopId=031-0095,경기,127.0772225,37.79507,경기도 양주시 부흥로 1935
행복안마원(의왕),"경기도 의왕시 고천동 275-6, 1층",031-455-4795,http://www.anmawon.com/FindShop/Detail?shopId=031-0109,경기,126.9750842,37.3475963,경기도 의왕시 사근행궁길 9
행복지압안마원,수원시 송죽동 503-16외1필지 월드타워 2층,031-242-1793,http://www.anmawon.com/FindShop/Detail?shopId=031-0175,경기,127.0068575,37.2992267,경기도 수원시 장안구 송원로 39 월드타워
행복한지압안마원,"경기도 의정부시 민락동 808-3, 2층(206호)",031-852-6241,http://www.anmawon.com/FindShop/Detail?shopId=031-0122,경기,127.095445,37.7454775,경기도 의정부시 오목로225번길 141
향남지압안마원,경기도 화성시 향남읍 행정리 457-6,031-351-6263,http://www.anmawon.com/FindShop/Detail?shopId=031-0136,경기,126.9140973,37.1257722,경기도 화성시 향남읍 행정서로1길 13-5
허준안마원,"경기도 의정부시 녹양동 412-2 크로바프라자, 2층 203호",031-855-2236,http://www.anmawon.com/FindShop/Detail?shopId=031-0204,경기,127.0410505,37.7607017,경기도 의정부시 체육로 298-7 크로바프라자
활기지압안마원,경기도 수원시 영통구 매탄동 1267-5 밀래니엄프라자 307호,031-212-4588,http://www.anmawon.com/FindShop/Detail?shopId=031-0243,경기,127.0445524,37.2591411,경기도 수원시 영통구 효원로 393 밀래니엄프라자
황토마을지압안마원,"경기 의정부시 의정부3동 138-29, 202호",031-872-9257,http://www.anmawon.com/FindShop/Detail?shopId=031-0113,경기,127.0321096,37.7403874,경기도 의정부시 평화로484번길 7
회복이됐다안마원,경기도 파주시 광탄면 혜음로 1371,010-5590-6046,http://www.anmawon.com/FindShop/Detail?shopId=031-0233,경기,126.8492749,37.8030403,경기도 파주시 광탄면 혜음로 1371 신일건재
회천지압안마원,"경기도 양주시 덕정길 3, 2층",031-858-0811,http://www.anmawon.com/FindShop/Detail?shopId=031-0097,경기,127.0624701,37.8443421,경기도 양주시 덕정길 3
효지압안마원,"경기도 구리시 수택동 288, 201호",031-555-5991,http://www.anmawon.com/FindShop/Detail?shopId=031-0024,경기,127.1480446,37.5951952,경기도 구리시 검배로 89
휴나래안마원,"경기도 화성시 병점동 844-2, 탑프라자 206호",031-235-9981,http://www.anmawon.com/FindShop/Detail?shopId=031-0135,경기,127.0428662,37.2142145,경기도 화성시 효행로 1056
휴림지압안마원,경기도 군포시 금정동 874번지 산본빌딩 7층,031-393-9993,http://www.anmawon.com/FindShop/Detail?shopId=031-0159,경기,126.9329064,37.357403,경기도 군포시 번영로 498 산본빌딩
힐링스토리안마원,경기도 의정부시 호원동 50-17 유타상가 403호,031-873-0153,http://www.anmawon.com/FindShop/Detail?shopId=031-0119,경기,127.0466812,37.7236932,경기도 의정부시 외미로 104-12 유타상가
힐링안마원(광명),경기도 광명시 하안동 302-5 녹원토피아빌딩 302호,02-897-1919,http://www.anmawon.com/FindShop/Detail?shopId=031-0155,경기,126.8757339,37.4599995,경기도 광명시 범안로 1008 녹원토피아빌딩
힐링안마원(동두천),"경기도 동두천시 생연동 830-60, 1층",031-861-6460,http://www.anmawon.com/FindShop/Detail?shopId=031-0167,경기,127.0512868,37.9094244,경기도 동두천시 강변로454번길 2
OMT경락지압 안마원,경기도 의정부시 호원동 455-5,031-877-1275,http://www.anmawon.com/FindShop/Detail?shopId=031-0115,경기,127.0480896,37.7113011,경기도 의정부시 평화로 220
YG한국보건안마원,경기도 고양시 일산동구 백석동 1297-2 일산르메이에르프라자 606호,031-906-2235,http://www.anmawon.com/FindShop/Detail?shopId=031-0018,경기,126.7878961,37.6436721,경기도 고양시 일산동구 중앙로 1048 일산르메이에르프라자
강남안마원,강원도 원주시 명륜1동 26번지남부시장 2층,010-3369-6714,http://www.anmawon.com/FindShop/Detail?shopId=033-0015,강원,127.9544594,37.3430282,강원도 원주시 치악로 1803 남부시장
강릉보건안마원,강원도 강릉시 포남동 1147-145층,033-643-5510,http://www.anmawon.com/FindShop/Detail?shopId=033-0020,강원,128.9081818,37.7653913,강원도 강릉시 경강로2255번길 7
강릉시민안마원,강원도 강릉시 경강로2113. 3층(임당동),010-4360-1144,http://www.anmawon.com/FindShop/Detail?shopId=033-0036,강원,128.8976499,37.7559978,강원도 강릉시 경강로 2113
건강물리침술원,강원도 홍천군 홍천읍 희망리 378-1,033-434-7012,http://www.anmawon.com/FindShop/Detail?shopId=033-0021,강원,127.8825949,37.6880221,강원도 홍천군 홍천읍 홍천로 336-9
건강안마시술원,강원 원주시 명륜동764 현대2차@상가 101호,010-4756-0090,http://www.anmawon.com/FindShop/Detail?shopId=033-0002,강원,127.9406553,37.335209,강원도 원주시 한지공원길 94-34 현대아파트
광명시술원,강원도 춘천시 약사고개길 13. 블럭8-9호(1층),010-6388-5995,http://www.anmawon.com/FindShop/Detail?shopId=033-0037,강원,127.7260501,37.8774969,강원도 춘천시 약사고개길 13 제일백화점
구민시술원,강원도 고성군 간성읍  간성로75 2층,010-7761-9857,http://www.anmawon.com/FindShop/Detail?shopId=033-0022,강원,128.4665739,38.3793566,강원도 고성군 간성읍 간성로 75 가마솥소머리
권성길 서울안마원,강원도 원주시 남산로 180 대성빌딩 112호,033-735-1885,http://www.anmawon.com/FindShop/Detail?shopId=033-0016,강원,127.9407638,37.3520685,강원도 원주시 남산로 180
권재혁전통안마원,강원 원주시 단구동1584-2 동현빌딩 3층,010-5346-1122,http://www.anmawon.com/FindShop/Detail?shopId=033-0003,강원,127.9505792,37.3237344,강원도 원주시 늘품로 43
기찬안마원,강원도 강릉시 옥가로 61. 1층,010-5367-4787,http://www.anmawon.com/FindShop/Detail?shopId=033-0038,강원,128.9001513,37.7618365,강원도 강릉시 옥가로 61
김영삼시술원,강원 춘천시 근화동711-10,010-8833-0303,http://www.anmawon.com/FindShop/Detail?shopId=033-0013,강원,127.7181931,37.8743412,강원도 춘천시 공지로 442-17
다나시술원,강원 속초시 중앙로 406 2층(장사동 새마을 금고 옆),010-6381-0155,http://www.anmawon.com/FindShop/Detail?shopId=033-0004,강원,128.588462,38.2240763,강원도 속초시 중앙로 406
대린안마원,강원도 강릉시 주문진읍 해안로 1808,033-662-2020,http://www.anmawon.com/FindShop/Detail?shopId=033-0024,강원,128.8324535,37.894849,강원도 강릉시 주문진읍 해안로 1808
대명안마원,강원도 삼척시 대학로 17-19. 1층,033-541-8588,http://www.anmawon.com/FindShop/Detail?shopId=033-0025,강원,129.162811,37.4425275,강원도 삼척시 대학로 17-19 연지
더드림안마원,강원도 원주시 서원대로408. 광장빌딩 505호,033-764-1536,http://www.anmawon.com/FindShop/Detail?shopId=033-0017,강원,127.9500079,37.3299891,강원도 원주시 서원대로 408 광장빌딩
덕산지압원,강원도 강릉시 포남동 1170-5,033-653-8917,http://www.anmawon.com/FindShop/Detail?shopId=033-0026,강원,128.9114106,37.7674141,강원도 강릉시 성덕포남로162번길 9-2
동명안마침술원,강원도 인제군 서화면 천도리 629-10,033-462-1113,http://www.anmawon.com/FindShop/Detail?shopId=033-0027,강원,128.2088544,38.2226737,강원도 인제군 서화면 천도로 110
드림안마원,강원도 원주시 원일로 19.(원동)1층,010-7243-4000,http://www.anmawon.com/FindShop/Detail?shopId=033-0035,강원,127.9536501,37.3451632,강원도 원주시 원일로 19
라파참안마원,강원도 횡성군 횡성읍 읍상리 616-5,033-345-8889,http://www.anmawon.com/FindShop/Detail?shopId=033-0018,강원,127.9929463,37.4892068,강원도 횡성군 횡성읍 읍마남로25번길 14-5
마음가득안마원,강원도 춘천시 춘천로312. 4층,033-252-6619,http://www.anmawon.com/FindShop/Detail?shopId=033-0039,강원,127.7476984,37.8816992,강원도 춘천시 춘천로 312
명안마원,강원 원주시 중앙시장길 11(중앙동자유시장 지하 나-7),010-9092-5272,http://www.anmawon.com/FindShop/Detail?shopId=033-0006,강원,127.9487726,37.350809,강원도 원주시 중앙시장길 11 자유시장
베데스다안마원,강원도 원주시 금불4길 32,010-4247-7740,http://www.anmawon.com/FindShop/Detail?shopId=033-0023,강원,127.9331204,37.3496436,강원도 원주시 금불4길 32
송화지압안마원,강원도 홍천군 홍천읍 연봉 중앙로 90-1,033-433-8575 010-8822-3535,http://www.anmawon.com/FindShop/Detail?shopId=033-0030,강원,127.8819011,37.6842207,강원도 홍천군 홍천읍 연봉중앙로 90-1
수기근통안마원,강원도 속초시 먹거리길 18. 2층,010-9603-9655,http://www.anmawon.com/FindShop/Detail?shopId=033-0040,강원,128.5747438,38.1962276,강원도 속초시 먹거리길 18
시원안마원,강원도 춘천시 석사동 768-3,033-263-7588  010-6254-7588,http://www.anmawon.com/FindShop/Detail?shopId=033-0028,강원,127.7494189,37.8631436,강원도 춘천시 애막골길16번길 22-1
약손지압안마원,강원도 강릉시 포남동 1174-92층,010-2800-7575,http://www.anmawon.com/FindShop/Detail?shopId=033-0019,강원,128.9098957,37.7697398,강원도 강릉시 하평길 10
오산시술원,강원도 홍천군 화촌면 굴운리 439,033-435-5286  010-6380-9936,http://www.anmawon.com/FindShop/Detail?shopId=033-0029,강원,127.9501351,37.7361799,강원도 홍천군 화촌면 굴운로75번길 20-3
오성안마원,강원도 횡성군 횡성읍 화성로3 (읍상리)2층,033-345-0975,http://www.anmawon.com/FindShop/Detail?shopId=033-0014,강원,127.9877374,37.4915078,강원도 횡성군 횡성읍 화성로 3
오행침시술원,강원 인제군 기린면 기린로 47-1,033-461-5758 010-4780-5758,http://www.anmawon.com/FindShop/Detail?shopId=033-0032,강원,128.3181707,37.9564618,강원도 인제군 기린면 기린로 47-1
이승민건강지킴이,강원도 홍천군 홍천읍 희망로 67,033-432-1075,http://www.anmawon.com/FindShop/Detail?shopId=033-0031,강원,127.8903578,37.6942749,강원도 홍천군 홍천읍 희망로 67
정다운안마원,강원 춘천시 온의동544,010-6373-0191 033-241-0325,http://www.anmawon.com/FindShop/Detail?shopId=033-0010,강원,127.718955,37.8604459,강원도 춘천시 춘주로92번길 19
중화한안마원(황용진안마원),강원도 춘천시 옛경춘로 334 (칠전동),033-251-9989,http://www.anmawon.com/FindShop/Detail?shopId=033-0033,강원,127.6928657,37.8451452,강원도 춘천시 옛경춘로 334
참편한안마원,강원도 춘천시 충혼길 44 (온의동),033-255-7175,http://www.anmawon.com/FindShop/Detail?shopId=033-0042,강원,127.7208002,37.8607471,강원도 춘천시 충혼길 44
태백건강안마원,"강원도 태백시 황지로34-1,2층",033-553-6537,http://www.anmawon.com/FindShop/Detail?shopId=033-0034,강원,128.9909796,37.1618345,강원도 태백시 황지로 34-1
평화안마원,강원도 원주시 남원로 659-2. 106호,010-2000-1644,http://www.anmawon.com/FindShop/Detail?shopId=033-0041,강원,127.9538809,37.3418279,강원도 원주시 남원로 659-2
함수영건강지킴이,강원 춘천시 효자2동164-4,033-256-1382,http://www.anmawon.com/FindShop/Detail?shopId=033-0012,강원,127.7368396,37.8711655,강원도 춘천시 효제길 34
활력안마원,강원도 춘천시 공지로 226. 3층,033-261-9675,http://www.anmawon.com/FindShop/Detail?shopId=033-0043,강원,127.7387443,37.8633265,강원도 춘천시 공지로 226
강경안마원,충남 논산시 강경읍 황산리 149-1,041-745-6985,http://www.anmawon.com/FindShop/Detail?shopId=041-0025,충남,127.0115401,36.1549555,충청남도 논산시 강경읍 황산길 26
건강백세안마원,충남 서산시 시장6로 38 서성빌딩 4층,041-664-9987,http://www.anmawon.com/FindShop/Detail?shopId=041-0023,충남,126.4580865,36.7829248,충청남도 서산시 시장6로 38
건강백세안마원,충남 서산시 시장6로 38서성빌딩 4층,041-644-9987,http://www.anmawon.com/FindShop/Detail?shopId=041-0008,충남,126.4580865,36.7829248,충청남도 서산시 시장6로 38
건강보건안마원,충남 당진시 당진중앙2로 59-9,041)355-8808,http://www.anmawon.com/FindShop/Detail?shopId=041-0021,충남,126.6285387,36.8928626,충청남도 당진시 당진중앙2로 59-9
건강안마원,충청남도 서천군 서천읍 서천로 19-2,010-3551-4146,http://www.anmawon.com/FindShop/Detail?shopId=041-0031,충남,126.6969362,36.0750675,충청남도 서천군 서천읍 서천로 19-2
건강이음안마원,청양군 청양읍 중앙로 13길 1,041-943-9439,http://www.anmawon.com/FindShop/Detail?shopId=041-0019,충남,126.8031548,36.4529768,충청남도 청양군 청양읍 중앙로13길 1
김성기지압안마원,충남 천안시 동남구 봉명동42-19 2층,041-571-1180,http://www.anmawon.com/FindShop/Detail?shopId=041-0001,충남,127.1394045,36.805388,충청남도 천안시 동남구 봉정로 35 합기도검무관
논산건강 안마원,논산시 해월로 190-1 논산건강안마원 2층,041-733-7003,http://www.anmawon.com/FindShop/Detail?shopId=041-0022,충남,127.0878089,36.2057527,충청남도 논산시 해월로 190-1
논산보건안마원,충남 논산시 계백로 1074번길 7-5,041-736-0210,http://www.anmawon.com/FindShop/Detail?shopId=041-0030,충남,127.0953485,36.2070327,충청남도 논산시 계백로1074번길 7-5
몸사랑 안마센터,충남 천안시 서북구쌍용15길 5,041-577-5077,http://www.anmawon.com/FindShop/Detail?shopId=041-0010,충남,127.121065,36.7998457,충청남도 천안시 서북구 쌍용15길 5 구워구워치킨
백석보건 안마센터,"충남 천안시 서북구 백석3로134 (백석동, 대건프라자)202호",041-568-0088,http://www.anmawon.com/FindShop/Detail?shopId=041-0012,충남,127.1250258,36.8221802,충청남도 천안시 서북구 백석3로 134 대건프라자
백화안마원,충남 태안군 태안읍 남문리149-14,041-675-5880,http://www.anmawon.com/FindShop/Detail?shopId=041-0018,충남,126.2989252,36.7505714,충청남도 태안군 태안읍 동백로 255
생활안마원,세종시 조치원읍 새내로88 3층,044-866-5480,http://www.anmawon.com/FindShop/Detail?shopId=041-0016,충남,127.2985788,36.5997937,세종특별자치시 조치원읍 새내로 88
서산약손건강안마원,충남 서산시 시장2로 32(동문동),041-663-9297,http://www.anmawon.com/FindShop/Detail?shopId=041-0014,충남,126.4583904,36.7829098,충청남도 서산시 시장2로 32
세종보건안마센터,세종특별자치시 조치원읍 장안로 3 (상리 136),044)868-3642,http://www.anmawon.com/FindShop/Detail?shopId=041-0020,충남,127.3014408,36.6012624,세종특별자치시 조치원읍 장안로 3
시원손안마원,충청남도 서산시 대산읍 구진로 15,"""010-6411-9869 041-666-1256",http://www.anmawon.com/FindShop/Detail?shopId=041-0026,충남,126.4353701,36.9367544,충청남도 서산시 대산읍 구진로 15
약손안마원,충남 아산시 권곡동540-10,041-911-7575,http://www.anmawon.com/FindShop/Detail?shopId=041-0005,충남,127.0072613,36.7876015,충청남도 아산시 번영로143번길 19
엄마안마원,충남 계룡시 엄사면 엄사리183-1,042-840-7364,http://www.anmawon.com/FindShop/Detail?shopId=041-0003,충남,127.2420522,36.2900462,충청남도 계룡시 엄사면 엄사중앙로 105-1
에덴건강안마원,세종특별자치시 조치원읍 새내10길 59,"""044-864-2754 010-9898-2754""",http://www.anmawon.com/FindShop/Detail?shopId=041-0027,충남,127.3015331,36.6007888,세종특별자치시 조치원읍 새내10길 59
일등보건안마원,충남 당진시 당진중앙3로 72 3층 303호,041-357-3962,http://www.anmawon.com/FindShop/Detail?shopId=041-0007,충남,126.6298265,36.892234,충청남도 당진시 당진중앙3로 72 센터빌딩
장수안마원,충남 아산시 청운로102번길 (온천동),041-549-7975,http://www.anmawon.com/FindShop/Detail?shopId=041-0004,충남,127.0077276,36.7829653,충청남도 아산시 청운로 102
장수안마원,아산시 충무로 40 온양빌딩2층 202호 (온천동),041-549-7975,http://www.anmawon.com/FindShop/Detail?shopId=041-0024,충남,127.0056588,36.7846403,충청남도 아산시 충무로 40 온양빌딩
주민보건안마센터,충남 천안시 서북구 쌍용1동877-1 윌투빌딩 3층,041-            572-           9730,http://www.anmawon.com/FindShop/Detail?shopId=041-0002,충남,127.1302595,36.8075024,충청남도 천안시 서북구 봉명로 18 정석빌딩
천수지압안마원,"세종특별자치시 보듬3로 100, 해피라움 1동 408호",044-865-6785,http://www.anmawon.com/FindShop/Detail?shopId=041-0017,충남,127.2486205,36.5119496,세종특별자치시 보듬3로 100 해피라움1
천안보건안마센터,"충남 천안시 서북구 성정동660-3(봉정로 221, 신세계빌딩 3층)",041-523-9988,http://www.anmawon.com/FindShop/Detail?shopId=041-0015,충남,127.143417,36.8219095,충청남도 천안시 서북구 봉정로 221 신세계빌딩
최재민보건 지압안마원,충남 홍성군 홍성읍 의사로 52번길 17,041-632-7559,http://www.anmawon.com/FindShop/Detail?shopId=041-0011,충남,126.6732015,36.6022359,충청남도 홍성군 홍성읍 의사로52번길 17
태안지압안마원,충청남도 태안군 태안읍 군청로 26,"010-2978-9921, 041-572-8852",http://www.anmawon.com/FindShop/Detail?shopId=041-0029,충남,126.3003526,36.7481237,충청남도 태안군 태안읍 군청로 26
한사랑안마원,충청남도 보령시 원동1길 30-9(대천동) 2층,"010-5159-5423, 041-932-1577",http://www.anmawon.com/FindShop/Detail?shopId=041-0028,충남,126.5967164,36.3508601,충청남도 보령시 원동1길 30-9
힐링안마원,충남 서산시 해미면 서문4길 35,041-688-7599,http://www.anmawon.com/FindShop/Detail?shopId=041-0009,충남,126.5447837,36.7171472,충청남도 서산시 해미면 서문4길 35
21세기지압안마원,"대전 서구 가장로 106, 해리상가 201-2호(가장동, 삼성래미안아파트)",042-524-3375,http://www.anmawon.com/FindShop/Detail?shopId=042-0008,대전,127.3846874,36.3329316,대전광역시 서구 가장로 106 삼성 래미안아파트
거북이안마지압원,"대전 서구 탄방로7번길 74, 2층 (탄방동)",042-482-6777,http://www.anmawon.com/FindShop/Detail?shopId=042-0001,대전,127.3943304,36.3460476,대전광역시 서구 탄방로7번길 74
건강백세안마원,"대전 동구 동대전로 108, 2층(대동)",042-284-7080,http://www.anmawon.com/FindShop/Detail?shopId=042-0021,대전,127.4446647,36.331857,대전광역시 동구 동대전로 108
건강지킴안마원,"대전 서구 도산로 342, 2층(용문동)",042-321-0202,http://www.anmawon.com/FindShop/Detail?shopId=042-0022,대전,127.3899338,36.3354903,대전광역시 서구 도산로 342
건강한안마지압원,"대전 서구 둔산중로 20, 207호(탄방동,아르누보펠리스)",042-482-7913,http://www.anmawon.com/FindShop/Detail?shopId=042-0014,대전,127.3872723,36.3484004,대전광역시 서구 둔산중로 20 나비家 아르누보팰리스
고침안마원,"대전 서구 도마로 51, 101-2호 (변동,성암화인빌)",042-522-4008,http://www.anmawon.com/FindShop/Detail?shopId=042-0002,대전,127.3760136,36.3225233,대전광역시 서구 도마로 51 성암화인빌
근풀림안마원,"대전 중구 계룡로 876, 302호(오류동)",042-523-8589,http://www.anmawon.com/FindShop/Detail?shopId=042-0023,대전,127.4110631,36.3232333,대전광역시 중구 계룡로 876
길지압안마원,"대전 중구 대종로 669, 1층 (중촌동)",042-223-0690,http://www.anmawon.com/FindShop/Detail?shopId=042-0015,대전,127.4120289,36.3395101,대전광역시 중구 대종로 669
다나안마원,"대전 동구 대전로 758, 201/202호 (원동, 뜰안채주상복합)",042-285-8575,http://www.anmawon.com/FindShop/Detail?shopId=042-0003,대전,127.4350737,36.3275952,대전광역시 동구 대전로 758 뜰안채주상복합
달인침안마원,"대전 대덕구 오정로 1, 3층(오정동)",042-627-7975,http://www.anmawon.com/FindShop/Detail?shopId=042-0024,대전,127.415227,36.3482546,대전광역시 대덕구 오정로 1 노촌빌딩
라파지압안마원,"대전 서구 한밭대로 701, 208호 (월평동, 갤러리빌럭스)",042-488-8277,http://www.anmawon.com/FindShop/Detail?shopId=042-0009,대전,127.3769235,36.3581669,대전광역시 서구 한밭대로 701 갤러리빌 럭스
명심안마원,"대전 서구 정림로 55, 우성아파트 제상가동 209호 제2층 (정림동)",042-840-7753,http://www.anmawon.com/FindShop/Detail?shopId=042-0017,대전,127.3639951,36.3047855,대전광역시 서구 정림로 55 우성아파트1차
명인안마원,"대전 서구 둔산로 230, 2층(둔산동)",042-472-5992,http://www.anmawon.com/FindShop/Detail?shopId=042-0025,대전,127.3995088,36.3510472,대전광역시 서구 둔산로 230
몸사랑안마원,"대전 서구 청사서로 26, 504호(월평동 미래빌딩)",042-471-9990,http://www.anmawon.com/FindShop/Detail?shopId=042-0026,대전,127.3769516,36.3600856,대전광역시 서구 청사서로 26
미소지압안마원,"대전 유성구 지족로 367, 501호(지족동)",042-472-7505,http://www.anmawon.com/FindShop/Detail?shopId=042-0011,대전,127.3170958,36.386908,대전광역시 유성구 지족로 367
바로건강지압안마원,"대전 중구 서문로105번길 7, 4층(문화동)",042-331-7776,http://www.anmawon.com/FindShop/Detail?shopId=042-0027,대전,127.4064359,36.3174637,대전광역시 중구 서문로105번길 7
방승권안마원,"대전 동구 태전로 132-11, 105호(삼성동)",042-222-5805,http://www.anmawon.com/FindShop/Detail?shopId=042-0028,대전,127.4223459,36.3404959,대전광역시 동구 태전로 132-11
보은통증지압안마원,"대전 동구 동산초교로 29,1층 (홍도동)",042-631-7374,http://www.anmawon.com/FindShop/Detail?shopId=042-0029,대전,127.4260923,36.3465905,대전광역시 동구 동산초교로 29
산삼안마원,"대전 중구 보문로103번길 85, 2층(부사동)",042-252-3375,http://www.anmawon.com/FindShop/Detail?shopId=042-0019,대전,127.4336341,36.3128081,대전광역시 중구 보문로103번길 85
샬롬안마원,대전 동구 새울로 90 (용운동),042-286-0332,http://www.anmawon.com/FindShop/Detail?shopId=042-0030,대전,127.4617835,36.3263722,대전광역시 동구 새울로 90
송경진안마원,"대전 서구 대덕대로 168번길 26, 301호(갈마동, 동원빌딩)",042-525-9675,http://www.anmawon.com/FindShop/Detail?shopId=042-0006,대전,127.377238,36.3470643,대전광역시 서구 대덕대로168번길 26 동원빌딩
시인안마지압원,"대전 서구 대덕대로162번길 15, 201호(갈마동)",042-525-9144,http://www.anmawon.com/FindShop/Detail?shopId=042-0031,대전,127.3768695,36.3471588,대전광역시 서구 대덕대로162번길 15 동아프라자
실로암지압안마원,대전 동구 흥룡로 60동부프라자 201-2호(가양동),010-7494-2450,http://www.anmawon.com/FindShop/Detail?shopId=042-0032,대전,127.4504051,36.3500293,대전광역시 동구 흥룡로 60
안마이야기안마원,"대전 유성구 노은로 144, 504호(지족동 노은타운)",042-634-4254,http://www.anmawon.com/FindShop/Detail?shopId=042-0016,대전,127.318497,36.3725488,대전광역시 유성구 노은로 144 노은타운
약손지압안마원,"대전 서구 벌곡로 1285번길 120, 3층(가수원동, 봉예빌딩)",042-545-7259,http://www.anmawon.com/FindShop/Detail?shopId=042-0034,대전,127.350708,36.294862,대전광역시 서구 벌곡로1285번길 120
어깨동무안마원,대전 유성구 학하동로 63번길 70(학하동),042-221-6284,http://www.anmawon.com/FindShop/Detail?shopId=042-0035,대전,127.3138176,36.3374891,대전광역시 유성구 학하동로63번길 70
와아!지압안마원,대전 대덕구 중리동로 56번길 24(중리동),042-321-7441,http://www.anmawon.com/FindShop/Detail?shopId=042-0036,대전,127.43019,36.3642955,대전광역시 대덕구 중리동로56번길 24
우리안마원,"대전 중구 중촌로40번길 24,1층 (중촌동)",010-8401-9930,http://www.anmawon.com/FindShop/Detail?shopId=042-0033,대전,127.4129225,36.3396418,대전광역시 중구 중촌로40번길 24
유명지압안마원,"대전 중구 동서대로 1420, 2층 (선화동)",042-632-7979,http://www.anmawon.com/FindShop/Detail?shopId=042-0004,대전,127.4139316,36.3347335,대전광역시 중구 동서대로 1420
이선생안마원,대전 서구 탄방로7번길 132 (탄방동),010-7158-3234,http://www.anmawon.com/FindShop/Detail?shopId=042-0037,대전,127.3959909,36.3479685,대전광역시 서구 탄방로7번길 132
장대지압안마원,"대전 유성구 유성대로 780, 502호 (장대동)",042-822-8283,http://www.anmawon.com/FindShop/Detail?shopId=042-0007,대전,127.3366437,36.3615276,대전광역시 유성구 유성대로 780
장수안마원,"대전 중구 계룡로 835, 2층 (용두동)",042-222-8575,http://www.anmawon.com/FindShop/Detail?shopId=042-0038,대전,127.4084843,36.3260648,대전광역시 중구 계룡로 835
정안마원,대전 서구 문정로 170번길 1542층(둔산동),010-2325-9675,http://www.anmawon.com/FindShop/Detail?shopId=042-0020,대전,127.3954878,36.3494294,대전광역시 서구 문정로 170
참사랑안마원,"대전 중구 유천로102번길 10, 1층 (유천동)",010-5837-5114,http://www.anmawon.com/FindShop/Detail?shopId=042-0040,대전,127.3969817,36.3216671,대전광역시 중구 유천로102번길 10
천지인지압원,대전 대덕구 중리동로17번길 52(중리동),042-627-5353,http://www.anmawon.com/FindShop/Detail?shopId=042-0005,대전,127.4270236,36.3605017,대전광역시 대덕구 중리동로17번길 52
침사랑안마지압원,대전 대덕구 계족산로43번길 14(중리동),042-636-5002,http://www.anmawon.com/FindShop/Detail?shopId=042-0018,대전,127.4361922,36.3630251,대전광역시 대덕구 계족산로43번길 14
하늘약손안마원,대전 대덕구 계족로 521번길 34(중리동),010-3432-1157,http://www.anmawon.com/FindShop/Detail?shopId=042-0041,대전,127.4305782,36.3584812,대전광역시 대덕구 계족로521번길 34
힐링안마원,"대전 중구 동서대로 1388, 301호(목동 금호한사랑아파트)",042-223-0090,http://www.anmawon.com/FindShop/Detail?shopId=042-0042,대전,127.4129933,36.3316265,대전광역시 중구 동서대로 1388 금호한사랑아파트
건강안마원,"충북 청주시 상당구산성로25번길 30, 2층",043-253-7596,http://www.anmawon.com/FindShop/Detail?shopId=043-0001,충북,127.4974899,36.6258966,충청북도 청주시 상당구 산성로25번길 30 제안원
건강중앙안마원,충북 제천시 중앙로1가 77중앙시장상가 제2층 제다동 15호,043-646-6258,http://www.anmawon.com/FindShop/Detail?shopId=043-0021,충북,128.2113183,37.1366524,충청북도 제천시 풍양로 108 중앙시장상가
금왕지압안마원,충북 음성군 금왕읍 금석로 53-2,043-878-0611,http://www.anmawon.com/FindShop/Detail?shopId=043-0029,충북,127.5985054,36.9902975,충청북도 음성군 금왕읍 금석로 53-2
남대현안마원,충북 제천시 숭문로 14길 4-1,043-646-6777,http://www.anmawon.com/FindShop/Detail?shopId=043-0030,충북,128.2083011,37.1404782,충청북도 제천시 숭문로14길 4-1
다나으리,충북 충주시 용정3길 28,043-844-3938,http://www.anmawon.com/FindShop/Detail?shopId=043-0026,충북,127.9364491,36.9661018,충청북도 충주시 용정3길 28
단양보건안마센터,충북 단양군 단양읍 도전4길 20,043-422-0123,http://www.anmawon.com/FindShop/Detail?shopId=051-0093,충북,128.3695787,36.9815181,충청북도 단양군 단양읍 도전4길 20
대한보건안마원,충북 제천시 내토로 481(화산동),043-645-1719,http://www.anmawon.com/FindShop/Detail?shopId=043-0031,충북,128.2106068,37.1286846,충청북도 제천시 내토로 481
도솔안마원,충북 청주시 서원구청남로 1999,043-287-0626,http://www.anmawon.com/FindShop/Detail?shopId=043-0013,충북,127.4842474,36.6108769,충청북도 청주시 서원구 청남로 1999
반재도지압안마원,충북 청주시 상당구 월평로 161 112호,043-283-7975,http://www.anmawon.com/FindShop/Detail?shopId=043-0010,충북,127.5029298,36.6115184,충청북도 청주시 상당구 월평로 161 건영아파트
보건바우처안마원,충북 보은군 보은읍 삼산리 143-11,043-542-8236,http://www.anmawon.com/FindShop/Detail?shopId=043-0025,충북,127.7184994,36.4841099,충청북도 보은군 보은읍 삼산로 30-5
승록수기치료안마원,충북 청주시 흥덕구 강내면 청주역로 213-4,043-231-6267,http://www.anmawon.com/FindShop/Detail?shopId=043-0002,충북,127.3853919,36.6350735,충청북도 청주시 흥덕구 강내면 청주역로 213-4
약손경락지압마사지안마센터,충북 보은군 보은읍 삼산남로 23-2 상가,043-544-8875,http://www.anmawon.com/FindShop/Detail?shopId=043-0008,충북,127.7200724,36.4826001,충청북도 보은군 보은읍 삼산남로 23-2
약손안마원,충북 청주시 상당구무농정로 29,043-294-5233,http://www.anmawon.com/FindShop/Detail?shopId=043-0011,충북,127.5062643,36.6062317,충청북도 청주시 상당구 무농정로 29
어깨결림안마원,충북 청주시 서원구 원마루로14번길 10,043-294-7990,http://www.anmawon.com/FindShop/Detail?shopId=043-0014,충북,127.4960535,36.6095332,충청북도 청주시 서원구 원마루로14번길 10
원지압안마원,충북 청주시 흥덕구풍년로 102,043-237-9666,http://www.anmawon.com/FindShop/Detail?shopId=043-0005,충북,127.4361238,36.6220888,충청북도 청주시 흥덕구 풍년로 102
윤수규안마원,충북 충주시 교현동 404-13,043-910-8275,http://www.anmawon.com/FindShop/Detail?shopId=043-0015,충북,127.936674,36.9777298,충청북도 충주시 봉현로 295
정통안마원,충북 청주시 청원구 향군로 156,043-224-5830,http://www.anmawon.com/FindShop/Detail?shopId=043-0004,충북,127.4790214,36.6580182,충청북도 청주시 청원구 향군로 156
제천보건안마센터,충북 청주시 청원구 향군로 133-1,043-651-8889,http://www.anmawon.com/FindShop/Detail?shopId=043-0020,충북,127.4800034,36.6562325,충청북도 청주시 청원구 향군로 133-1
조병일시술원,충북 충주시 동량면 용교리 26-9,043-853-0915,http://www.anmawon.com/FindShop/Detail?shopId=043-0016,충북,127.9270978,37.0307149,충청북도 충주시 동량면 지등로 3
참손길안마원,충북 청주시 상당구산성로112번길 24,043-293-4322,http://www.anmawon.com/FindShop/Detail?shopId=043-0012,충북,127.5060862,36.6318607,충청북도 청주시 상당구 산성로112번길 24
청주지압교정안마원,충북 청주시 상당구 산성로 11번길 16,043-257-6562,http://www.anmawon.com/FindShop/Detail?shopId=043-0032,충북,127.4977001,36.6254718,충청북도 청주시 상당구 산성로11번길 16
충북보건안마센터,충북 청주시 청원구 상리로8번길 43층,043-236-5544,http://www.anmawon.com/FindShop/Detail?shopId=043-0009,충북,127.5118682,36.6637745,충청북도 청주시 청원구 상리로 7
타타타안마원,충북 충주시  천변로 221,043-853-1605,http://www.anmawon.com/FindShop/Detail?shopId=043-0017,충북,127.9324431,36.975144,충청북도 충주시 천변로 221
한국안마원,충북 청주시 흥덕구 운천동 1008(직지대로 743번길 28) 한국안마원,043-260-8966,http://www.anmawon.com/FindShop/Detail?shopId=043-0028,충북,127.4746864,36.6449309,충청북도 청주시 흥덕구 직지대로743번길 28
한성웰빙안마원,충북 제천시 의림대로 33길 70덕일한마음상가 9동 107,043-644-7525,http://www.anmawon.com/FindShop/Detail?shopId=043-0018,충북,128.2081973,37.1470563,충청북도 제천시 의림대로33길 70 덕일한마음아파트
해광지압원,충북 청주시 청원구 향군로 133-1,043-225-0388,http://www.anmawon.com/FindShop/Detail?shopId=043-0033,충북,127.4800034,36.6562325,충청북도 청주시 청원구 향군로 133-1
행복안마센터,충북 영동군 영동읍 중앙로1길 18-2,043-745-8850,http://www.anmawon.com/FindShop/Detail?shopId=043-0023,충북,127.7763638,36.1730599,충청북도 영동군 영동읍 중앙로1길 18-2
훈이안마원,충북 제천시용두천로 154,010-2800-4282,http://www.anmawon.com/FindShop/Detail?shopId=043-0019,충북,128.214847,37.1407685,충청북도 제천시 용두천로 154
가가,전남 목포시 상동812-8 2층,061-281-9875,http://www.anmawon.com/FindShop/Detail?shopId=061-0009,전남,126.4176234,34.8073707,전라남도 목포시 하당로 189
대운,전남 목포시 산정동1271-8,061-980-7774,http://www.anmawon.com/FindShop/Detail?shopId=061-0011,전남,126.3967257,34.7951586,전라남도 목포시 동명로86번길 7
동명물리치료원,전남 해남군 삼산면 원진리743,061-534-7470,http://www.anmawon.com/FindShop/Detail?shopId=061-0005,전남,126.5497695,34.5185493,전라남도 해남군 삼산면 시등안길 37 동명안마시술원
동인방지압원,전남 목포시 상동794,061-282-0366,http://www.anmawon.com/FindShop/Detail?shopId=061-0002,전남,126.4206946,34.8090496,전라남도 목포시 하당로221번길 4
명성안마지압원,전남 순천시 인제동29-74,061-744-3275,http://www.anmawon.com/FindShop/Detail?shopId=061-0013,전남,127.4883989,34.9443598,전라남도 순천시 하인제길 3-1 뜨레비앙학원
목포보건안마센터,전남 목포시 석현동815-77 세븐에이치타워 4층,061-801-6333,http://www.anmawon.com/FindShop/Detail?shopId=061-0016,전남,126.4218066,34.821829,전라남도 목포시 영산로 633 힐링타워
목포시각안마원,전남 목포시 용당동1103-20 2층,061-981-1000,http://www.anmawon.com/FindShop/Detail?shopId=061-0007,전남,126.3998674,34.8053475,전라남도 목포시 영산로 312-3
베스트,전남 광양시 중동1321-14 2층,061-794-8515,http://www.anmawon.com/FindShop/Detail?shopId=061-0015,전남,127.6975671,34.9439136,전라남도 광양시 행정3길 30
사랑의약손,전남 목포시 옥암동1041-9 한신인빌리지 101호,061-285-1175,http://www.anmawon.com/FindShop/Detail?shopId=061-0010,전남,126.4365454,34.8038747,전라남도 목포시 복산길 16 한신힐빌리지
성산(목포),전남 목포시 상동753-5,061-277-7980,http://www.anmawon.com/FindShop/Detail?shopId=061-0004,전남,126.4164498,34.8132254,전라남도 목포시 상리로15번길 3
약손물리,전남 해남군 해남읍 평동리173-3,061-533-4660,http://www.anmawon.com/FindShop/Detail?shopId=061-0012,전남,126.6011852,34.5673852,전라남도 해남군 해남읍 홍교로 96 약손경락안마지압원
약손물리지압원,전남 순천시 조례동1246-3,061-724-2272,http://www.anmawon.com/FindShop/Detail?shopId=061-0001,전남,127.5158675,34.9517976,전라남도 순천시 충효로 143
진도,전남 진도군 진도읍 쌍정리167,061-544-7199,http://www.anmawon.com/FindShop/Detail?shopId=061-0014,전남,126.2683672,34.4775206,전라남도 진도군 진도읍 남산로 130-48
클린안마센터 전남1호점,전남 목포시 삼향천로91번길 16-12층,061-284-7763,http://www.anmawon.com/FindShop/Detail?shopId=061-0008,전남,126.4294974,34.807562,전라남도 목포시 삼향천로91번길 16
한빛,전남 목포시 산정동1373-1 2층,061-243-0461,http://www.anmawon.com/FindShop/Detail?shopId=061-0003,전남,126.4002924,34.7879535,전라남도 목포시 삼학로145번길 8
가나성일휴보건안마원,"광주광역시 서구 상무대로 894, 모아미래도스카이뷰 210호",062-372-2544,http://www.anmawon.com/FindShop/Detail?shopId=062-0015,광주,126.859766,35.150305,광주광역시 서구 상무대로 894
가든안마지압원,"광주광역시 남구 대남대로 274-1, 2층",062-651-7474,http://www.anmawon.com/FindShop/Detail?shopId=062-0007,광주,126.8972304,35.1371958,광주광역시 남구 대남대로 274-1 가든안마지압원
건강드림안마센터,"광주광역시 서구 화운로156번길 26-1, 4층",062-449-7005,http://www.anmawon.com/FindShop/Detail?shopId=062-0027,광주,126.879491,35.153062,광주광역시 서구 화운로156번길 26-1
건강안마센터 효자손,"광주광역시 서구 풍금로 171, 평화빌딩 5층",062-651-2020,http://www.anmawon.com/FindShop/Detail?shopId=062-0025,광주,126.8592439,35.1310475,광주광역시 서구 풍금로 171 평화빌딩
건강지압센터 손수,"광주광역시 서구 상무중앙로 28번길 4, 세진빌딩 5층",062-383-0705,http://www.anmawon.com/FindShop/Detail?shopId=062-0021,광주,126.8489171,35.1491338,광주광역시 서구 상무중앙로28번길 4 세진빌딩
건강지압센터 참손,"광주광역시 광산구 첨단중앙로68번길 99, 첨단3-5차 호반리젠시빌 상가동 213-3호",062-972-7579,http://www.anmawon.com/FindShop/Detail?shopId=062-0044,광주,126.8485211,35.2123767,광주광역시 광산구 첨단중앙로68번길 99 호반리젠시빌
건강지압안마원 손길,"광주광역시 광산구 첨단강변로 95, 302호",062-971-9975,http://www.anmawon.com/FindShop/Detail?shopId=062-0042,광주,126.852463,35.2151964,광주광역시 광산구 첨단강변로 95
구구팔팔안마지압원,"광주광역시 동구 중앙로 196번길 19, 3층",062-222-9898,http://www.anmawon.com/FindShop/Detail?shopId=062-0032,광주,126.9177378,35.1496001,광주광역시 동구 중앙로196번길 19
구암보건안마센터,"광주광역시 동구 의재로96번길 26-1, 1층",010-3119-0074,http://www.anmawon.com/FindShop/Detail?shopId=062-0047,광주,126.9391576,35.1303694,광주광역시 동구 의재로96번길 26-1
국가대표 안마지압원2,"광주광역시 동구 필문대로 212, 1층",062-522-8575,http://www.anmawon.com/FindShop/Detail?shopId=062-0045,광주,126.9305327,35.1520664,광주광역시 동구 필문대로 212
국가대표안마지압원,"광주광역시 북구 북문대로 29, 2층",062-522-8575,http://www.anmawon.com/FindShop/Detail?shopId=062-0024,광주,126.881969,35.174502,광주광역시 북구 북문대로 29
기혈경락지압원,광주광역시 북구 두암동,,http://www.anmawon.com/FindShop/Detail?shopId=062-0004,광주,126.92895,35.171035,광주광역시 북구 두암동
도담 손안마원,"광주광역시 서구 풍암순환로 183,우미광장상가 117동 215호",062-651-1530,http://www.anmawon.com/FindShop/Detail?shopId=062-0028,광주,126.8812499,35.1268362,광주광역시 서구 풍암순환로 183 우미광장아파트
드림도수안마원,"광주광역시 광산구 첨단중앙로170번길 12, 3층",010-8141-5127,http://www.anmawon.com/FindShop/Detail?shopId=062-0050,광주,126.8424171,35.2205213,광주광역시 광산구 첨단중앙로170번길 12
땡큐안마지압원,"광주광역시 서구 상무평화로 62, 라인동산아파트 상가1동 208호",010-4699-7935,http://www.anmawon.com/FindShop/Detail?shopId=062-0048,광주,126.8455414,35.1478148,광주광역시 서구 상무평화로 62 라인동산아파트
려수 참술원,"광주광역시 남구 중앙로 94 , 2층",010-2009-7975,http://www.anmawon.com/FindShop/Detail?shopId=062-0001,광주,126.9081702,35.1441666,광주광역시 남구 중앙로 94 예인디자인
미건약손지압센터,"광주광역시 서구 하남대로 700,302호",062-528-7575,http://www.anmawon.com/FindShop/Detail?shopId=062-0031,광주,126.8692021,35.171437,광주광역시 서구 하남대로 700 대영빌딩
바른손건강마사지안마원,"광주광역시 서구 시청로56번길 8,401호",062-383-1525,http://www.anmawon.com/FindShop/Detail?shopId=062-0012,광주,126.8527226,35.1532763,광주광역시 서구 시청로56번길 8 세븐오피스텔
바른체형수기센터,"광주광역시 남구 봉선1로 48, 1층",010-8970-7515,http://www.anmawon.com/FindShop/Detail?shopId=062-0011,광주,126.910465,35.127773,광주광역시 남구 봉선1로 48 양영어린이집
백선생약손안마원,"광주광역시 서구 상무공원로 114, 해광한신아파트 제상가동 204호",010-8937-9395,http://www.anmawon.com/FindShop/Detail?shopId=062-0018,광주,126.8439504,35.1543957,광주광역시 서구 상무공원로 114 해광한신아파트
보건안마센터,"광주광역시 남구 효우로 87, 5층",062-682-5996,http://www.anmawon.com/FindShop/Detail?shopId=062-0036,광주,126.9045735,35.10549,광주광역시 남구 효우로 87
성심안마원,"광주광역시 남구 회재로 1270, 재아빌딩 3층",062-653-5674,http://www.anmawon.com/FindShop/Detail?shopId=062-0022,광주,126.8995794,35.1347583,광주광역시 남구 회재로 1270 현대간호학원
송정보건안마원,"광주광역시 광산구 광산로30번길 67, 1층",062-942-0086,http://www.anmawon.com/FindShop/Detail?shopId=062-0037,광주,126.7979708,35.1371412,광주광역시 광산구 광산로30번길 67
안마수기치유센터,"광주 서구 월드컵4강로 191, 1층",062-373-7775,http://www.anmawon.com/FindShop/Detail?shopId=062-0041,광주,126.8692502,35.1532393,광주광역시 서구 월드컵4강로 191
오행지압안마원,"광주광역시 서구 운천로114번길 5, 1층",062-224-7559,http://www.anmawon.com/FindShop/Detail?shopId=062-0002,광주,126.8585334,35.1429807,광주광역시 서구 운천로114번길 5
우리경락지압원,"광주광역시 북구 양일로305번길 11-1, 대림상가 206호",010-2614-9435,http://www.anmawon.com/FindShop/Detail?shopId=062-0046,광주,126.8965528,35.2036641,광주광역시 북구 양일로305번길 11-1 대림아파트
운화경락지압원,"광주광역시 광산구 사암로92번길 55, 1층",062-944-7412,http://www.anmawon.com/FindShop/Detail?shopId=062-0006,광주,126.8103164,35.1525685,광주광역시 광산구 사암로92번길 55
임마누엘경락지압원,"광주광역시 북구 서하로 362, 2층",062-262-7559,http://www.anmawon.com/FindShop/Detail?shopId=062-0003,광주,126.9198717,35.1862596,광주광역시 북구 서하로 362
자연미건강약손,"광주광역시 북구 설죽로 306 , 2층",062-267-8963,http://www.anmawon.com/FindShop/Detail?shopId=062-0013,광주,126.8985704,35.1868181,광주광역시 북구 설죽로 306
자연재생힐링원,"광주광역시 북구 하백로6번길 18, 1층",080-066-0114,http://www.anmawon.com/FindShop/Detail?shopId=062-0039,광주,126.8924302,35.1879191,광주광역시 북구 하백로6번길 18
정성약손지압원,"광주광역시 서구 화정로253번길 36, 2층",062-366-6588,http://www.anmawon.com/FindShop/Detail?shopId=062-0034,광주,126.8821855,35.1501041,광주광역시 서구 화정로253번길 36
진명지압원,"광주광역시 북구 부남길15번길 28, 1층",,http://www.anmawon.com/FindShop/Detail?shopId=062-0014,광주,126.9261623,35.1884739,광주광역시 북구 부남길15번길 28
진지압안마원,"광주광역시 광산구 광산로 9, 2층",010-2601-3346,http://www.anmawon.com/FindShop/Detail?shopId=062-0038,광주,126.7930524,35.1378014,광주광역시 광산구 광산로 9
참 시원안마원,"광주시 광산구 하남대로 153, 2층",062-372-5808,http://www.anmawon.com/FindShop/Detail?shopId=062-0029,광주,126.810428,35.1802636,광주광역시 광산구 하남대로 153
천주교광주대교구시각장애인선교회 안마원,"광주광역시 북구 자산로 89-1, 3층",062-527-6004,http://www.anmawon.com/FindShop/Detail?shopId=062-0049,광주,126.901387,35.1671036,광주광역시 북구 자산로 89-1 천주교광주대교시각장애인선교회
평강안마지압원,"광주광역시 북구 자동차로47번길 36, 1층",062-527-6664,http://www.anmawon.com/FindShop/Detail?shopId=062-0043,광주,126.8993986,35.1637808,광주광역시 북구 자동차로47번길 36
한국보건안마센터,"광주광역시 동구 의재로 13-5, 1층",062-227-7515,http://www.anmawon.com/FindShop/Detail?shopId=062-0016,광주,126.9290904,35.1333621,광주광역시 동구 의재로 13-5
해든손지압원,"광주광역시 광산구 임방울대로 334, 노블메디컬센터 8층",062-954-4040,http://www.anmawon.com/FindShop/Detail?shopId=062-0026,광주,126.82416,35.1897833,광주광역시 광산구 임방울대로 334
홀리스틱 건강지압원,"광주광역시 광산구 장신로147번길 6, 수완제일프라자 302호",062-954-2250,http://www.anmawon.com/FindShop/Detail?shopId=062-0033,광주,126.8264903,35.191395,광주광역시 광산구 장신로147번길 6
회복지압원,"광주광역시 북구 필문대로 95-1, 2층",062-465-6675,http://www.anmawon.com/FindShop/Detail?shopId=062-0005,광주,126.9297773,35.1619111,광주광역시 북구 필문대로 95-1
힐링안마수기센터,"광주광역시 서구 치평로 116, 월계수타운 304호",062-382-8875,http://www.anmawon.com/FindShop/Detail?shopId=062-0030,광주,126.8476586,35.1576683,광주광역시 서구 치평로 116 월계수타운
ok안마지압원,"광주광역시 광산구 사암로 286, 2층",062-456-7575,http://www.anmawon.com/FindShop/Detail?shopId=062-0023,광주,126.8093112,35.1698072,광주광역시 광산구 사암로 286
건강,"전북 익산시 신동로 12-1, 1층",010-4187-9656,http://www.anmawon.com/FindShop/Detail?shopId=063-0026,전북,126.9540264,35.958105,전라북도 익산시 신동로 12-1 피자캣
건강사랑 안마사랑,전북 익산시 남중동 352-52,063-854-0195,http://www.anmawon.com/FindShop/Detail?shopId=063-0016,전북,126.9554641,35.9508444,전라북도 익산시 선화로33길 60
건강지압,전북 완주군 동학로 19(삼계리),063-291-7525,http://www.anmawon.com/FindShop/Detail?shopId=063-0024,전북,127.0747096,35.9094931,전라북도 완주군 삼례읍 동학로 19
건강회생,전북 군산시 나운로4 213-214호,063-445-1332,http://www.anmawon.com/FindShop/Detail?shopId=063-0035,전북,126.7053828,35.9701423,전라북도 군산시 나운로 4 군산현대코아백화점
건지약손,전북 전주시 덕진구 붓내3길 40 3층,063-241-6678,http://www.anmawon.com/FindShop/Detail?shopId=063-0029,전북,127.1255648,35.8665352,전라북도 전주시 덕진구 붓내3길 40
김제시민안마원,전북 김제시 요촌동117-12,063-546-8275,http://www.anmawon.com/FindShop/Detail?shopId=063-0034,전북,126.8903311,35.7990889,전라북도 김제시 화동길 47
두드림,전북 익산시 신동781-13 신동 동사무소옆,010-8896-5545,http://www.anmawon.com/FindShop/Detail?shopId=063-0001,전북,126.961501,35.9599986,전라북도 익산시 동서로5길 129 삼우약국
명성,전북 전주시 완산구 평화18길 21-7,063-715-1106,http://www.anmawon.com/FindShop/Detail?shopId=063-0036,전북,127.1342753,35.7943528,전라북도 전주시 완산구 평화18길 21-7
백경지압안마원,전북 군산시 수송동810-3번지 효원월드타워 204호,010-4650-8432,http://www.anmawon.com/FindShop/Detail?shopId=063-0005,전북,126.7150945,35.9648393,전라북도 군산시 월명로 233 효원월드타워
새아침안마원,전북 전주시 완산구 감나무로 62-6,063-255-0058,http://www.anmawon.com/FindShop/Detail?shopId=063-0012,전북,127.1194593,35.8317565,전라북도 전주시 완산구 감나무로 62-6
서도,전북 전주시 완산구 용머리로 38 602호,010-2545-1821,http://www.anmawon.com/FindShop/Detail?shopId=063-0028,전북,127.1144887,35.8058754,전라북도 전주시 완산구 용머리로 38
약손,전북 전주시 덕진구 인후동2가 1526-7,063-244-0003,http://www.anmawon.com/FindShop/Detail?shopId=063-0014,전북,127.1455776,35.841078,전라북도 전주시 덕진구 견훤왕궁로 258
약손보건,전북 남원시 금동로 15-6,010-9990-7575,http://www.anmawon.com/FindShop/Detail?shopId=063-0037,전북,127.3725762,35.4001123,전라북도 남원시 금동로 15-6
유주지압,전북 전주시 덕진구 송천동 1가 824-1,063-241-1425,http://www.anmawon.com/FindShop/Detail?shopId=063-0017,전북,127.1160717,35.8651499,전라북도 전주시 덕진구 두간9길 3
으뜸(김이태),전북 익산시 인북로 46-1,010-3658-5870,http://www.anmawon.com/FindShop/Detail?shopId=063-0033,전북,126.9511015,35.9333903,전라북도 익산시 인북로 46-1 호산나주단
장수,전북 익산시 남중동138번지,063-832-9898,http://www.anmawon.com/FindShop/Detail?shopId=063-0009,전북,126.9550314,35.9412569,전라북도 익산시 인북로24길 2 게임박스피씨방
정읍시민,전북 정읍시 중앙로 49 2층 212호(정읍연지연무예다음주상복함 제판매시설동),063-536-4339,http://www.anmawon.com/FindShop/Detail?shopId=063-0038,전북,126.8472189,35.5722771,전라북도 정읍시 중앙로 49 정읍연지영무예다음주상복합
제일경락안마원,전북 군산시 나운동805-1 811호,063-466-9980,http://www.anmawon.com/FindShop/Detail?shopId=063-0013,전북,126.6930537,35.9635272,전라북도 군산시 대학로 342 동아26빌딩
최&박안마원,전북 완주군 봉동읍 장기리1129-22,063-261-1275,http://www.anmawon.com/FindShop/Detail?shopId=063-0010,전북,127.1681459,35.9378322,전라북도 완주군 봉동읍 봉동로 143
포도나무안마원,전북 전주시 완산구 장승배기로 145상가동 15호,063-237-3855,http://www.anmawon.com/FindShop/Detail?shopId=063-0011,전북,127.1287541,35.7954663,전라북도 전주시 완산구 장승배기로 145 광진궁전아파트
행복,전북 군산시 팔마로 77,010-6600-9766,http://www.anmawon.com/FindShop/Detail?shopId=063-0025,전북,126.709598,35.9739564,전라북도 군산시 팔마로 77
호산나,전북 전주시 덕진구 안덕원로 252,063-243-7582,http://www.anmawon.com/FindShop/Detail?shopId=063-0019,전북,127.1545521,35.8363217,전라북도 전주시 덕진구 안덕원로 252 대영빌딩
효자약손,전북 전주시 완산구 서원로 228 301호,063-223-2662/010-3100-5221,http://www.anmawon.com/FindShop/Detail?shopId=063-0032,전북,127.1193126,35.8123185,전라북도 전주시 완산구 서원로 228
24시 안마원,제주 제주시 서광로20길 7,723-5339,http://www.anmawon.com/FindShop/Detail?shopId=064-0012,제주,126.5221473,33.4988322,제주특별자치도 제주시 서광로20길 7
39.27 만나 지압원,제주시 서광로 230 (2층),755-3927,http://www.anmawon.com/FindShop/Detail?shopId=064-0008,제주,126.5210121,33.4995946,제주특별자치도 제주시 서광로 230
건강제주안마 지압원,제주시 선덕로 18  진일빌딩 (5층),744-9633,http://www.anmawon.com/FindShop/Detail?shopId=064-0014,제주,126.4984492,33.485427,제주특별자치도 제주시 선덕로 18 진일빌딩
나이스 안마원,제주시 중앙로284 (2층),725-6226,http://www.anmawon.com/FindShop/Detail?shopId=064-0011,제주,126.5329938,33.4950569,제주특별자치도 제주시 중앙로 284
라파지압원,제주시 서사로 165-1 (2층),722-6180,http://www.anmawon.com/FindShop/Detail?shopId=064-0015,제주,126.5199645,33.4974684,제주특별자치도 제주시 서사로 165-1
명진지압원,제주 제주시 수덕9길 45,744-7506,http://www.anmawon.com/FindShop/Detail?shopId=064-0005,제주,126.4735144,33.4852981,제주특별자치도 제주시 수덕9길 45
바른자세고정안마원,서귀포시 태평로 520 2층,064-732-5115 010-7236-7582,http://www.anmawon.com/FindShop/Detail?shopId=064-0019,제주,126.5729776,33.2508691,제주특별자치도 서귀포시 태평로 520
샹그릴라 안마원,서귀포시 중문관광로154-17,738-8339,http://www.anmawon.com/FindShop/Detail?shopId=064-0010,제주,126.4155991,33.2450404,제주특별자치도 서귀포시 중문관광로 154-17 퍼시픽랜드
서귀안마원,서귀포시 중산간서로688번길 6,738-1461,http://www.anmawon.com/FindShop/Detail?shopId=064-0001,제주,126.4421579,33.2637038,제주특별자치도 서귀포시 중산간서로688번길 6
수풀림지압원,제주시 인다4길 41  채연하우스 상가 101호,010-9886- 0673,http://www.anmawon.com/FindShop/Detail?shopId=064-0018,제주,126.5489484,33.4707238,제주특별자치도 제주시 인다4길 41 채연하우스
쉼팡 마사지 지압원,서귀포시 중앙로62번길 5 (3층),762-5997,http://www.anmawon.com/FindShop/Detail?shopId=064-0009,제주,126.561944,33.2502612,제주특별자치도 서귀포시 중앙로62번길 5 문경빌딩
신제주지압원,제주시 삼무로 74 (2층),749-7575,http://www.anmawon.com/FindShop/Detail?shopId=064-0013,제주,126.4944503,33.4895793,제주특별자치도 제주시 삼무로 74
에이스안마원,제주시 삼무로 19   신동부삼무하이빌 207호,747-9675,http://www.anmawon.com/FindShop/Detail?shopId=064-0007,제주,126.488775,33.4901346,제주특별자치도 제주시 삼무로 19 신동부 삼무하이빌
제주안마원,제주시 연동4길12,747-8833,http://www.anmawon.com/FindShop/Detail?shopId=064-0003,제주,126.4876745,33.4849719,제주특별자치도 제주시 연동4길 12
해비침지압원,제주시 신광로4길 36-1  태아빌 (2층),746-0078,http://www.anmawon.com/FindShop/Detail?shopId=064-0006,제주,126.4861893,33.4890901,제주특별자치도 제주시 신광로4길 36-1 태아빌
OK안마원,제주시 노연로 114-1  수영빌딩 (3층),711-5535,http://www.anmawon.com/FindShop/Detail?shopId=064-0004,제주,126.4923522,33.4855846,제주특별자치도 제주시 노연로 114-1 수영빌딩
