name,addr,phone,x,y,NAVER_addr
향기안마시술소,경기도 수원시 팔달구 효원로235번길 46-11 (인계동),031-237-6496,127.0290448,37.2648956,경기도 수원시 팔달구 효원로235번길 46-11
제이제이(JJ),전라북도 전주시 완산구 홍산남로 79 (효자동3가),063-224-6609,127.1106835,35.8160187,전라북도 전주시 완산구 홍산남로 79
조은안마원,"경상남도 창원시 성산구 마디미서로 54, 서울아동병원 1002호 (상남동)",055-289-7582,128.6808909,35.2208386,경상남도 창원시 성산구 마디미서로 54 서울아동병원
백선생지압안마원,경상남도 산청군 신안면 원지강변로63번길 30-38,,127.9714132,35.3021297,경상남도 산청군 신안면 원지강변로63번길 30-38
라파지압원,"충청남도 서산시 예천1로 36, 2층 (예천동)",,126.4466870,36.7681940,충청남도 서산시 예천1로 36
수정지압안마원,"부산광역시 금정구 서동로149번길 11, 2층 (서동)",051-526-2552,129.1033310,35.2153391,부산광역시 금정구 서동로149번길 11
라임안마원,"인천광역시 서구 청라라임로 65, 라임타워 5층 502호 (청라동)",,126.6529516,37.5334604,인천광역시 서구 청라라임로 65 라임타워
휠안마시술소,"경기도 성남시 분당구 성남대로331번길 3-13, 지층 01호 (정자동, 대명제스트빌딩)",031-711-6620,127.1077031,37.3643791,경기도 성남시 분당구 성남대로331번길 3-13 대명제스트빌딩
수안마시술소,"울산광역시 남구 왕생로62번길 5, 4~5층 (달동)",276-9598,129.3324208,35.5392365,울산광역시 남구 왕생로62번길 5
가은안마시술소,"경기도 성남시 분당구 돌마로 73, 지1층 (금곡동, 우방타워)",712-7958,127.1100314,37.3504009,경기도 성남시 분당구 돌마로 73 우방코아
건강지킴이안마원,강원도 홍천군 홍천읍 희망로 67,033-432-1075,127.8903578,37.6942749,강원도 홍천군 홍천읍 희망로 67
뉴속초안마시술소,강원도 속초시 먹거리2길 34 (교동),033-638-0022,128.5767198,38.1936523,강원도 속초시 먹거리2길 34
핑크안마시술소,"경기도 안산시 단원구 광덕2로 50-15, 301~306호 (초지동, 정우프라자)",031-403-0123,126.8158512,37.3092088,경기도 안산시 단원구 광덕2로 50-15 정우프라자
A안마시술소,경상남도 거제시 서문로 70 (고현동),,128.6233605,34.8895958,경상남도 거제시 서문로 70 옥재철정형외과
밝은세상안마원신천역점,"대구광역시 동구 송라로 86, 4층 (신천동)",053-754-8885,128.6177757,35.8748900,대구광역시 동구 송라로 86 대한빌딩
보성안마원,"경상남도 김해시 내외중앙로 44, 덕산베스트코아 302호 (외동)",055-905-8080,128.8668900,35.2338863,경상남도 김해시 내외중앙로 44
벤츠안마시술소,"경기도 시흥시 중심상가1길 3-6, 옥산프라자 4층~5층 (정왕동)",031-434-2787,126.7348446,37.3442966,경기도 시흥시 중심상가1길 3-6 옥산프라자
최선생안마원,"경상남도 진주시 진주역로 114, 시티2차 2층 205호 (가좌동, 시티프라디움)",,128.1155880,35.1515096,경상남도 진주시 진주역로 114 시티프라디움
스타안마시술소,"경기도 수원시 팔달구 인계로108번길 39-12 (인계동,6,7층)",,127.0294020,37.2656592,경기도 수원시 팔달구 인계로108번길 39-12 수림빌딩
가정바른손안마원,"인천광역시 서구 봉오재3로110번길 7, 가정봄프라자 301호 (가정동)",032-568-2230,126.6720395,37.5267362,인천광역시 서구 봉오재3로110번길 7 가정봄프라자
애플안마시술소,"경기도 안양시 동안구 흥안대로 499 (관양동, 3층,4층,5층)",031-426-9031,126.9764282,37.3985846,경기도 안양시 동안구 흥안대로 499
백제,전라북도 전주시 덕진구 산정1길 4 (산정동),063-242-6808,127.1691933,35.8367330,전라북도 전주시 덕진구 산정1길 4
강남안마시술소,충청북도 충주시 애향로 63 (봉방동),043-855-1426,127.9167538,36.9728389,충청북도 충주시 애향로 63
KING 안마시술소,"충청북도 제천시 용두천로 10, 1~3층 (영천동)",,128.2045066,37.1314606,충청북도 제천시 용두천로 10
손오공수기안마원,"광주광역시 서구 구성로19번길 7-4, 106호 (양동)",,126.9005271,35.1531156,광주광역시 서구 구성로19번길 7-4
젠틀맨안마시술소,"서울특별시 성동구 천호대로 282, 남주빌딩 4, 5층 (용답동)",02-2243-3787,127.0521623,37.5668056,서울특별시 성동구 천호대로 282 남주빌딩
일심안마시술소,충청북도 청주시 상당구 중흥로 40 (용암동),,127.5023286,36.6095428,충청북도 청주시 상당구 중흥로 40
효지압안마원,"경기도 구리시 검배로 89, 201호 (수택동)",031-555-5991,127.1481315,37.5951505,경기도 구리시 검배로 89
가구거리 햇님안마원,"부산광역시 동구 중앙대로460번길 32, 1층 (좌천동)",0516326544,129.0562845,35.1351222,부산광역시 동구 중앙대로460번길 32
용지압 힐링센터 안마원,"경기도 용인시 수지구 성복2로 17, 골드프라자 3층 122호 (성복동)",031-264-7575,127.0810234,37.3107116,경기도 용인시 수지구 성복2로 17 골드프라자1
성심건강안마원,서울특별시 도봉구 노해로 341 (창동),,127.0459347,37.6514553,서울특별시 도봉구 노해로 341 신원리베르텔
강남안마시술소,"부산광역시 연제구 과정로 137, 삼호라이프레포츠텔 지하2층 (연산동)",,129.1067663,35.1835898,부산광역시 연제구 과정로 137 삼호라이프레포츠텔
진주,경기도 수원시 장안구 파장로 77 (정자동),031-246-4165,126.9919367,37.3061566,경기도 수원시 장안구 파장로 77 피쉬엔그릴
스타안마시술소,"경기도 고양시 덕양구 호국로777번길 35 (주교동,2층)",031-966-9750,126.8329596,37.6561488,경기도 고양시 덕양구 호국로777번길 35 서봉빌딩
뉴안마시술소,"경기도 용인시 처인구 금령로 116, 8층 (김량장동)",031-339-3319,127.2092350,37.2351994,경기도 용인시 처인구 금령로 116 용인타워
송정안마시술소,경상북도 구미시 구미중앙로42길 9-1 (송정동),054-453-4247,128.3522139,36.1201835,경상북도 구미시 구미중앙로42길 9-1
보라매지압원,"서울특별시 동작구 대방동1길 15-1, 하이빌 1층 (대방동)",,126.9259212,37.5002109,서울특별시 동작구 대방동1길 15-1 하이빌
바른지압힐링센터,"경기도 고양시 덕양구 삼송로 210, 현대썬앤빌 202호 (삼송동)",02-381-5560,126.8973645,37.6532449,경기도 고양시 덕양구 삼송로 210 현대썬앤빌
베스트안마시술소,"경기도 화성시 효행로 1072, 9층 (병점동, 상록프라자)",031-232-6889,127.0442957,37.2149646,경기도 화성시 효행로 1072 상록프라자
덕구안마시술소,경기도 의정부시 신흥로239번길 9 (의정부동),031-829-7767,127.0426649,37.7374624,경기도 의정부시 신흥로239번길 9
동보안마원,"부산광역시 부산진구 중앙대로 940 (양정동,인제빌딩 4층)",051-851-2998,129.0720991,35.1735997,부산광역시 부산진구 중앙대로 940
조은지압안마원,경기도 부천시 삼작로352번길 2 (여월동),032-654-6825,126.8007023,37.5197700,경기도 부천시 삼작로352번길 2
라파엘안마원,"서울특별시 중랑구 면목로33길 27-7, 101호 (면목동)",02-416-3806,127.0844175,37.5763820,서울특별시 중랑구 면목로33길 27-7
하와이안마시술소,"인천광역시 남동구 성말로 9 (구월동, 이노프라자 403호)",422-1380,126.7017293,37.4458097,인천광역시 남동구 성말로 9 이노 프라자
공주건강안마센터,충청남도 공주시 봉황로 150 (교동),041-852-9878,127.1215881,36.4595332,충청남도 공주시 봉황로 150
건강백세안마원,"충청남도 서산시 시장6로 38 (동문동, 서성빌딩4층)",664-9987,126.4580865,36.7829248,충청남도 서산시 시장6로 38
삼손안마원,충청남도 공주시 신관로 69-11 (신관동),041-881-3642,127.1362902,36.4690824,충청남도 공주시 신관로 69-11
에레스안마시술소,"경기도 안양시 동안구 흥안대로 521 (관양동, 5층)",031-422-6564,126.9761438,37.4005423,경기도 안양시 동안구 흥안대로 521
서울안마시술소,서울특별시 관악구 시흥대로 576 (신림동),838-9935,126.9030914,37.4840768,서울특별시 관악구 시흥대로 576
용안마시술소,서울특별시 관악구 남현1길 58 (남현동),587-1351,126.9805103,37.4756296,서울특별시 관악구 남현1길 58 덕인빌딩
용안마시술소,경기도 안산시 단원구 광덕2로 163-5 (고잔동),031-484-3398,126.8284155,37.3103848,경기도 안산시 단원구 광덕2로 163-5 황금프라자
부평안마시술소,"인천광역시 부평구 대정로 66, 다운타운일레븐 303호 (부평동)",,126.7266952,37.4935756,인천광역시 부평구 대정로 66 다운타운일레븐
이든7575지압원,"부산광역시 해운대구 해운대해변로 291, 크리스탈비치오피스텔 304호 (중동)",051-703-7958,129.1624781,35.1607299,부산광역시 해운대구 해운대해변로 291 크리스탈비치오피스텔
수안마시술소,"충청북도 청주시 청원구 오창읍 중심상업로 39, 2층 205,206,207,208호 (오창온천)",043-211-5759,127.4290386,36.7142689,충청북도 청주시 청원구 오창읍 중심상업로 39 오창온천
A 안마시술소,"울산광역시 동구 방어진순환도로 602-1, 4,5층 (화정동)",,129.4277243,35.4953082,울산광역시 동구 방어진순환도로 602-1
설봉안마시술소,경기도 이천시 중리천로 129-6 (중리동),635-0762,127.4494220,37.2755577,경기도 이천시 중리천로 129-6 경기동부자폐아전문치료센터
으뜸안마원,"인천광역시 미추홀구 주안로213번길 15, 간석역프라자 2층 202호 (주안동)",032-437-3375,126.6935767,37.4642205,인천광역시 미추홀구 주안로213번길 15 간석역프라자
송암안마시술소,경기도 평택시 관광특구로 23 (서정동),031-667-4147,127.0614965,37.0671549,경기도 평택시 관광특구로 23
중앙안마시술소,강원도 춘천시 시청길 16-1 (조양동),033)244-1235,127.7296731,37.8802699,강원도 춘천시 시청길 16-1
제일약손지압안마원,"경상남도 사천시 사천읍 정의길 41, 1층",055-855-9675,128.0886502,35.0848362,경상남도 사천시 사천읍 정의길 41 성민쌀상회
동하안마시술소,"강원도 동해시 한섬로 107, 3층 (천곡동, 경성빌딩)",033-533-9494,129.1155643,37.5213258,강원도 동해시 한섬로 107 경성빌딩
웰빙안마시술소,"서울특별시 송파구 송파대로28길 32, 올림피아오피스텔 B1층 (가락동)",02-443-0231,127.1213235,37.4947436,서울특별시 송파구 송파대로28길 32 올림피아오피스텔
건강연수안마원,"인천광역시 연수구 학나래로6번길 35, 5층 (선학동)",032-818-8575,126.6975803,37.4247284,인천광역시 연수구 학나래로6번길 35
활기지압안마원,"경기도 수원시 영통구 효원로 393, 밀래니엄프라자 307호 (매탄동)",0312124588,127.0446907,37.2591146,경기도 수원시 영통구 효원로 393 밀래니엄프라자
일등보건안마원,충청남도 당진시 당진중앙3로 72 (읍내동),041-357-3962,126.6298265,36.8922340,충청남도 당진시 당진중앙3로 72 센터빌딩
양지안마시술소,"경기도 의왕시 계원대학로 25, 6층 (내손동, 팬템프라자)",031-426-8611,126.9744031,37.3799338,경기도 의왕시 계원대학로 25 팬텀프라자
스페셜안마시술소,"서울특별시 강남구 역삼로2길 15, 5층일부, 6~8층 (역삼동)",561-5952,127.0317221,37.4923654,서울특별시 강남구 역삼로2길 15 금성빌딩
한국국가대표안마원(본점),"인천광역시 연수구 비류대로 208, 4층 (옥련동)",032-834-8575,126.6576991,37.4274233,인천광역시 연수구 비류대로 208
내몸에약손안마원,"대구광역시 수성구 고산로 101, 상가동 2층 23-8호 (신매동)",053-793-1322,128.7040303,35.8400641,대구광역시 수성구 고산로 101
캐슬안마시술소,"경기도 화성시 떡전골로 82, 5-6층 (병점동, 동아골드프라자)",031-231-2102,127.0343716,37.2058110,경기도 화성시 떡전골로 82
쿠라시온안마원,"경기도 성남시 분당구 황새울로258번길 32, 코리아나빌딩 307호 (수내동)",031-714-8897,127.1160923,37.3794307,경기도 성남시 분당구 황새울로258번길 32 코리아나빌딩
원안마시술소,"경기도 고양시 일산동구 정발산로 38, 장항동이스턴시티 506,506-1,507,507-1,508호 (장항동)",031-908-2861,126.7731559,37.6567215,경기도 고양시 일산동구 정발산로 38 장항동이스턴시티
국가대표케이에이(KA)안마원,"인천광역시 연수구 용담로125번길 41, 메카리움오피스텔 3층 (연수동)",032-821-8575,126.6798172,37.4157897,인천광역시 연수구 용담로125번길 41 메카리움오피스텔
상주척추안마원,경상북도 상주시 동수로 69(서문동),054-564-0298,128.1556249,36.4188707,경상북도 상주시 동수로 69
예손지압안마원,"경기도 시흥시 은계호수로 49, 시흥 센트럴돔 그랑트리 캐슬 3층 3033호~3034호 (은행동)",031-315-8677,126.8020504,37.4458742,경기도 시흥시 은계호수로 49 시흥 센트럴돔 그랑트리 캐슬
서현지압안마센터,"경기도 부천시 소사로 775, 2층일부 (원종동)",032-673-7274,126.8045589,37.5254378,경기도 부천시 소사로 775
가나안마시술소,"서울특별시 도봉구 도봉로 575, 602호 (쌍문동, 삼환프라자)",,127.0388060,37.6564112,서울특별시 도봉구 도봉로 575 삼환프라자
장성안마원,"경상북도 포항시 북구 새천년대로1076번길 27-6, 3층 (두호동)",,129.3745575,36.0647368,경상북도 포항시 북구 새천년대로1076번길 27-6
추나안마원,"경기도 고양시 덕양구 내유길 38-22, 지1층 비100호 (내유동)",,126.8534442,37.7175938,경기도 고양시 덕양구 내유길 38-22
동해건강안마센타안마원,"강원도 동해시 한섬로 55, 현대열쇠 1층 (천곡동)",,129.1098401,37.5202445,강원도 동해시 한섬로 55 현대열쇠
휴나래안마원,"경기도 화성시 효행로 1056, 206호 (병점동)",031-235-9981,127.0428663,37.2142144,경기도 화성시 효행로 1056
여우안마시술소,경상북도 칠곡군 석적읍 북중리2길 42,054-974-7763,128.4104335,36.0788431,경상북도 칠곡군 석적읍 북중리2길 42
안녕지압안마원,"경기도 화성시 화산로 58, 1층 101호 (송산동)",031-234-7275,127.0145467,37.2092751,경기도 화성시 화산로 58
초코렛안마시술소,"경기도 화성시 효행로 1068, 9층 (병점동, 리더스프라자)",031-898-9901,127.0438480,37.2147322,경기도 화성시 효행로 1068 리더스프라자
상쾌한안마원,"인천광역시 부평구 주부토로 33, 4층 (부평동)",032-503-0177,126.7248773,37.4981237,인천광역시 부평구 주부토로 33
인천중앙안마원,"인천광역시 남동구 구월로 235, 지하1층 일부호 (구월동)",,126.7167158,37.4563923,인천광역시 남동구 구월로 235
임성택안마원,"대구광역시 달서구 성서로 374, 3층 (이곡동)",0535851171,128.5077037,35.8509522,대구광역시 달서구 성서로 374
진안마원,부산광역시 동구 중앙대로349번길 38 (수정동),464-7535,129.0451936,35.1264221,부산광역시 동구 중앙대로349번길 38
온지압안마원,부산광역시 동구 조방로 38 (범일동),867-9417,129.0614206,35.1400343,부산광역시 동구 조방로 38
가자장수힐링지압안마원,"부산광역시 동구 조방로 39-11, 5층 (범일동)",051-635-7575,129.0610574,35.1393896,부산광역시 동구 조방로 39-11
증평안마센터,충청북도 증평군 증평읍 중앙로4길 13,043-836-4275,127.5803265,36.7816747,충청북도 증평군 증평읍 중앙로4길 13
원당 안마원,"경기도 군포시 군포역1길 36, 103호 (당동)",031-427-1788,126.9476994,37.3529494,경기도 군포시 군포역1길 36
스타안마시술소,"서울특별시 강북구 월계로3길 5, 2-4층 (미아동)",02-981-9988,127.0311776,37.6101188,서울특별시 강북구 월계로3길 5
비젼안마원,"제주특별자치도 제주시 신대로16길 41, 2층 (연동)",,126.4921149,33.4867628,제주특별자치도 제주시 신대로16길 41
산삼안마원,"대전광역시 중구 보문로103번길 85, 2층 (부사동)",042-252-3375,127.4336341,36.3128081,대전광역시 중구 보문로103번길 85
에스안마시술소,"경기도 화성시 향남읍 평3길 15, 3층 (에쓰뻬랑스)",031-8047-0171,126.9085142,37.1312822,경기도 화성시 향남읍 평3길 15 에쓰뻬랑스
동화안마원,"경기도 화성시 봉담읍 동화길 93-6, 지존타워 4층 402호",031-278-5741,126.9593743,37.2164317,경기도 화성시 봉담읍 동화길 93-6
백암안마시술소,충청북도 충주시 성터7길 21 (문화동),043-854-5759,127.9188044,36.9707823,충청북도 충주시 성터7길 21
향남안마원,"경기도 화성시 향남읍 행정서로1길 13-5, 1층",031-351-6263,126.9140494,37.1257692,경기도 화성시 향남읍 행정서로1길 13-5
여우안마시술소,"경기도 화성시 효행로 1056 (병점동, 탑프라자5층)",,127.0428663,37.2142144,경기도 화성시 효행로 1056
동암안마원,"인천광역시 부평구 열우물로87번길 33, 1층 2호 (십정동)",,126.6961445,37.4739630,인천광역시 부평구 열우물로87번길 33
삼성안마시술소,"경기도 수원시 팔달구 인계로108번길 49 (인계동,(5층))",031-224-7687,127.0288868,37.2655756,경기도 수원시 팔달구 인계로108번길 49 조은프라자
영주안마원,"경상북도 영주시 중앙로 74, 3층 (영주동)",,128.6242620,36.8218836,경상북도 영주시 중앙로 74
전통안마원,경상북도 영주시 지천로184번길 22 (가흥동),,128.6203011,36.8154108,경상북도 영주시 지천로184번길 22
모담지압안마원,"경기도 수원시 팔달구 인계로94번길 8, 4층 (인계동)",,127.0275277,37.2678503,경기도 수원시 팔달구 인계로94번길 8
수안마시술소,"대전광역시 유성구 온천로 22, 5층 (봉명동)",,127.3403430,36.3553225,대전광역시 유성구 온천로 22
약손안마원,"경기도 가평군 조종면 조종새싹로 20-5, 현대정육점",,127.3494705,37.8204593,경기도 가평군 조종면 조종새싹로 20-5 현대정육점
참손길안마원,"서울특별시 동작구 동작대로 83, 헤라피스빌딩 4층 (사당동)",070-5055-1887,126.9816296,37.4840375,서울특별시 동작구 동작대로 83 헤라피스빌딩
온천안마시술소,충청남도 예산군 덕산면 덕산온천로 324-7,041-338-1682,126.6634666,36.6951186,충청남도 예산군 덕산면 덕산온천로 324-7
팝콘안마시술소,"서울특별시 노원구 노해로83길 10-11, 3층, 4층 (상계동)",02-932-0880,127.0649466,37.6560187,서울특별시 노원구 노해로83길 10-11 영창빌딩
오산시술원,강원도 홍천군 화촌면 굴운로75번길 20-3,033-435-5286,127.9500930,37.7361382,강원도 홍천군 화촌면 굴운로75번길 20-3
건강안마시술소,강원도 홍천군 홍천읍 홍천로 336-9,033-434-7012,127.8825665,37.6880026,강원도 홍천군 홍천읍 홍천로 336-9
두촌시술원,강원도 홍천군 두촌면 자은장터길 4-7,033-435-2919,128.0195056,37.8676535,강원도 홍천군 두촌면 자은장터길 4-7
고침안마원,강원도 홍천군 홍천읍 오룡로 63-8,033-436-5009,127.9188758,37.6975478,강원도 홍천군 홍천읍 오룡로 63-8
송화지압안마원,강원도 홍천군 홍천읍 연봉중앙로 90-1,033-433-8575,127.8819011,37.6842207,강원도 홍천군 홍천읍 연봉중앙로 90-1
몸사랑지압안마원,"서울특별시 마포구 서강로 55, 서강쌍용예가 근린생활시설(2단지)211,212호 (창전동)",332-2809,126.9313759,37.5483009,서울특별시 마포구 서강로 55 서강쌍용예가
애플안마시술소,"경기도 성남시 분당구 성남대로916번길 7, 8층 801~807호 (야탑동, 서일빌딩)",781-8844,127.1298581,37.4111576,경기도 성남시 분당구 성남대로916번길 7 서일빌딩
힐링숲안마원,"서울특별시 성동구 독서당로59다길 12, B01호 (응봉동)",02-2298-8259,127.0312129,37.5529121,서울특별시 성동구 독서당로59다길 12
손안마원,"경기도 광주시 파발로 103, 2층 (송정동)",031-797-7655,127.2592113,37.4135128,경기도 광주시 파발로 103
두드림지압안마원,"인천광역시 남동구 장승로 9, 신비프라자 4층 일부호 (만수동)",032-464-7778,126.7342290,37.4466317,인천광역시 남동구 장승로 9 신비프라자
나음안마원,경기도 평택시 평택3로 28 (합정동),031-692-4252,127.0935654,36.9915193,경기도 평택시 평택3로 28
예침지압안마원,"경기도 군포시 고산로250번길 32, 3동 상가401호 (당동, 덕산아파트)",399-0027,126.9452243,37.3489038,경기도 군포시 고산로250번길 32 덕산아파트
딸기안마시술소,"인천광역시 남동구 인하로 497-23 (구월동, 지상5층)",032-421-1307,126.7017150,37.4445418,인천광역시 남동구 인하로 497-23 반도프라자
참손길지압안마원,"경기도 안양시 동안구 관악대로 480, 601호 (관양동, 우정타운)",1522-8622,126.9753927,37.4024710,경기도 안양시 동안구 관악대로 480 우정타운
바른체형교정안마원,"인천광역시 미추홀구 경원대로 869, 르네상스빌딩 (주안동)",,126.6891695,37.4604009,인천광역시 미추홀구 경원대로 869 르네상스빌딩
몸편한보건안마원,충청북도 충주시 봉현로 295 (교현동),910-8275,127.9366468,36.9776627,충청북도 충주시 봉현로 295
권재혁전통안마원,"강원도 원주시 평원로 44, 1층 (평원동)",033-743-7553,127.9520903,37.3500497,강원도 원주시 평원로 44
큐안마시술소,"경기도 포천시 소흘읍 솔모루로 84, 2,3층",031-543-6969,127.1474350,37.8286067,경기도 포천시 소흘읍 솔모루로 84
킹안마시술소,"경기도 용인시 처인구 금령로71번길 6-4 (김량장동,용인빌딩 4층)",,127.2046593,37.2355158,경기도 용인시 처인구 금령로71번길 6-4
건강안마원,"경기도 수원시 팔달구 팔달문로 135, 1층 (우만동)",031-213-7722,127.0307785,37.2825587,경기도 수원시 팔달구 팔달문로 135
석민안마시술소,"경기도 남양주시 금곡로 43, 6층 (금곡동)",031-591-2104,127.2080588,37.6342362,경기도 남양주시 금곡로 43 대로빌딩
운정국가공인안마센터,"경기도 파주시 책향기로 573, 월드타워3차 3층 305호 (목동동)",031-949-3143,126.7343815,37.7277937,경기도 파주시 책향기로 573
청춘안마원,제주특별자치도 제주시 중앙로 181 (이도일동),064-758-3865,126.5276560,33.5030826,제주특별자치도 제주시 중앙로 181
쌍마안마시술소,"서울특별시 동대문구 전농로 12, 3층 (답십리동)",2242-6011,127.0560271,37.5660427,서울특별시 동대문구 전농로 12
원당가족안마원,"경기도 고양시 덕양구 마상로134번길 99, 2층 1호 (주교동)",966-8575,126.8339929,37.6561776,경기도 고양시 덕양구 마상로134번길 99
더편한안마원,"서울특별시 강남구 역삼로 315, 개나리5차상가 202호 (역삼동)",566-1775,127.0503146,37.5005552,서울특별시 강남구 역삼로 315 개나리아파트
우리안마원,"대전광역시 중구 중촌로40번길 24, 1층 (중촌동)",042-585-1230,127.4129225,36.3396418,대전광역시 중구 중촌로40번길 24
참편한안마원,강원도 춘천시 충혼길44번길 14(온의동),255-7175,127.7199711,37.8614719,강원도 춘천시 충혼길44번길 14
산안마시술소,"강원도 원주시 장미공원길 25-5, 4층 (단계동)",033-744-3242,127.9327225,37.3466152,강원도 원주시 장미공원길 25-5
더블유(W)안마시술소,"경기도 시흥시 평안상가4길 22, 4,5층 (정왕동)",031-434-2355,126.7495874,37.3375173,경기도 시흥시 평안상가4길 22 해동빌딩
로또안마시술소,경기도 이천시 중리천로97번길 53 (창전동),634-8323,127.4476164,37.2804274,경기도 이천시 중리천로97번길 53
안성지압안마원,"경기도 안성시 장기로 118, 102호 (낙원동)",031-8057-2103,127.2758210,37.0037575,경기도 안성시 장기로 118
맑은손지압안마원,"경기도 구리시 건원대로 36, 화성골드프라자 3층 307호 (인창동)",031-553-5006,127.1405155,37.6044341,경기도 구리시 건원대로 36 화성골드프라자
코코안마시술소,서울특별시 중랑구 망우로60길 31 (망우동),02-435-2212,127.0945656,37.5971828,서울특별시 중랑구 망우로60길 31 무학장온천여관
전통안마지압센타,"경상남도 창원시 마산회원구 삼호로 36, 신세계백화점앞동 2층 (양덕동)",055-253-5569,128.5867897,35.2214140,경상남도 창원시 마산회원구 삼호로 36
다오안마시술소,"서울특별시 강남구 학동로 235, 6층,7층일부,8층 (논현동)",515-7771,127.0350255,37.5156050,서울특별시 강남구 학동로 235 로이빌딩
호산나안마원,"대전광역시 동구 옥천로 202-7, 2층 (판암동)",,127.4626044,36.3179358,대전광역시 동구 옥천로 202-7
바른몸약손안마원,"경상남도 밀양시 내이2길 8, 1층 (내이동)",,128.7440034,35.4971310,경상남도 밀양시 내이2길 8
장수건강안마원,"경기도 성남시 분당구 돌마로 79, 601,602호 (금곡동, 썬프라자)",031-718-7722,127.1107975,37.3503982,경기도 성남시 분당구 돌마로 79 썬프라자
킹안마시술소,"대전광역시 유성구 온천로 34 (봉명동,5층)",042-825-8599,127.3412472,36.3552101,대전광역시 유성구 온천로 34 유성빌딩
만민안마시술소,"인천광역시 남동구 석촌로 41 (간석동, 5층)",423-7717,126.7087534,37.4643207,인천광역시 남동구 석촌로 41 태양빌딩
황제안마시술소,충청남도 보령시 목장2길 31 (대천동),,126.5993362,36.3490388,충청남도 보령시 목장2길 31
탑안마시술소,"경기도 고양시 일산동구 무궁화로 18, 남정 씨티프라자 1 701호 일부, 706~708호호 (장항동)",,126.7669288,37.6617138,경기도 고양시 일산동구 무궁화로 18 남정 씨티프라자 1
K1안마시술소,"광주광역시 서구 상무연하로 50, 지상8층 (치평동)",062-383-5577,126.8505017,35.1527209,광주광역시 서구 상무연하로 50 에코노블빌딩
참손길지압힐링센터수원역점,"경기도 수원시 팔달구 덕영대로 905, 1003호 (매산로1가, 아이메카 상가)",031-258-7555,127.0005489,37.2678790,경기도 수원시 팔달구 덕영대로 905 아이메카 상가
지지안마시술소,"서울특별시 강남구 봉은사로 310, 지하2층 (역삼동, 대일빌딩)",573-7789,127.0409847,37.5091679,서울특별시 강남구 봉은사로 310 숨빌딩
샘안마시술소,경상남도 김해시 번화1로 78 (대청동),055-313-5966,128.7999135,35.1942802,경상남도 김해시 번화1로 78 미건빌딩
상상안마시술소,전라북도 익산시 목천로1길 24-25 (인화동1가),063-856-7979,126.9483839,35.9307693,전라북도 익산시 목천로1길 24-25
시원손안마원,"충청남도 서산시 대산읍 구진로 15, 1층",,126.4353701,36.9367544,충청남도 서산시 대산읍 구진로 15
명성지압안마원,"경기도 용인시 수지구 현암로 107, 2층 202호 (죽전동, SR프라자)",031-897-6636,127.1212467,37.3319582,경기도 용인시 수지구 현암로 107 SR프라자
오송정통안마원,충청북도 청주시 흥덕구 오송읍 연제길 181-9,,127.3107993,36.6299908,충청북도 청주시 흥덕구 오송읍 연제길 181-9
킹안마시술소,경기도 파주시 중앙로 293-1 (금촌동),944-7075,126.7757354,37.7619546,경기도 파주시 중앙로 293-1 킹안마
포인트안마시술소,"충청남도 천안시 서북구 양지10길 60 (성정동,1,2,3,4층)",576-7942,127.1408335,36.8126066,충청남도 천안시 서북구 양지10길 60 골인안마
해바라기안마원,"충청남도 보령시 대흥로 76, 1층 (대천동)",041-931-7154,126.5910737,36.3512808,충청남도 보령시 대흥로 76
오-편한케어안마원,"경상북도 고령군 대가야읍 왕릉로 95, 2층",054-614-5789,128.2665338,35.7283554,경상북도 고령군 대가야읍 왕릉로 95
제일경락안마원,"전라북도 군산시 대학로 342, 동아26빌딩 8층 809호,810호,811호,812호 (나운동)",063-466-9980,126.6930559,35.9635217,전라북도 군산시 대학로 342 동아26빌딩
뉴펄안마시술소,"충청남도 아산시 배방읍 고속철대로 77, 4,5층 (MS프라자)",,127.1074582,36.7912271,충청남도 아산시 배방읍 고속철대로 77 MS프라자
조은건강안마원,대구광역시 수성구 동대구로 224(범어동),424-5577,128.6254846,35.8503707,대구광역시 수성구 동대구로 224
보그안마시술소,서울특별시 강남구 언주로148길 13 (논현동),02-545-8574,127.0356524,37.5207805,서울특별시 강남구 언주로148길 13
우진안마시술소,"경기도 고양시 일산동구 무궁화로 31-2 (장항동,풍성프라자601~606호)",,126.7678775,37.6631069,경기도 고양시 일산동구 무궁화로 31-2 풍성프라자
동경안마시술소,"대전광역시 유성구 온천로 36, 4, 5층 (봉명동)",042-826-7200,127.3415539,36.3551761,대전광역시 유성구 온천로 36
장수지압안마원,인천광역시 연수구 앵고개로 262 (동춘동),032-815-7770,126.6725683,37.4075008,인천광역시 연수구 앵고개로 262 동경프라자
의왕지압안마원,"경기도 의왕시 모락로 16 (오전동, 현대프라자)",031-429-8533,126.9670896,37.3594858,경기도 의왕시 모락로 16 현대프라자
청담안마시술소,"경기도 고양시 덕양구 호국로789번길 7 (주교동,301,302호)",031-962-9577,126.8357054,37.6568817,경기도 고양시 덕양구 호국로789번길 7
호두안마시술소,충청남도 천안시 서북구 봉정로 125-1 (성정동),041-579-5879,127.1412626,36.8133656,충청남도 천안시 서북구 봉정로 125-1 호두안마
이손힐링안마원,"경기도 안성시 중앙로 366, 크리스탈빌딩 1동 10층 1003호 (석정동)",,127.2674027,37.0077855,경기도 안성시 중앙로 366 크리스탈빌딩
장봉민건강지압안마원,"경기도 하남시 미사강변동로 73, 미사강변 노블레스 3층 313호 (망월동)",699-3700,127.1930378,37.5615554,경기도 하남시 미사강변동로 73 미사강변 노블레스
뉴에이스안마시술소,경기도 안성시 중앙로 366 (석정동),,127.2674027,37.0077855,경기도 안성시 중앙로 366 크리스탈빌딩
궁안마시술소,경기도 평택시 포승읍 여술1길 80,031-684-9082,126.8433125,36.9895091,경기도 평택시 포승읍 여술1길 80
델타안마시술소,"경기도 구리시 체육관로171번길 7, 4,5층 (교문동)",,127.1356253,37.5997935,경기도 구리시 체육관로171번길 7 금성빌딩
청춘生안마,"대전광역시 유성구 온천서로 22-9, 1층 103호 (봉명동, 유성온천훼미리타운)",042-862-3933,127.3405026,36.3564104,대전광역시 유성구 온천서로 22-9 유성온천훼미리타운
핑크안마시술소,"충청북도 청주시 상당구 월평로184번길 62 (용암동,4층,5층)",288-5412,127.5023420,36.6087594,충청북도 청주시 상당구 월평로184번길 62
영광지압힐링안마원,"서울특별시 서대문구 북아현로 26-10, 1층 (북아현동)",365-1135,126.9569759,37.5598379,서울특별시 서대문구 북아현로 26-10
가자청양보건안마원,충청남도 청양군 청양읍 중앙로열길 3-1,943-6963,126.8036784,36.4519903,충청남도 청양군 청양읍 중앙로열길 3-1
엄지안마원,경기도 가평군 가평읍 오리나무길 15-1 (주연테크),031-581-1271,127.5142831,37.8260887,경기도 가평군 가평읍 오리나무길 15-1 주연테크
동방수기요법안마원,부산광역시 동래구 아시아드대로 157 (사직동),502-5050,129.0649590,35.1984834,부산광역시 동래구 아시아드대로 157
가장조은안마원,"인천광역시 연수구 청능대로 109, 803호 (연수동, 탑피온)",032-813-3652,126.6767228,37.4129945,인천광역시 연수구 청능대로 109 탑피온
에이스안마시술소,대구광역시 달서구 와룡로 98 (본리동),526-8424,128.5374261,35.8414197,대구광역시 달서구 와룡로 98
참손길지압힐링센터,"경기도 수원시 영통구 대학3로4번길 2, 광교 파인렉스2 303호 (이의동)",031-212-7554,127.0431220,37.2995801,경기도 수원시 영통구 대학3로4번길 2 광교 파인렉스2
백선생지압안마원,"경상남도 진주시 남강로 481, 1층 (신안동)",,128.0729863,35.1812026,경상남도 진주시 남강로 481 한주파크맨션
참손길지압힐링센터안마원,"경기도 부천시 부천로 50-1, 오성빌딩 2층 (심곡동)",032-664-7582,126.7840903,37.4886805,경기도 부천시 부천로 50-1 오성빌딩
건강한미안마지압원,부산광역시 연제구 과정로 82 (연산동),051-751-4976,129.1073971,35.1785814,부산광역시 연제구 과정로 82
추카추카안마시술소,경기도 하남시 신장로136번길 7 (덕풍동),031-795-6019,127.2032801,37.5389600,경기도 하남시 신장로136번길 7
귀빈안마시술소,"경기도 용인시 기흥구 중부대로 359, 2층,3층,4층 (신갈동)",031-274-2452,127.1069050,37.2717089,경기도 용인시 기흥구 중부대로 359
예쁘제경락경혈지압안마원,"경기도 수원시 장안구 파장로54번길 6, 1층 (파장동)",031-246-8690,126.9951274,37.3058828,경기도 수원시 장안구 파장로54번길 6
하트안마시술소,경기도 용인시 처인구 백옥대로1362번길 1 (유방동),031-333-6430,127.2128711,37.2567521,경기도 용인시 처인구 백옥대로1362번길 1 타이어프로 용인ic점
건강드림안마원,"인천광역시 동구 화수로 3-5, 2층 (송현동)",,126.6362083,37.4799890,인천광역시 동구 화수로 3-5
영지압원,"부산광역시 서구 천마로 145-1, 1층 (남부민동)",,129.0232022,35.0887932,부산광역시 서구 천마로 145-1
블루문타임안마시술소,"서울특별시 강남구 언주로86길 27, 1층일부, 2~5층 (역삼동)",553-7156,127.0453939,37.5025539,서울특별시 강남구 언주로86길 27
안산포인트안마원,"경기도 안산시 단원구 광덕3로 145-5, 동일프라자 206호 (고잔동)",,126.8286519,37.3131452,경기도 안산시 단원구 광덕3로 145-5 동일프라자
서해안마시술소,경기도 평택시 포승읍 서동대로 792,031-682-0335,126.8556835,36.9611752,경기도 평택시 포승읍 서동대로 792 항만빌딩
태양안마시술소,"경기도 안산시 상록구 용신로 383, 삼우프라자 6층 (본오동)",,126.8647448,37.3019457,경기도 안산시 상록구 용신로 383 삼우프라자
한사랑안마원,"충청남도 보령시 원동1길 30-9, 2층 (대천동)",,126.5967164,36.3508601,충청남도 보령시 원동1길 30-9
대진안마원,"대구광역시 달서구 상원로 22-10, 2층 (상인동)",053-637-2755,128.5370114,35.8117574,대구광역시 달서구 상원로 22-10
성모지압안마원,"대구광역시 달서구 월배로 322, PK빌딩 5층 (송현동)",053-631-2020,128.5463116,35.8241103,대구광역시 달서구 월배로 322
명가정통지압안마원,"부산광역시 부산진구 동평로 350, 양정현대프라자 5층 507호 (양정동)",051-633-2551,129.0632545,35.1745373,부산광역시 부산진구 동평로 350 양정현대프라자
진안마원,"대구광역시 달서구 월배로80길 66, 1층 (송현동)",053-941-1906,128.5537806,35.8279946,대구광역시 달서구 월배로80길 66
드라마안마시술소,"서울특별시 영등포구 여의대방로65길 12, 4,5층 (여의도동)",02-761-1566,126.9300434,37.5196304,서울특별시 영등포구 여의대방로65길 12 에리트빌딩
실로암안마지압원,경상남도 창원시 진해구 용재로 11-1 (용원동),,128.8112832,35.1023416,경상남도 창원시 진해구 용재로 11-1
건암물리지압원,"경상남도 창원시 진해구 동진로 56-4, 1층 (석동)",055-547-3987,128.7015034,35.1519863,경상남도 창원시 진해구 동진로 56-4
설탕안마시술소,"경상남도 창원시 성산구 마디미로21번길 4 (상남동, 아이죤빌딩6,7층)",284-8374,128.6848765,35.2220009,경상남도 창원시 성산구 마디미로21번길 4 아이존상가
단양보건안마센터,충청북도 단양군 단양읍 도전4길 20,043-422-0123,128.3695787,36.9815181,충청북도 단양군 단양읍 도전4길 20
아우라안마시술소,"울산광역시 남구 번영로124번길 13, 2~5층 (달동)",227-7072,129.3300653,35.5369206,울산광역시 남구 번영로124번길 13
이곳생명샘 지압안마원,"경상남도 양산시 북안남3길 23, 1층 (북부동)",,129.0376645,35.3460222,경상남도 양산시 북안남3길 23
약손건강안마원,경상남도 양산시 동면 금오4길 66,372-1080,129.0274564,35.3133355,경상남도 양산시 동면 금오4길 66
미성안마시술소,"서울특별시 강서구 강서로 454, 7층 (등촌동)",02-2628-7544,126.8409907,37.5658952,서울특별시 강서구 강서로 454 웅진프라자
태안지압안마원,"충청남도 태안군 태안읍 군청로 26, 2층",041-672-8852,126.3003526,36.7481237,충청남도 태안군 태안읍 군청로 26
피로타파안마원,"경기도 고양시 일산동구 중앙로 1192, 4층 1호 (마두동)",031-932-8875,126.7775150,37.6532373,경기도 고양시 일산동구 중앙로 1192
서현국가공인안마센터안마원,"경기도 성남시 분당구 불정로376번길 7, 건일빌딩 3층 303호 (서현동)",031-704-8885,127.1370505,37.3737399,경기도 성남시 분당구 불정로376번길 7 건일빌딩
전곡시술원,경기도 연천군 전곡읍 전곡로 106,031-832-2835,127.0712533,38.0221382,경기도 연천군 전곡읍 전곡로 106
로뎀지압마사지안마원,"경기도 안산시 단원구 고잔2길 16, 에머랄드빌딩 506,507호 (고잔동)",031-411-4321,126.8328784,37.3176462,경기도 안산시 단원구 고잔2길 16 에머랄드빌딩
천지인지압안마원,"대전광역시 대덕구 중리동로17번길 52, 1층 (중리동)",042-627-5353,127.4270236,36.3605017,대전광역시 대덕구 중리동로17번길 52
벨안마시술소,"경기도 화성시 노작로 149, 6층 (반송동, J.O프라자)",031-513-8887,127.0734342,37.2012725,경기도 화성시 노작로 149 화성동탄JO프라자
삼손안마원,"울산광역시 남구 월평로187번길 19, 2층 (삼산동)",,129.3245508,35.5472724,울산광역시 남구 월평로187번길 19
성라파엘안마원,"광주광역시 북구 자산로 89-1, 천주교광주대교시각장애인선교회 3층 (신안동)",062-527-6004,126.9013870,35.1671036,광주광역시 북구 자산로 89-1 천주교광주대교시각장애인선교회
최&박 지압 안마원,전라북도 완주군 봉동읍 봉동로 143,063-261-1275,127.1681469,35.9378428,전라북도 완주군 봉동읍 봉동로 143
건강지압안마원,전라북도 완주군 삼례읍 동학로 19,063-291-7525,127.0747096,35.9094931,전라북도 완주군 삼례읍 동학로 19
행복안마센터,"충청북도 영동군 영동읍 중앙로1길 18-2, 1층",,127.7763638,36.1730599,충청북도 영동군 영동읍 중앙로1길 18-2
안마박사,전라남도 목포시 백년대로337번길 10-1(상동),,126.4236163,34.8065658,전라남도 목포시 백년대로337번길 10-1
진주지압안마원,경상남도 진주시 돗골로94번길 6 (상평동),759-4385,128.1130579,35.1764386,경상남도 진주시 돗골로94번길 6
박기철 안마원,강원도 춘천시 효석로89번길 19 (석사동),033-264-1875,127.7406349,37.8602626,강원도 춘천시 효석로89번길 19
테라안마시술소,"경기도 부천시 상동로 81, 센타프라자 7층전체 (상동)",032-217-0071,126.7523759,37.5045894,경기도 부천시 상동로 81 센타프라자
서울안마시술소,"대구광역시 북구 동천로 128-7, 4층 (동천동)",053-321-0272,128.5617527,35.9429532,대구광역시 북구 동천로 128-7
국가대표 안마원,"인천광역시 옹진군 영흥면 영흥로 298, 창의교육 101호",032 880-0591,126.4815107,37.2559181,인천광역시 옹진군 영흥면 영흥로 298 창의교육
백세안마원,"경상남도 창원시 성산구 신월로 8, 1층 (신월동)",055-283-2220,128.6898129,35.2305149,경상남도 창원시 성산구 신월로 8
약손지압안마원,"강원도 강릉시 하평길 2, 2층 (포남동)",,128.9090487,37.7694118,강원도 강릉시 하평길 2
덕산지압원,강원도 강릉시 성덕포남로162번길 9-2 (포남동),653-8917,128.9114027,37.7674087,강원도 강릉시 성덕포남로162번길 9-2
강릉보건안마원,"강원도 강릉시 경강로 2251-1, 5층 (포남동)",033-643-5510,128.9084771,37.7648721,강원도 강릉시 경강로 2251-1
태양안마원,"경기도 이천시 서희로 45, 2층 (중리동)",,127.4423726,37.2796541,경기도 이천시 서희로 45
운화경락지압원,광주광역시 광산구 사암로92번길 55 (우산동),062-944-7412,126.8103164,35.1525685,광주광역시 광산구 사암로92번길 55
가고파안마원,경상북도 경주시 태종로699번길 20-1 (노서동),,129.2050052,35.8404173,경상북도 경주시 태종로699번길 20-1
보령건강센터안마원,충청남도 보령시 원동2길 42 (대천동),041)932-7554,126.5960155,36.3511500,충청남도 보령시 원동2길 42
동탄보건안마원,"경기도 화성시 동탄대로19길 10, 신유메디프라자 703,704호 (오산동)",031-372-7791,127.0977682,37.1971942,경기도 화성시 동탄대로19길 10
비타민안마시술소,"경기도 군포시 산본로323번길 13, 801-803호 (산본동)",399-9067,126.9327102,37.3588818,경기도 군포시 산본로323번길 13 군포상가
야후안마시술소,"경기도 성남시 분당구 구미로9번길 17, 8층 (구미동, 광림프라자 )",717-5281,127.1099518,37.3399009,경기도 성남시 분당구 구미로9번길 17 광림빌딩
강릉시민안마원,"강원도 강릉시 경강로 2113, 3층 (임당동)",033-642-6663,128.8976499,37.7559978,강원도 강릉시 경강로 2113
핑크안마시술소,"경기도 성남시 분당구 느티로 16, B01호 (정자동, 젤존타워1)",,127.1063065,37.3681714,경기도 성남시 분당구 느티로 16 젤존타워1
간석힐링안마원,"인천광역시 남동구 경인로644번길 69, 2층 (간석동)",431-7533,126.7118399,37.4660594,인천광역시 남동구 경인로644번길 69
임마누엘경락지압원-말바우,"광주광역시 북구 서방로 59-2, 3층 (우산동)",,126.9196031,35.1726166,광주광역시 북구 서방로 59-2
강릉안마원,강원도 강릉시 범일로 664 (내곡동),033-644-5637,128.8849331,37.7450576,강원도 강릉시 범일로 664
건강지킴안마원,"인천광역시 계양구 계산새로87번길 16, 계양신명스카이홈 2층 202호 (용종동)",032-547-8580,126.7383117,37.5393783,인천광역시 계양구 계산새로87번길 16 계양신명스카이홈
더드림안마원,"강원도 원주시 서원대로 408, 광장빌딩 5층 505호 (단구동)",,127.9500079,37.3299891,강원도 원주시 서원대로 408 광장빌딩
거뜬안마원,충청북도 충주시 야현4길 19(교현동),,127.9377006,36.9784896,충청북도 충주시 야현4길 19
썬안마시술소,전라북도 익산시 익산대로2길 29 (인화동1가),,126.9470069,35.9315571,전라북도 익산시 익산대로2길 29 뉴코아모텔
함양안마원,경상남도 함양군 수동면 수동1길 172,,127.7853155,35.5217699,경상남도 함양군 수동면 수동1길 172
"건강, 지압, 교정 안마원",경기도 수원시 권선구 금호로 57 (금곡동),031-294-7585,126.9577258,37.2698822,경기도 수원시 권선구 금호로 57
수기모아안마원,"강원도 춘천시 애막골길3번길 61, 1층 (석사동)",033-262-1868,127.7553319,37.8667680,강원도 춘천시 애막골길3번길 61
계산지압안마원,"인천광역시 계양구 장제로 719-23, 5층 502호 (작전동)",032-555-2236,126.7330760,37.5329348,인천광역시 계양구 장제로 719-23
수안마,"광주광역시 광산구 첨단중앙로152번길 46 (쌍암동,3층)",062-974-2342,126.8447032,35.2188215,광주광역시 광산구 첨단중앙로152번길 46
VIP안마시술소,서울특별시 성동구 아차산로 93 (성수동2가),02-497-4448,127.0546971,37.5452587,서울특별시 성동구 아차산로 93
킹안마시술소,서울특별시 강남구 강남대로92길 29 (역삼동),563-4808,127.0297261,37.4994089,서울특별시 강남구 강남대로92길 29
네로궁안마시술소,"경기도 부천시 길주로 86, 해피플러스 8층 801,802호 (상동)",032-328-5844,126.7519392,37.5052331,경기도 부천시 길주로 86 해피플러스
서강안마지압원,"부산광역시 사하구 낙동대로 280, 301동 B102호 (괴정동, 사하역 비스타 동원)",,128.9842553,35.1001154,부산광역시 사하구 낙동대로 280 사하역 비스타 동원
약손 지압 안마원,"경기도 수원시 권선구 금곡로212번길 25, 광일프라자 506호 (금곡동)",031-298-8575,126.9544848,37.2731683,경기도 수원시 권선구 금곡로212번길 25 광일프라자
토마토안마시술소,"서울특별시 강남구 언주로89길 7 (역삼동, 지하1층, 1~4층)",556-8181,127.0423290,37.5018314,서울특별시 강남구 언주로89길 7
드림도수안마원,"광주광역시 광산구 첨단중앙로170번길 12, 3층 (쌍암동)",,126.8424171,35.2205213,광주광역시 광산구 첨단중앙로170번길 12
슈퍼맨안마시술소,인천광역시 연수구 먼우금로 197 (청학동),032-818-8517,126.6761863,37.4149978,인천광역시 연수구 먼우금로 197 이리옴프라자
제천보건안마센터,충청북도 제천시 의림대로 182 (중앙로2가),043-651-8889,128.2136401,37.1434370,충청북도 제천시 의림대로 182
가나성일휴보건안마원,"광주광역시 서구 상무대로 894, 모아미래도 스카이뷰 2층 209~210호 (쌍촌동)",062-372-2544,126.8597660,35.1503050,광주광역시 서구 상무대로 894
건강안마원,"충청북도 청주시 상당구 산성로25번길 30, 2층 (탑동)",043-253-7596,127.4974899,36.6258966,충청북도 청주시 상당구 산성로25번길 30 제안원
영안마시술소,"서울특별시 송파구 오금로11길 11-8, 현대드림밸리 지하1층 (방이동)",02-425-3633,127.1087696,37.5149901,서울특별시 송파구 오금로11길 11-8 현대드림밸리
팔팔지압원,"부산광역시 사상구 사상로 88, TY빌딩 5층 (감전동)",051-313-0188,128.9920914,35.1551619,부산광역시 사상구 사상로 88 TY빌딩
강서119안마원,"서울특별시 강서구 화곡로31길 67, 지층층 (화곡동)",02-2661-1375,126.8396041,37.5443365,서울특별시 강서구 화곡로31길 67
수안마,"강원도 정선군 사북읍 사북중앙로 77, 태림빌딩",,128.8232035,37.2270170,강원도 정선군 사북읍 사북중앙로 77 태림빌딩
하니안마시술소,경기도 시흥시 호현로10번길 33 (신천동),031-311-2262,126.7867405,37.4403142,경기도 시흥시 호현로10번길 33
회복이됐다안마원,"경기도 파주시 광탄면 혜음로 1371, 회복이됐다안마원 1층",,126.8492749,37.8030403,경기도 파주시 광탄면 혜음로 1371 신일건재
해밀안마원,"부산광역시 부산진구 서전로9번길 27, 4층 (부전동)",051-819-1992,129.0608981,35.1591119,부산광역시 부산진구 서전로9번길 27
건강안마원,"경상북도 경주시 원효로 49, 왕산빌딩 2층 (성건동)",054-775-7558,129.2062907,35.8423375,경상북도 경주시 원효로 49 왕산빌딩
리앤드안마원,"인천광역시 부평구 경원대로1367번길 18, 2층 (부평동)",032-330-4400,126.7209744,37.4920733,인천광역시 부평구 경원대로1367번길 18
중앙 백 안마원,"경상북도 경주시 화랑로 53, 2층층 (성건동)",,129.2066463,35.8449429,경상북도 경주시 화랑로 53
탑(TOP)안마시술소,"서울특별시 동대문구 왕산로 138-1, 2~5층 (용두동)",967-4121,127.0388375,37.5779952,서울특별시 동대문구 왕산로 138-1
이홍준지압안마원,경상북도 경주시 외동읍 산업로 2522,,129.3193764,35.7358583,경상북도 경주시 외동읍 산업로 2522
스머프안마시술소,"충청남도 아산시 배방읍 희망로46번길 46-8, 4,5층",070-8892-0260,127.1077255,36.7882237,충청남도 아산시 배방읍 희망로46번길 46-8
금손지압안마원,"경기도 남양주시 별내2로 64, 쎈타프라자 901호 (별내동)",,127.1249130,37.6464376,경기도 남양주시 별내2로 64 쎈타프라자
홍안마시술소,"경기도 부천시 길주로 80, 로얄타워 402호 (상동)",032-321-5559,126.7511944,37.5052644,경기도 부천시 길주로 80 로얄타워
건강 이상운지압원,"부산광역시 북구 금곡대로 280-4, 4층 (화명동, 해동빌딩)",051-362-7588,129.0138378,35.2332116,부산광역시 북구 금곡대로 280-4 해동빌딩
비제이(BJ)안마시술소,"경기도 시흥시 서촌상가3길 15-6, 해남프라자 4~5층 (정왕동)",031-319-1070,126.7330039,37.3473288,경기도 시흥시 서촌상가3길 15-6 해남프라자
스타안마시술소,"서울특별시 양천구 신목로 96, 1,2,3,4층 (목동)",02-2643-4546,126.8752663,37.5230728,서울특별시 양천구 신목로 96
클래식안마원,"경기도 구리시 검배로 56-1, 한림빌딩 (수택동)",0315633002,127.1448766,37.5967039,경기도 구리시 검배로 56-1 한림빌딩
휴안마토피아,"인천광역시 미추홀구 경인로 391, 주안현대아파트 (주안동)",032-202-8575,126.6835638,37.4585713,인천광역시 미추홀구 경인로 391 주안현대아파트
스타안마시술소,"광주광역시 서구 상무중앙로78번길 5-2, 지상6,7층 (치평동)",062-383-7743,126.8493861,35.1541171,광주광역시 서구 상무중앙로78번길 5-2 다산회관
회복지압원,"광주광역시 북구 필문대로 95-1, 2층 (풍향동)",,126.9297773,35.1619111,광주광역시 북구 필문대로 95-1
바른체형수기센터안마원,"광주광역시 남구 봉선1로 48, 1층 (봉선동)",,126.9104650,35.1277730,광주광역시 남구 봉선1로 48 양영어린이집
려수참술안마원,광주광역시 남구 중앙로 94 (서동),,126.9081702,35.1441666,광주광역시 남구 중앙로 94 예인디자인
성심안마원,"광주광역시 남구 회재로 1270, 3층 301호 (백운동, 현대간호학원)",062-653-5674,126.8995794,35.1347583,광주광역시 남구 회재로 1270 현대간호학원
브이(V)안마시술소,"경기도 의정부시 청사로 37, 신세계프라자 9층 901호 (금오동)",031-853-6464,127.0698807,37.7515204,경기도 의정부시 청사로 37 신세계프라자
보건안마센터,"광주광역시 남구 효우로 87, 501호 (노대동)",062-682-5996,126.9045735,35.1054900,광주광역시 남구 효우로 87
가든안마원,"광주광역시 남구 대남대로 274-1, 2층 (백운동)",062-651-7474,126.8972304,35.1371958,광주광역시 남구 대남대로 274-1 가든안마지압원
서울건강안마원,"서울특별시 동작구 여의대방로 134-1, 3층 (대방동)",825-9988,126.9207254,37.4990402,서울특별시 동작구 여의대방로 134-1
로마안마시술소,"경기도 부천시 길주로 288, 901호,902호 (중동, 다운타운)",032-328-6755,126.7742422,37.5027295,경기도 부천시 길주로 288 다운타운
수동지압원,전라남도 나주시 문평면 수동길 84-9,,126.6241940,35.0397017,전라남도 나주시 문평면 수동길 84-9
논산보건안마원,충청남도 논산시 계백로1074번길 7-5 (취암동),041-736-0210,127.0953485,36.2070327,충청남도 논산시 계백로1074번길 7-5
태권V안마시술소,"경기도 성남시 분당구 서현로 204, 지층 102~104호 (서현동,  엘지분당에클라트 2차)",,127.1252050,37.3870906,경기도 성남시 분당구 서현로 204 엘지에클라트2
약손안마원,"경기도 하남시 신장로 156, 하남프라자 3층 306호 (덕풍동)",031-793-7708,127.2019465,37.5399292,경기도 하남시 신장로 156 하남프라자
호두안마시술소,"경기도 부천시 부흥로303번길 62, 8층 (중동)",032-321-5272,126.7759642,37.4973614,경기도 부천시 부흥로303번길 62 그린프라자
가인안마시술소,"서울특별시 강남구 테헤란로2길 34 (역삼동, 1~4층)",02-538-1491,127.0295053,37.4959441,서울특별시 강남구 테헤란로2길 34
은평건강안마원,서울특별시 은평구 은평로13길 3-1 (응암동),02-358-9675,126.9255891,37.6016169,서울특별시 은평구 은평로13길 3-1
한국정통안마원,"서울특별시 노원구 동일로 1368, 롯데프라자빌딩 5층 1호 (상계동)",02-932-7577,127.0619362,37.6507458,서울특별시 노원구 동일로 1368 롯데프라자빌딩
건강안마원,충청남도 서천군 서천읍 서천로 19-2,0419526636,126.6969362,36.0750675,충청남도 서천군 서천읍 서천로 19-2
로얄안마시술소,서울특별시 광진구 아차산로 388-1 (자양동),452-0111,127.0859100,37.5368334,서울특별시 광진구 아차산로 388-1
건강드림안마원,"경기도 고양시 일산동구 일산로 460, 석우빌딩 502호 (정발산동)",070-8955-2200,126.7762272,37.6743922,경기도 고양시 일산동구 일산로 460 석우빌딩
서궁안마시술소,"경상남도 진주시 순환로 528, 15층 (평거동, 원정스카이팰리스)",055-745-1274,128.0619713,35.1717131,경상남도 진주시 순환로 528 원정스카이팰리스
구미건강안마원,경상북도 구미시 원남로 130-1 (원평동),444-7588,128.3340519,36.1263160,경상북도 구미시 원남로 130-1
가좌보건안마원,"인천광역시 서구 건지로399번길 3, 301호 (가좌동)",032-710-7571,126.6858219,37.4960798,인천광역시 서구 건지로399번길 3
캔디,전라북도 전주시 완산구 홍산남로 59-5 (효자동3가),063-223-0875,127.1083599,35.8164194,전라북도 전주시 완산구 홍산남로 59-5
친사랑 안마지압원,충청남도 서천군 장항읍 장서로 48-5,,126.6989614,36.0122092,충청남도 서천군 장항읍 장서로 48-5
가온안마원,"인천광역시 미추홀구 인주대로 162, 삼성빌딩 (용현동)",032-888-3697,126.6548779,37.4559514,인천광역시 미추홀구 인주대로 162 삼성빌딩
킹안마시술소,"경기도 수원시 영통구 효원로 383 (매탄동,매탄프라자9층)",031-217-0787,127.0436222,37.2592717,경기도 수원시 영통구 효원로 383 매탄프라자
아산안마시술소,충청남도 아산시 충무로8번길 19 (온천동),545-6011,127.0064082,36.7817041,충청남도 아산시 충무로8번길 19 아산안마
명성안마원,"전라북도 전주시 완산구 평화18길 21-7, 1층 (평화동1가)",063-715-1106,127.1342753,35.7943528,전라북도 전주시 완산구 평화18길 21-7
고려건강안마원,전라남도 함평군 함평읍 내대화길 110,324-9675,126.5151204,35.0625965,전라남도 함평군 함평읍 내대화길 110
흥일안마시술소,"서울특별시 동대문구 난계로 244, 2층 (신설동)",2234-7194,127.0236386,37.5733534,서울특별시 동대문구 난계로 244
천사의 손,"울산광역시 중구 학성공원4길 2-1, 1층 (학성동)",052-904-2004,129.3403741,35.5527783,울산광역시 중구 학성공원4길 2-1
스타안마시술소,"서울특별시 강남구 테헤란로10길 7, 1~3층 (역삼동)",02-2052-1681,127.0326030,37.4986481,서울특별시 강남구 테헤란로10길 7
시원안마시술소,대구광역시 북구 동천로 128-8 (동천동),313-0216,128.5617071,35.9425585,대구광역시 북구 동천로 128-8
사쿠라지압원,"부산광역시 해운대구 좌동순환로8번길 54-11, 1층 (중동)",051-612-0002,129.1696934,35.1690263,부산광역시 해운대구 좌동순환로8번길 54-11
스타킹안마시술소,울산광역시 북구 동대16길 6 (호계동),052-285-0273,129.3517320,35.6286847,울산광역시 북구 동대16길 6
부산보건안마센터,"부산광역시 강서구 명지국제8로 229, 부산명지지구아이메디컬 201호 (명지동)",051-553-0754,128.9179950,35.0985822,부산광역시 강서구 명지국제8로 229 부산명지지구아이메디컬
바비안마시술소,"광주광역시 광산구 사암로 214, 3층 (우산동)",062-962-5883,126.8087695,35.1632971,광주광역시 광산구 사암로 214
야안마시술소,"부산광역시 북구 금곡대로285번길 22, 월드타워 7층 (화명동)",051-364-1114,129.0123227,35.2341842,부산광역시 북구 금곡대로285번길 22 월드타워
성보수기안마원,"경상남도 김해시 활천로16번길 9, 101(일부)호 (삼정동, 경남빌라)",,128.8948992,35.2292299,경상남도 김해시 활천로16번길 9 경남빌라
해피안마원,"경기도 부천시 경인로 316-1, 2층 (소사본동)",,126.7906525,37.4823053,경기도 부천시 경인로 316-1
경주지압안마원,"부산광역시 동래구 석사로34번길 22, 2층 (사직동)",051-502-3696,129.0637308,35.1988460,부산광역시 동래구 석사로34번길 22
검암지압안마원,"인천광역시 서구 검암로 27, 중앙프라자 201호 (검암동)",032-716-9166,126.6802642,37.5665808,인천광역시 서구 검암로 27 중앙프라자
금산보건지압안마원,"충청남도 금산군 금산읍 후곤천길 82, 홈마트",041-754-0770,127.4904734,36.1048797,충청남도 금산군 금산읍 후곤천길 82 홈마트
정읍시민안마원,"전라북도 정읍시 중앙로 49, 212호 (연지동, 정읍연지영무예다음주상복합)",063-536-4339,126.8472189,35.5722771,전라북도 정읍시 중앙로 49 정읍연지영무예다음주상복합
원더플안마시술소,"울산광역시 남구 번영로124번길 21-1, 3,4층 (달동)",224-8888,129.3310285,35.5371066,울산광역시 남구 번영로124번길 21-1
박덕화안마원,"서울특별시 강북구 도봉로 325, 수성타워 11층 (수유동)",,127.0243657,37.6373260,서울특별시 강북구 도봉로 325 수성타워
서울보건안마원,"서울특별시 양천구 목동로 177, 정동프라자 4층 (신정동)",0226941114,126.8645119,37.5243084,서울특별시 양천구 목동로 177 정동프라자
땡큐안마지압원,"광주광역시 서구 상무평화로 62, 라인동산아파트 상가1동 2층 208호 (치평동)",,126.8455414,35.1478148,광주광역시 서구 상무평화로 62 라인동산아파트
하늘안마원,"제주특별자치도 제주시 중앙로14길 6-1, 2층 (이도일동)",064-749-0888,126.5236985,33.5114410,제주특별자치도 제주시 중앙로14길 6-1
손길지압안마원,"경기도 포천시 소흘읍 송우로 53, 우덕프라자 3층",031-544-5654,127.1430703,37.8287100,경기도 포천시 소흘읍 송우로 53 우덕프라자
필안마시술소,"광주광역시 서구 상무연하로 29, 지상5층 (치평동)",,126.8499195,35.1508707,광주광역시 서구 상무연하로 29 보라미빌딩
건강안마센터 효자손,"광주광역시 서구 풍금로 171, 평화빌딩 5층 (금호동)",,126.8592439,35.1310475,광주광역시 서구 풍금로 171 평화빌딩
참손길힐링센터,"서울특별시 금천구 가산디지털1로 171, 가산 에스케이 브이원 센터 206호 (가산동)",0269563175,126.8806788,37.4807624,서울특별시 금천구 가산디지털1로 171 가산 에스케이 브이원 센터
티파니안마시술소,서울특별시 서초구 서초대로78길 46 (서초동),523-6357,127.0284851,37.4936106,서울특별시 서초구 서초대로78길 46 익산빌딩
리라안마시술소,서울특별시 강남구 테헤란로48길 6 (역삼동),539-7787,127.0457680,37.5028355,서울특별시 강남구 테헤란로48길 6
상한가안마시술소,"서울특별시 강남구 선릉로92길 43, 1~5층 (삼성동)",,127.0520940,37.5064438,서울특별시 강남구 선릉로92길 43 마야모텔
덕성안마시술소,"서울특별시 구로구 디지털로32길 97-22 (구로동, 지하1층)",,126.9013077,37.4837527,서울특별시 구로구 디지털로32길 97-22 덕성빌딩
오션안마시술소,"서울특별시 은평구 통일로 830, 지하1층 (불광동, 파레제페빌딩)",02-382-5111,126.9227506,37.6178285,서울특별시 은평구 통일로 830 파레제페빌딩
국가대표안마센터,"경기도 김포시 김포한강8로 382, 505호 (구래동)",031-997-8187,126.6266123,37.6435559,경기도 김포시 김포한강8로 382
나이스안마시술소,"경기도 여주시 여흥로 88, 3,4층 (창동)",0318853179,127.6330221,37.2956230,경기도 여주시 여흥로 88
복손안마원,경상북도 경산시 성암로5길 11 (옥산동),053-812-2988,128.7199686,35.8233095,경상북도 경산시 성암로5길 11
키프러스안마원,"서울특별시 마포구 삼개로5길 8, 2층 (도화동)",02-703-7959,126.9479472,37.5382129,서울특별시 마포구 삼개로5길 8
우거리물리안마원,서울특별시 노원구 상계로23길 7 (상계동),02-939-0507,127.0689957,37.6585184,서울특별시 노원구 상계로23길 7
김선배 안마원,"충청남도 청양군 청양읍 중앙로5길 31, 위너스빌 가동 101호",041-942-0591,126.7996112,36.4499508,충청남도 청양군 청양읍 중앙로5길 31
비전안마시술소,"경기도 평택시 비전5로 20-37, 파크애비뉴 4층 402,403,404호 (비전동)",657-1012,127.1150257,36.9996405,경기도 평택시 비전5로 20-37
케이에스약손명가안마원,"서울특별시 중랑구 면목로39길 8, 4층 (면목동)",02-438-3375,127.0871899,37.5797729,서울특별시 중랑구 면목로39길 8 한성빌딩
황제안마시술소,경기도 오산시 대호로 99 (궐동),031-372-0141,127.0539620,37.1592321,경기도 오산시 대호로 99 신도프라자
보건바우처안마원,충청북도 보은군 보은읍 삼산로3길 11-2,043-542-8236,127.7196095,36.4830644,충청북도 보은군 보은읍 삼산로3길 11-2 통일시장
드림안마원,"강원도 원주시 원일로 19, 1층 (원동)",033-765-6061,127.9536501,37.3451632,강원도 원주시 원일로 19
독립문약손지압안마원,"서울특별시 서대문구 통일로 201-1, 3층 (영천동)",02-445-6060,126.9609843,37.5711959,서울특별시 서대문구 통일로 201-1
석산안마시술소,"경기도 안양시 동안구 흥안대로 524 (관양동, 3층)",031-423-7744,126.9773438,37.4007442,경기도 안양시 동안구 흥안대로 524 삼우프라자
테티스안마시술소,"서울특별시 강남구 테헤란로77길 17, 지하1층 (삼성동, 승광빌딩)",,127.0541810,37.5074983,서울특별시 강남구 테헤란로77길 17 승광빌딩
체리안마시술소,"광주광역시 광산구 임방울대로 779 (쌍암동,지하1층)",062-972-3503,126.8436624,35.2182246,광주광역시 광산구 임방울대로 779
교하보건안마원,"경기도 파주시 청석로 272, 센타프라자1 405호 (동패동)",031-944-9967,126.7177020,37.7261179,경기도 파주시 청석로 272 센타프라자1
시티안마시술소,"서울특별시 강남구 테헤란로20길 11-2, 1~4층 (역삼동)",02-556-8577,127.0347974,37.4989344,서울특별시 강남구 테헤란로20길 11-2 재우빌딩
바디사이언스 늘푸른안마원,"경기도 수원시 영통구 봉영로 1612, 309호 (영통동)",031-204-6595,127.0750136,37.2544858,경기도 수원시 영통구 봉영로 1612 보보스프라자
씨티안마시술소,서울특별시 마포구 양화로 118 (서교동),02-322-2258,126.9202560,37.5538056,서울특별시 마포구 양화로 118
충북보건안마센타,"충청북도 청주시 청원구 상리로8번길 4, 청주아트홀 3층 (율량동)",043-236-5544,127.5117885,36.6633671,충청북도 청주시 청원구 상리로8번길 4 청주아트홀
콜라안마시술소,"충청남도 천안시 서북구 성정공원5로 63 (성정동, 리치프라자2)",902-9090,127.1445528,36.8278854,충청남도 천안시 서북구 성정공원5로 63 리치프라자2
가고픈약손안마원,"경상북도 경주시 금성로 280, 가동 2층층 (성건동)",054-776-9877,129.2072573,35.8426792,경상북도 경주시 금성로 280
알라딘안마시술소,"대구광역시 달서구 달서대로95길 14, 3층 (호산동)",568-8080,128.4901339,35.8422157,대구광역시 달서구 달서대로95길 14
키키안마시술소,"경기도 군포시 산본로323번길 10-26, 3층 (산본동, 다복상가)",399-6581,126.9320424,37.3602800,경기도 군포시 산본로323번길 10-26 다복빌딩
심성시술소,경기도 연천군 전곡읍 은전로 76-9,,127.0682373,38.0278883,경기도 연천군 전곡읍 은전로 76-9
나나안마시술소,"경기도 안산시 상록구 양지편로 32 (이동, 203,304호)",031-438-1680,126.8508163,37.3090145,경기도 안산시 상록구 양지편로 32 조강프라자
벤츠 안마시술소,경상북도 포항시 남구 중흥로61번길 14 (상도동),284-7774,129.3476160,36.0118842,경상북도 포항시 남구 중흥로61번길 14
수기근통안마원,"강원도 속초시 먹거리길 18, 2층 (교동)",,128.5747438,38.1962276,강원도 속초시 먹거리길 18
스타트안마시술소,서울특별시 서초구 반포대로12길 33 (서초동),523-1086,127.0131027,37.4853255,서울특별시 서초구 반포대로12길 33 현대오피스텔
이아소안마원,"서울특별시 금천구 금하로 734-1, 2층 (시흥동)",028967776,126.9113145,37.4502935,서울특별시 금천구 금하로 734-1
라파 안마원,"경상북도 영덕군 영덕읍 남석2길 5, 1층",054-732-9987,129.3672156,36.4104944,경상북도 영덕군 영덕읍 남석2길 5
용궁  안마시술소,"경상북도 포항시 남구 중앙로 11, 3층 (해도동)",054-251-5882,129.3705259,36.0143507,경상북도 포항시 남구 중앙로 11
참 시원 안마원,"광주광역시 광산구 하남대로 153, 2층 (흑석동)",062-372-5808,126.8104280,35.1802636,광주광역시 광산구 하남대로 153
이브안마시술소,"경기도 부천시 길주로 115, 시그마타워 403호 (상동)",070-7357-7910,126.7553565,37.5062751,경기도 부천시 길주로 115 시그마타워
실로암장애인근로사업장안마원,서울특별시 관악구 남부순환로 1717 (봉천동),888-0729,126.9410155,37.4829429,서울특별시 관악구 남부순환로 1717 실로암시각장애인복지관
도원안마원,서울특별시 관악구 남현3길 69 (남현동),586-3426,126.9802106,37.4754087,서울특별시 관악구 남현3길 69 파크빌오피스텔
보라매안마원,"서울특별시 관악구 봉천로 223-1 (봉천동,2층)",875-2789,126.9266734,37.4900101,서울특별시 관악구 봉천로 223-1
신의손길안마원,"인천광역시 부평구 세월천로 23, 2층 (청천동)",032-502-5302,126.7068335,37.5126510,인천광역시 부평구 세월천로 23
윤앤안마원,"서울특별시 관악구 신림로 318, 6층 (신림동)",,126.9302485,37.4825924,서울특별시 관악구 신림로 318 청암두산위브센티움
피쉬안마시술소,서울특별시 강남구 선릉로127길 8 (논현동),543-6601,127.0411092,37.5156821,서울특별시 강남구 선릉로127길 8
관악보건안마원,"서울특별시 관악구 남부순환로 1925, 호전크리닉스타워 301호 (봉천동)",02-6494-1119,126.9633039,37.4775333,서울특별시 관악구 남부순환로 1925 호전 크리닉스 타워
오 안마원,"서울특별시 관악구 신림로68길 29, 2층 (신림동)",02-889-7577,126.9309927,37.4868350,서울특별시 관악구 신림로68길 29
에스안마시술소,부산광역시 연제구 거제천로182번길 42-4 (연산동),051-865-6580,129.0793890,35.1874206,부산광역시 연제구 거제천로182번길 42-4
검단서재민안마원,"인천광역시 서구 완정로10번길 6-6, 두경프라자 302호 (마전동)",032-568-4880,126.6734315,37.5945410,인천광역시 서구 완정로10번길 6-6 두경프라자
에이플러스안마시술소,"경기도 화성시 효행로 1069, 8층 801~806호 (진안동, 우성메디피아)",031-225-6577,127.0436526,37.2152458,경기도 화성시 효행로 1069 메디피아
해동힐링안마원,"서울특별시 중랑구 봉화산로 40, 한훈빌딩 2층 (중화동)",02-433-6887,127.0786960,37.6014157,서울특별시 중랑구 봉화산로 40 한훈빌딩
더조은안마원,"경상남도 창원시 진해구 충장로657번길 28, EM시티빌딩 3층 (장천동)",055-547-4855,128.7065878,35.1305520,경상남도 창원시 진해구 충장로657번길 28
약손안마원,"울산광역시 중구 학성로 150, 5층 (학산동)",258-8236,129.3273721,35.5561735,울산광역시 중구 학성로 150 대신증권
제일안마센터,"경상남도 창원시 마산회원구 양덕로 193, 제일빌딩 (석전동)",,128.5797945,35.2339728,경상남도 창원시 마산회원구 양덕로 193 제일빌딩
마산물리지압시술원,"경상남도 창원시 마산합포구 신마산시장길 14, 번개떡집위쪽동 2층 (월남동5가)",055-244-2028,128.5594262,35.1811141,경상남도 창원시 마산합포구 신마산시장길 14 평강빌딩
두드림안마원,"경상남도 창원시 성산구 용지로 74, 전원상가 2층 3호 (중앙동)",055-267-7555,128.6766370,35.2224402,경상남도 창원시 성산구 용지로 74 전원상가
동양지압시술원,"경상남도 창원시 마산회원구 팔용로 3, 양덕사거리동 2층 (양덕동)",055-297-8917,128.5849254,35.2304388,경상남도 창원시 마산회원구 팔용로 3
정일품안마원,"경상남도 창원시 마산합포구 오동서17길 10-16, 1층 (중성동)",055-221-7577,128.5738044,35.2101447,경상남도 창원시 마산합포구 오동서17길 10-16
팔팔안마원,"경상남도 창원시 의창구 팔용로 420, 유토피아상가 3층 301호 (팔용동)",055-298-5882,128.6124423,35.2542048,경상남도 창원시 의창구 팔용로 420 유토피아상가
건강찾기안마원,"경상남도 창원시 마산합포구 반월동1길 18, 우체국 골목 골프연습장앞동 (월포동)",055-247-5575,128.5647057,35.1909566,경상남도 창원시 마산합포구 반월동1길 18
명인안마원,"경상남도 창원시 성산구 원이대로393번길 25, 케이프타운 4층 4037, 4038호 (반지동)",,128.6625597,35.2399604,경상남도 창원시 성산구 원이대로393번길 25 케이프타운
한효안마센타,경상남도 창원시 마산회원구 북성로 118 (회원동),055-222-0179,128.5708996,35.2175499,경상남도 창원시 마산회원구 북성로 118 한효프라자 빌딩
편강안마원,"경상남도 창원시 성산구 상남로 246, 2층 (신월동)",055-266-2577,128.6911841,35.2329951,경상남도 창원시 성산구 상남로 246
현안마원,"경상남도 창원시 의창구 평산로159번길 9, 2층 (서상동)",055-251-2398,128.6223497,35.2566523,경상남도 창원시 의창구 평산로159번길 9
행복한지압원,"경상남도 창원시 마산회원구 용마로 126, 3층 303호호 (양덕동)",,128.5857644,35.2232596,경상남도 창원시 마산회원구 용마로 126
약손안마원,"경상남도 창원시 의창구 북면 감계로 304, 재성빌딩 2층 202호",,128.5940069,35.3019815,경상남도 창원시 의창구 북면 감계로 304
핸드테크지압원,"경상남도 창원시 마산합포구 성호남1길 21, 1층 (추산동)",,128.5702792,35.2053042,경상남도 창원시 마산합포구 성호남1길 21
화타의손,경상남도 창원시 마산회원구 합성옛길 271 (합성동),055-255-3525,128.5874534,35.2428688,경상남도 창원시 마산회원구 합성옛길 271
마이더스안마원,경상남도 창원시 의창구 반계로 103 (팔용동),294-2080,128.6163050,35.2547833,경상남도 창원시 의창구 반계로 103 대동중앙아파트
창원안마원,"경상남도 창원시 의창구 도계로 102 (도계동, 대남상가208-2호)",277-2281-2,128.6403112,35.2559253,경상남도 창원시 의창구 도계로 102 대남상가아파트
윤안마원,경상남도 창원시 성산구 마디미로31번길 10 (상남동),286-6734,128.6846677,35.2210273,경상남도 창원시 성산구 마디미로31번길 10 새미래빌딩
바른안마원,"경상남도 창원시 성산구 상남로 71, 창원코아상가 4층 404호 (상남동)",,128.6795415,35.2204425,경상남도 창원시 성산구 상남로 71 창원코아상가
기룡안마센타,경상남도 창원시 마산합포구 진동면 서촌숲끝길 16,,128.4875585,35.1163605,경상남도 창원시 마산합포구 진동면 서촌숲끝길 16
편한몸안마원,"경상남도 창원시 의창구 원이대로 283, 4층 403, 404호 (봉곡동, 청마상가)",055-277-7580,128.6509948,35.2427123,경상남도 창원시 의창구 원이대로 283 청마상가
샴푸안마시술소,경기도 수원시 권선구 수인로 275 (구운동),031-298-7720,126.9723401,37.2819231,경기도 수원시 권선구 수인로 275
동명침안마원,강원도 인제군 서화면 천도로 110,461-2356,128.2087790,38.2219940,강원도 인제군 서화면 천도로 110
참좋은손안마원,"경기도 안산시 단원구 광덕동로 61, 중앙프라자 509 호 (고잔동)",031-487-8978,126.8323425,37.3099357,경기도 안산시 단원구 광덕동로 61 중앙프라자
홍선생안마원,"경상남도 창녕군 남지읍 동포7길 9, 2층",055-521-7585,128.4773110,35.3896661,경상남도 창녕군 남지읍 동포7길 9
오손도손건강안마원,경기도 가평군 가평읍 옥골길 3,,127.5115897,37.8322106,경기도 가평군 가평읍 옥골길 3
에덴 건강안마원,세종특별자치시 조치원읍 새내10길 59,,127.3015331,36.6007888,세종특별자치시 조치원읍 새내10길 59
대성안마원,"서울특별시 강북구 인수봉로56길 9-2, 1층 (수유동)",02-902-7610,127.0136449,37.6367278,서울특별시 강북구 인수봉로56길 9-2
백지압안마원,"서울특별시 노원구 동일로 1343, 동일프라자빌딩 304호 (상계동)",02-932-6700,127.0620148,37.6484977,서울특별시 노원구 동일로 1343 동일프라자빌딩
제이안마시술소,"경기도 구리시 체육관로 140, 일군타워 3층 (교문동)",,127.1371075,37.5971254,경기도 구리시 체육관로 140
스타안마시술소,"경기도 성남시 중원구 성남대로 1137, 6층 (성남동)",031-751-2663,127.1287536,37.4312874,경기도 성남시 중원구 성남대로 1137
블루안마시술소,경기도 평택시 포승읍 여술1길 9,031-681-2350,126.8441440,36.9867089,경기도 평택시 포승읍 여술1길 9
가야안마지압원,부산광역시 부산진구 가야대로510번길 84 (가야동),,129.0283136,35.1492892,부산광역시 부산진구 가야대로510번길 84
기찬안마원,"강원도 강릉시 옥가로 61, 1층 (교동)",033-645-4787,128.9001513,37.7618365,강원도 강릉시 옥가로 61
송창운안마원,"경기도 안산시 단원구 광덕동로 99, 현대타운 107호 (고잔동)",031-411-1413,126.8326186,37.3133161,경기도 안산시 단원구 광덕동로 99 현대타운
기적의손힐링안마원,"서울특별시 금천구 시흥대로41길 91, 2층 (시흥동)",02-873-9633,126.9003482,37.4505373,서울특별시 금천구 시흥대로41길 91
우사우사안마원,"전라남도 신안군 압해읍 압해로 860-1, 202호",,126.3149956,34.8647316,전라남도 신안군 압해읍 압해로 860-1
강남안마원,"경기도 부천시 옥산로 142, 3층 1호 (도당동)",032-665-2254,126.7805356,37.5061527,경기도 부천시 옥산로 142
건강지압안마원,"경기도 안산시 상록구 본삼로 45, 202,203호 (본오동)",031-407-8575,126.8650766,37.3011115,경기도 안산시 상록구 본삼로 45 덕암빌딩
제이안마시술소,경기도 수원시 팔달구 장다리로 331 (인계동),,127.0315976,37.2776297,경기도 수원시 팔달구 장다리로 331
일산보건안마원,"경기도 고양시 일산동구 장백로 184, 우신프라자 306호 (장항동)",031-901-5890,126.7771847,37.6512836,경기도 고양시 일산동구 장백로 184 우신프라자
친구안마시술소,서울특별시 강북구 도봉로89길 5-11 (수유동),02-900-6273,127.0257032,37.6386137,서울특별시 강북구 도봉로89길 5-11
라파의집지압안마원,"경기도 안산시 단원구 선부광장1로 14, 광원빌딩 305호 (선부동)",031-410-4475,126.8072904,37.3358690,경기도 안산시 단원구 선부광장1로 14 광원빌딩
낙원지압원,"서울특별시 중구 퇴계로16길 35-21, 1층 (남산동1가)",753-3412,126.9841376,37.5589021,서울특별시 중구 퇴계로16길 35-21
부천지압안마원,"경기도 부천시 중동로254번길 78, 필타운 3층 303호 (중동)",032-675-9374,126.7731153,37.5015966,경기도 부천시 중동로254번길 78 필타운
최은영힐링지압안마원,"경기도 화성시 메타폴리스로 47-7, 201호 (반송동, 서해더블루)",031-8003-0904,127.0723224,37.2022262,경기도 화성시 메타폴리스로 47-7 서해더블루
스토리안마시술소,"경기도 부천시 상동로 105, 901호 (상동)",032-241-0101,126.7527977,37.5066959,경기도 부천시 상동로 105 현해프라자
쉼터안마원,"인천광역시 미추홀구 경인남길102번길 107, 2층 (용현동)",032-442-6636,126.6636178,37.4510859,인천광역시 미추홀구 경인남길102번길 107
달인안마원,제주특별자치도 제주시 오복1길 24-7 (이도이동),064-900-5578,126.5336575,33.4975918,제주특별자치도 제주시 오복1길 24-7
한국보건안마센터,"광주광역시 동구 의재로 13-5, 1층 (학동)",,126.9290904,35.1333621,광주광역시 동구 의재로 13-5
텐안마시술소,서울특별시 송파구 석촌호수로 220 (석촌동),02-412-9945,127.1013712,37.5069903,서울특별시 송파구 석촌호수로 220
논산썬안마시술소,충청남도 논산시 중앙로410번길 7-9 (취암동),041-735-8573,127.0882554,36.2015654,충청남도 논산시 중앙로410번길 7-9
구암보건안마센터,"광주광역시 동구 의재로96번길 26-1, 1층 (소태동)",,126.9391576,35.1303694,광주광역시 동구 의재로96번길 26-1
캔디안마시술소,"경기도 성남시 분당구 성남대로 345, 지1층 (정자동, 정자역프라자 )",713-0217,127.1077021,37.3669303,경기도 성남시 분당구 성남대로 345 정자역프라자
미안마시술소,"경기도 남양주시 경춘로 1260, 하나프라자 209~211호 (평내동)",031-511-6969,127.2348242,37.6466749,경기도 남양주시 경춘로 1260 하나프라자
유니안마시술소,"경기도 수원시 팔달구 효원로219번길 48 (인계동,영지빌딩4층)",031-223-6545,127.0269826,37.2654381,경기도 수원시 팔달구 효원로219번길 48
뉴 플러스안마시술소,울산광역시 동구 방어진순환도로 594 (화정동),052-251-3354,129.4274467,35.4946772,울산광역시 동구 방어진순환도로 594 현대빌딩
최재춘엄지로지압안마원,"경기도 화성시 병점중앙로 87, 태안병점 브이타운 1층 (병점동)",031-232-9924,127.0418913,37.2063024,경기도 화성시 병점중앙로 87 태안병점 브이타운
오뚜기안마시술소,"대전광역시 유성구 계룡로141번길 29-5, 2층 (봉명동)",864-5454,127.3459201,36.3538275,대전광역시 유성구 계룡로141번길 29-5
안마코리아,강원도 강릉시 옥천로62번길 24 (교동),0336445511,128.8998855,37.7616477,강원도 강릉시 옥천로62번길 24
탑지압테라피안마원,"부산광역시 수영구 남천서로 4, 3층 (남천동)",051-623-1120,129.1080316,35.1425922,부산광역시 수영구 남천서로 4
강화안마원,"인천광역시 강화군 강화읍 중앙로 43, 202호",,126.4904043,37.7397958,인천광역시 강화군 강화읍 중앙로 43 강화여객자동차터미널
스타안마시술소,경기도 동두천시 큰시장로 37 (생연동),031-866-9594,127.0535155,37.9002867,경기도 동두천시 큰시장로 37 평화상가
송건강안마원,"충청남도 계룡시 금암로 139, 201호 (금암동)",,127.2566903,36.2751914,충청남도 계룡시 금암로 139
피로타파 안마원,"경기도 수원시 팔달구 인계로124번길 27, 4층 (인계동, 동림빌딩)",031-236-0022,127.0310128,37.2662490,경기도 수원시 팔달구 인계로124번길 27-7
약손보건안마원,전라북도 남원시 금동로 15-6 (금동),,127.3725762,35.4001123,전라북도 남원시 금동로 15-6
명성지압안마원,"경기도 수원시 팔달구 화양로5번길 1, 401호 (화서동)",031-241-7482,126.9988752,37.2790608,경기도 수원시 팔달구 화양로5번길 1 정재빌딩
아중,전라북도 전주시 덕진구 아중4길 10-8 (우아동2가),063-245-2267,127.1739340,35.8312278,전라북도 전주시 덕진구 아중4길 10-8
이조은안마원,"서울특별시 은평구 통일로67길 11, 201호 (대조동, 해오름시티)",02-354-8575,126.9281646,37.6106276,서울특별시 은평구 통일로67길 11 해오름시티
골드안마시술소,"서울특별시 강남구 강남대로62길 16 (역삼동, 1층~4층)",553-5333,127.0328806,37.4903755,서울특별시 강남구 강남대로62길 16
국가대표안마원,"인천광역시 동구 솔빛로91번길 2-1, 4층 (송림동)",032-772-8575,126.6437762,37.4761788,인천광역시 동구 솔빛로91번길 2-1
광명시술원,"강원도 춘천시 약사고개길 13, 제일백화점 1층 8,9호 (죽림동)",,127.7260501,37.8774969,강원도 춘천시 약사고개길 13 제일백화점
금호지압안마원,"서울특별시 성동구 장터길 27, 2층 (금호동3가)",02-2272-8770,127.0188994,37.5484295,서울특별시 성동구 장터길 27
우리케어 안마원,경기도 동두천시 동두천로 340-17 (생연동),,127.0568873,37.9125674,경기도 동두천시 동두천로 340-17 우리케어안마원
명덕건강안마원,"대구광역시 중구 명덕로 179, 2층 (남산동)",053-212-9933,128.5897681,35.8571605,대구광역시 중구 명덕로 179
척추바른안마원,"충청남도 천안시 서북구 불당22대로 86, 마블러스에스타워 3층 309호 (불당동)",041-523-1275,127.1081509,36.8154373,충청남도 천안시 서북구 불당22대로 86 마블러스에스타워
가자안마원,"경상북도 경주시 북정로 61, 1층 (성동동)",054-776-7975,129.2153080,35.8463733,경상북도 경주시 북정로 61
홀릭안마시술소,경기도 수원시 영통구 덕영대로 1535 (영통동),031-202-4547,127.0588395,37.2462898,경기도 수원시 영통구 덕영대로 1535 현대프라자
약손안마지압원,경상북도 울진군 울진읍 울진중앙로 208,,129.4011756,37.0000927,경상북도 울진군 울진읍 울진중앙로 208
진실안마원,"경기도 안산시 상록구 본삼로 17, 202호 (본오동)",,126.8619140,37.3012194,경기도 안산시 상록구 본삼로 17
텐프로안마시술소,"경기도 하남시 하남대로 767, 지송빌딩 4,5층 (신장동)",031-791-1679,127.2116482,37.5391215,경기도 하남시 하남대로 767 지송빌딩
센트럴안마시술소,"경기도 안양시 동안구 인덕원로30번길 69 (관양동, 1,2,3층)",031-424-8808,126.9761275,37.3997197,경기도 안양시 동안구 인덕원로30번길 69
렉시안마시술소,"경기도 군포시 산본로323번길 16-6, 6층 6001,6003호 (산본동)",031-391-7022,126.9323776,37.3592532,경기도 군포시 산본로323번길 16-6 신명타워
슈퍼맨안마시술소,"경기도 안양시 만안구 만안로 210, 6,7층 (안양동)",464-6325,126.9240571,37.3996444,경기도 안양시 만안구 만안로 210
다산지압안마원,"경기도 남양주시 경춘로 380, 대진빌딩 2층 (다산동)",031-555-0875,127.1566261,37.6052533,경기도 남양주시 경춘로 380 대진빌딩
명지압안마원,"서울특별시 광진구 자양로5길 8, 1동 201호 (자양동, 태솔타운)",453-7418,127.0849065,37.5320841,서울특별시 광진구 자양로5길 8 태솔타운
케이지압센터,"서울특별시 강남구 학동로42길 73, 2층 (논현동)",549-1478,127.0377899,37.5109809,서울특별시 강남구 학동로42길 73
신안마원,"대전광역시 중구 동서대로 1326, 2층 (용두동)",042-719-7576,127.4066102,36.3288269,대전광역시 중구 동서대로 1326
신데렐라안마시술소,"경기도 의정부시 둔야로17번길 32, 5,6층 (의정부동, 삼승빌딩)",877-1960,127.0380722,37.7376280,경기도 의정부시 둔야로17번길 32 삼승빌
플러스 안마시술소,서울특별시 강남구 논현로 560 (역삼동),3448-0522,127.0348725,37.5059693,서울특별시 강남구 논현로 560
조은지압안마원,"서울특별시 노원구 동일로180길 37, 공릉상가 2층 201호 (공릉동)",070-7717-7575,127.0762635,37.6226954,서울특별시 노원구 동일로180길 37 공릉상가
모란약손안마원,"경기도 성남시 중원구 광명로 20-1, 3층 (성남동)",031-753-1116,127.1314766,37.4331055,경기도 성남시 중원구 광명로 20-1
어머니약손안마원,"서울특별시 강남구 삼성로 212, 202호 (대치동, 은마아파트상가)",568-7582,127.0650701,37.4977415,서울특별시 강남구 삼성로 212 은마아파트
느낌안마시술소,경기도 수원시 영통구 청명남로34번길 3 (영통동),031-205-8597,127.0759591,37.2527726,경기도 수원시 영통구 청명남로34번길 3 플래티넘빌딩
다온안마원,"경기도 안산시 상록구 중보로 55, 삼성프라자 109호 (이동)",031-439-1913,126.8526312,37.3079672,경기도 안산시 상록구 중보로 55 삼성프라자
동인안마원,"경기도 광주시 목동길46번길 28, 동인요양원 지1층 (목동)",031-797-5501,127.1949129,37.3825389,경기도 광주시 목동길46번길 28 동인요양원
건강회생안마원,"전라북도 군산시 나운로 4, 군산현대코아백화점 213,214호 (문화동)",063-443-1331,126.7053828,35.9701423,전라북도 군산시 나운로 4 군산현대코아백화점
맥안마원,"경기도 부천시 상동로 90, 메가플러스 2층 214호 (상동)",032-511-7548,126.7537185,37.5051724,경기도 부천시 상동로 90 메가플러스
포도나무안마원,"전라북도 전주시 완산구 장승배기로 145, 상가동 1층 15호 (삼천동1가, 광진궁전아파트)",063-237-3855,127.1287541,35.7954663,전라북도 전주시 완산구 장승배기로 145 광진궁전아파트
젤리안마시술소,"충청북도 청주시 흥덕구 풍년로 185, 3층 (가경동, 파라지오)",043-234-9292,127.4310235,36.6285585,충청북도 청주시 흥덕구 풍년로 185 파라지오
샴페인안마시술소,대전광역시 유성구 계룡로141번길 13-9 (봉명동),042-825-6003,127.3456611,36.3531888,대전광역시 유성구 계룡로141번길 13-9 센스안마
몽 안마시술소,"인천광역시 계양구 도두리로 21 (계산동,(8층))",032-545-8577,126.7367246,37.5341884,인천광역시 계양구 도두리로 21 이-프라자
석남약손안마원,"인천광역시 서구 가정로 301, 2층 (석남동)",032-577-7582,126.6723681,37.5117140,인천광역시 서구 가정로 301
국가대표안마지압원,"광주광역시 동구 필문대로 212, 1층 (지산동)",062-522-8575,126.9305327,35.1520664,광주광역시 동구 필문대로 212
참사랑마사지안마원,"대전광역시 중구 유천로102번길 10, 1층 (유천동)",,127.3969817,36.3216671,대전광역시 중구 유천로102번길 10
따뜻한 손 안마원,경기도 양평군 양평읍 남북로 9,,127.5003699,37.4837392,경기도 양평군 양평읍 남북로 9
궁안마시술소,인천광역시 서구 탁옥로 31 (심곡동),032-568-8575,126.6731419,37.5442042,인천광역시 서구 탁옥로 31 태영프라자
가나약손119안마원,"부산광역시 해운대구 중동1로 38, 3층 (중동)",731-7578,129.1631548,35.1621831,부산광역시 해운대구 중동1로 38
활력안마원,"강원도 춘천시 공지로 226, 3층 (효자동)",033-261-9675,127.7387443,37.8633265,강원도 춘천시 공지로 226
가자힐링안마원,"전라남도 순천시 해룡면 기적의도서관길 90, 상가동 1층 34호 (부영3차아파트)",061-906-3896,127.5318808,34.9469756,전라남도 순천시 해룡면 기적의도서관길 90 부영3차아파트
양평헬스케어안마원,경기도 양평군 지평면 지평로 398,773-7687,127.6369162,37.4753616,경기도 양평군 지평면 지평로 398
무병장수안마원,"경상남도 함안군 가야읍 가야10길 13, 7호 (전원아파트)",055-582-7006,128.4093731,35.2773623,경상남도 함안군 가야읍 가야10길 13 전원아파트
이준지압원,전라남도 진도군 임회면 광전길 115,061-543-5486,126.2290778,34.4318935,전라남도 진도군 임회면 광전길 115
드림안마시술소,"서울특별시 강남구 역삼로1길 8, 4층,5층 (역삼동, 평익빌딩)",02-501-1194,127.0309535,37.4939538,서울특별시 강남구 역삼로1길 8 평익빌딩
푸른안마치유센타,전라남도 영암군 영암읍 천황사로 53,471-0770,126.7066880,34.7924042,전라남도 영암군 영암읍 천황사로 53
시흥효자약손안마원,"경기도 시흥시 도일로 110-2, 503호 (거모동, 시흥빌딩)",031-494-4475,126.7840661,37.3403439,경기도 시흥시 도일로 110-2
참편안안마원,경상남도 진주시 의곡길 3 (평안동),,128.0824610,35.1976719,경상남도 진주시 의곡길 3
에이스안마시술소,서울특별시 중랑구 봉우재로33길 94 (상봉동),02-2209-6345,127.0903101,37.5957982,서울특별시 중랑구 봉우재로33길 94
써니안마시술소,"경기도 성남시 수정구 산성대로 237, 6,7층 (신흥동)",031-756-2543,127.1436059,37.4395964,경기도 성남시 수정구 산성대로 237
이레안마원,"전라남도 순천시 조례못등길 37, 2층 (조례동)",061-721-5858,127.5274752,34.9528371,전라남도 순천시 조례못등길 37 조은디지털포토
바른손안마원,"전라남도 순천시 중앙로 42 (장천동, 모닝글로리)",061-743-6709,127.4853723,34.9497599,전라남도 순천시 중앙로 42 모닝글로리
약손안마원,전라남도 순천시 이수로 280 (조례동),061-724-2272,127.5151629,34.9517835,전라남도 순천시 이수로 280 동양빌딩
클린안마원,"전라남도 무안군 무안읍 무안중앙로 13, 현대사진관 2층",,126.4774677,34.9886166,전라남도 무안군 무안읍 무안중앙로 13 현대사진관
신데렐라안마시술소,경상북도 구미시 산업로 324 (원평동),,128.3548031,36.1217730,경상북도 구미시 산업로 324
강남안마나라,"서울특별시 서초구 서초대로78길 44, 2층 (서초동, 나산스위트)",02-3473-8787,127.0284742,37.4938139,서울특별시 서초구 서초대로78길 44 서초나산스위트
남동구100세안마원,"인천광역시 남동구 호구포로810번길 44, 2층 202호 (구월동)",032-462-2669,126.7218527,37.4544278,인천광역시 남동구 호구포로810번길 44
펄안마시술소,전라북도 군산시 부곡3길 22 (나운동),461-1444,126.6905789,35.9608564,전라북도 군산시 부곡3길 22 파킹안마
부천약손지압안마원,"경기도 부천시 송내대로42번길 65 (송내동, , 지상1층)",032-654-8575,126.7569856,37.4871848,경기도 부천시 송내대로42번길 65
코리아보건안마원,"서울특별시 강서구 공항대로 186, 로뎀타워 208호 (마곡동)",02-2690-3382,126.8279956,37.5590997,서울특별시 강서구 공항대로 186 로뎀타워
에스안마시술소,전라북도 전주시 덕진구 아중2길 18-5 (우아동2가),246-6257,127.1733724,35.8296884,전라북도 전주시 덕진구 아중2길 18-5
조만호안마원,부산광역시 부산진구 동성로 134 (전포동),805-1237,129.0645354,35.1609657,부산광역시 부산진구 동성로 134
삼보안마원,부산광역시 부산진구 서전로68번길 8 (전포동),802-3550,129.0670876,35.1574773,부산광역시 부산진구 서전로68번길 8
승록안마원,부산광역시 부산진구 진연로 9 (양정동),868-8955,129.0740669,35.1785357,부산광역시 부산진구 진연로 9 제나두
건강지압안마원,"부산광역시 부산진구 가야대로 761, 3층 (부전동)",051-711-6722,129.0548714,35.1578968,부산광역시 부산진구 가야대로 761
더테라피전통안마지압원,"부산광역시 부산진구 중앙대로969번길 11, 1층 103호 (양정동, 양정롯데갤러리움아파트상가)",051-852-7845,129.0723655,35.1759123,부산광역시 부산진구 중앙대로969번길 11 양정롯데갤러리움아파트
늘푸른세상안마원,부산광역시 부산진구 서전로58번길 80 (전포동),051-816-9766,129.0660068,35.1541984,부산광역시 부산진구 서전로58번길 80
동의안마원,부산광역시 부산진구 가야공원로14번길 82 (개금동),894-8103,129.0253091,35.1521527,부산광역시 부산진구 가야공원로14번길 82
신만수안마원,"부산광역시 부산진구 가야대로 718 (범천동,14.15)",817-3335,129.0500612,35.1570543,부산광역시 부산진구 가야대로 718
약손안마원,"충청북도 충주시 충인8길 30-1, 1층 (충인동)",043-844-7495,127.9315604,36.9746835,충청북도 충주시 충인8길 30-1
찐지압안마원,"서울특별시 관악구 관악로 234, 2층 (봉천동)",,126.9563113,37.4849768,서울특별시 관악구 관악로 234
평양안마시술소,"경기도 안산시 단원구 광덕2로 186-3, 401호 (고잔동, 장은프라자)",031-487-7765,126.8313252,37.3093080,경기도 안산시 단원구 광덕2로 186-3 장은프라자
상무안마시술소,"광주광역시 서구 상무중앙로38번길 11 (치평동, 충광빌딩)",,126.8499179,35.1504905,광주광역시 서구 상무중앙로38번길 11 충광빌딩
삐에로안마시술소,충청남도 천안시 서북구 차돌들길 8 (쌍용동),041-592-2111,127.1294680,36.7978555,충청남도 천안시 서북구 차돌들길 8 삐에로안마
평강안마지압원,광주광역시 북구 자동차로47번길 36 (임동),062-527-6664,126.8993986,35.1637808,광주광역시 북구 자동차로47번길 36
좋은손길안마원,"경기도 안산시 단원구 광덕서로 86, 302호 (고잔동, 법조타운)",031-483-7565,126.8277315,37.3123063,경기도 안산시 단원구 광덕서로 86 안산법조타운
시원 안마원,인천광역시 강화군 강화읍 송악길6번길 20 (고려팰리스),933-7535,126.4824612,37.7484966,인천광역시 강화군 강화읍 송악길6번길 20 고려팰리스
강동근안마지압원,부산광역시 사하구 낙동대로 352 (당리동),051-529-7070,128.9790964,35.1013522,부산광역시 사하구 낙동대로 352
효자약손,전라북도 전주시 완산구 서원로 228 (효자동1가),063-223-2662,127.1193126,35.8123185,전라북도 전주시 완산구 서원로 228
신.약손안마원,"경기도 안양시 동안구 관평로69번길 7-13, 1층 (평촌동)",031-386-1348,126.9651618,37.3831004,경기도 안양시 동안구 관평로69번길 7-13
약손안마원,"경기도 안양시 동안구 흥안대로 524 (관양동, 삼우프라자 502호)",031-424-2343,126.9773438,37.4007442,경기도 안양시 동안구 흥안대로 524 삼우프라자
풀림과편안안마원,"경기도 안양시 동안구 엘에스로 45, 3층 306호 (호계동, 대영골든타워)",031-456-7566,126.9547970,37.3674435,경기도 안양시 동안구 엘에스로 45 대영골든타워
경안참지압안마원,"경기도 안양시 동안구 관악대로 442, 2층 (관양동)",031-423-3171,126.9718687,37.4045120,경기도 안양시 동안구 관악대로 442
대연명인지압원,"부산광역시 남구 수영로196번길 9, 동키치킨 (대연동)",620-0045,129.0881501,35.1344572,부산광역시 남구 수영로196번길 9 동키치킨
가온안마지압원,"부산광역시 수영구 수영로 691-10, 2층 (수영동)",051-759-7577,129.1154415,35.1682284,부산광역시 수영구 수영로 691-10
건강지압센타참손,"광주광역시 광산구 첨단중앙로68번길 99, 상가동 2층 213-3호 (산월동, 호반리젠시빌)",0629727579,126.8485211,35.2123767,광주광역시 광산구 첨단중앙로68번길 99 호반리젠시빌
오렌지안마시술소,"경기도 안양시 동안구 평촌대로223번길 16 (호계동,5층)",031-382-1141,126.9546436,37.3913563,경기도 안양시 동안구 평촌대로223번길 16 현대프라자
엔자임힐링마사지전통경락안마원,"서울특별시 마포구 만리재옛길 8, 2층 (신공덕동)",719-2234,126.9545537,37.5449628,서울특별시 마포구 만리재옛길 8
청주지압교정안마원,충청북도 청주시 상당구 산성로11번길 16 (탑동),,127.4977001,36.6254718,충청북도 청주시 상당구 산성로11번길 16
반재도지압안마원,"충청북도 청주시 상당구 월평로 161, 112호 (용암동, 용암건영아파트상가동)",043-283-7975,127.5029298,36.6115184,충청북도 청주시 상당구 월평로 161 건영아파트
참손길안마원,"충청북도 청주시 상당구 산성로112번길 24, 3층 (용담동)",,127.5060862,36.6318607,충청북도 청주시 상당구 산성로112번길 24
천마힐링안마원,"경기도 남양주시 화도읍 먹갓로 64, 104호",031-559-7001,127.2740725,37.6596900,경기도 남양주시 화도읍 먹갓로 64
건강100세안마원,"경기도 남양주시 화도읍 마석중앙로 91, 202호",031-559-0119,127.3098001,37.6521054,경기도 남양주시 화도읍 마석중앙로 91
본안마시술소,"경기도 용인시 기흥구 구갈로60번길 19, 금강프라자 7층 (구갈동)",,127.1135174,37.2799341,경기도 용인시 기흥구 구갈로60번길 19 금강프라자
논산건강안마원,충청남도 논산시 해월로 190-1 (반월동),041-733-7003,127.0878089,36.2057527,충청남도 논산시 해월로 190-1
제일안마원,충청남도 논산시 시민로 415 (취암동),,127.0864497,36.2014436,충청남도 논산시 시민로 415
선한손지압안마원,"경기도 안양시 동안구 관악대로 349, 4층 (관양동)",031-426-9475,126.9616112,37.4042397,경기도 안양시 동안구 관악대로 349
정다운안마원,"부산광역시 사하구 다대로 704, 몰운대종합시장상가 4층 401호 (다대동)",051-262-3089,128.9646215,35.0487720,부산광역시 사하구 다대로 704 몰운대종합시장상가
대명안마시술소,충청북도 청주시 흥덕구 1순환로 550 (봉명동),266-1178,127.4627629,36.6439934,충청북도 청주시 흥덕구 1순환로 550
승록안마원,"서울특별시 광진구 능동로 436, 2층 (중곡동)",461-7078,127.0854616,37.5676104,서울특별시 광진구 능동로 436
이성호안마원,"서울특별시 광진구 아차산로49길 34-4, 2층 (구의동)",446-2895,127.0845886,37.5383364,서울특별시 광진구 아차산로49길 34-4
라파안마원,"경기도 과천시 별양상가로 7, 4층 408호 (별양동, 벽산상가)",02-507-8575,126.9929622,37.4280075,경기도 과천시 별양상가로 7 벽산상가
찐안마원,"부산광역시 동래구 명장로 56-1, 2층 (명장동)",051-532-8585,129.1070912,35.2045593,부산광역시 동래구 명장로 56-1
테라피지압안마원,"경상북도 봉화군 봉화읍 내성로 94, 2층",,128.7406245,36.8907516,경상북도 봉화군 봉화읍 내성로 94 커피비
토닥토닥안마원,"부산광역시 동래구 충렬사로 38, 2층 (안락동)",,129.0979483,35.2024199,부산광역시 동래구 충렬사로 38
효자손안마원,"대구광역시 북구 팔달로33길 16-18, 4층 (노원동3가)",0533517780,128.5688496,35.8892237,대구광역시 북구 팔달로33길 16-18
가람안마센터,"인천광역시 중구 하늘별빛로65번길 7-9, 스카이타워 502호 (중산동)",032-751-3746,126.5646474,37.4884979,인천광역시 중구 하늘별빛로65번길 7-9
금파지압안마원,"경기도 김포시 김포한강7로22번길 174-106, 1층 (마산동)",,126.6425533,37.6422250,경기도 김포시 김포한강7로22번길 174-106
사랑모아안마원,"대전광역시 서구 관저중로95번길 42, 1층 (관저동)",042-300-0535,127.3324415,36.3007909,대전광역시 서구 관저중로95번길 42
시인안마원,"대전광역시 서구 대덕대로162번길 15, 동아프라자 201호 (갈마동)",042-525-9144,127.3768695,36.3471588,대전광역시 서구 대덕대로162번길 15 동아프라자
명인안마원,"대전광역시 서구 둔산로 230, 2층 (둔산동)",042-472-5992,127.3995088,36.3510472,대전광역시 서구 둔산로 230
몸사랑안마원,"대전광역시 서구 청사서로 26, 504호 (월평동)",042-471-9990,127.3769516,36.3600856,대전광역시 서구 청사서로 26
명심안마원,"대전광역시 서구 정림로 55, 209호 (정림동, 우성아파트1차)",042-840-7753,127.3639951,36.3047855,대전광역시 서구 정림로 55 우성아파트1차
21세기지압안마원,"대전광역시 서구 가장로 106, 201,202호 (가장동, 삼성 래미안아파트)",042-524-3375,127.3846874,36.3329316,대전광역시 서구 가장로 106 삼성 래미안아파트
정안마원,"대전광역시 서구 문정로170번길 154, 2층 (둔산동)",042-863-9675,127.3997641,36.3508567,대전광역시 서구 문정로170번길 154
기장지압안마원,"부산광역시 기장군 기장읍 대청로22번길 19, 1층",0517233631,129.2125811,35.2369237,부산광역시 기장군 기장읍 대청로22번길 19
참손길안마원,"서울특별시 마포구 성지길 25-11, 2층 (합정동)",1670-3175,126.9140408,37.5474274,서울특별시 마포구 성지길 25-11
동일지압안마원,"서울특별시 중랑구 봉화산로 194, 신아타운 9층 913~914호 (신내동)",02-3423-3222,127.0947162,37.6064552,서울특별시 중랑구 봉화산로 194 신아타운
장미,"충청북도 청주시 청원구 오창읍 중심상업로 17, 5층 (오창프라자)",043-216-0088,127.4292556,36.7124394,충청북도 청주시 청원구 오창읍 중심상업로 17 오창프라자
약손현가안마원,경상북도 김천시 중앙공원길 9 (남산동),,128.1191956,36.1200148,경상북도 김천시 중앙공원길 9
더나은안마원,"서울특별시 도봉구 도봉로153길 13, 2층 (방학동)",,127.0427088,37.6698194,서울특별시 도봉구 도봉로153길 13
라파지압안마원,"경상남도 양산시 물금읍 청운로 185, 오즈시티 2층 209호",055-383-0499,129.0028103,35.3172103,경상남도 양산시 물금읍 청운로 185 오즈시티
황금안마원,"경상북도 포항시 북구 법원로 1, 모던빌딩  4층 (장성동)",054-248-9159,129.3862721,36.0753399,경상북도 포항시 북구 법원로 1
O-편한케어안마원,"경상북도 포항시 북구 중앙로308번길 12-7, 1층 (여천동)",054-614-5788,129.3679622,36.0397144,경상북도 포항시 북구 중앙로308번길 12-7 여천동 오피스텔
좋은손길안마원,경상북도 포항시 북구 학전로 98 (두호동),054-252-7553,129.3759219,36.0612059,경상북도 포항시 북구 학전로 98
사랑케어안마원,경상북도 포항시 북구 월막길24번길 1-2 (대신동),054-244-7720,129.3649507,36.0482184,경상북도 포항시 북구 월막길24번길 1-2
빈안마시술소,충청남도 천안시 서북구 성정공원3길 23 (성정동),041-555-3345,127.1435684,36.8264086,충청남도 천안시 서북구 성정공원3길 23 태양빌딩
오포참좋은안마원,"경기도 광주시 오포읍 양벌로215번길 4, 3층",031-765-1222,127.2539202,37.3773689,경기도 광주시 오포읍 양벌로215번길 4
행복지압안마원,"경기도 수원시 장안구 송원로 39, 월드타워 2층 202호 (송죽동)",,127.0067635,37.2991823,경기도 수원시 장안구 송원로 39 월드타워
계양건강안마원,"인천광역시 계양구 장제로995번길 7 (박촌동,무진빌딩 5층층)",032-554-1015,126.7446185,37.5538427,인천광역시 계양구 장제로995번길 7
참조은약손안마원,"경기도 의정부시 신촌로84번길 37, 2층 202호 (의정부동)",031-821-8070,127.0445340,37.7488458,경기도 의정부시 신촌로84번길 37
허준안마원,"경기도 의정부시 체육로 298-7, 크로바프라자 203호 (녹양동)",,127.0410330,37.7606947,경기도 의정부시 체육로 298-7 크로바프라자
건강약손지압안마원,"경기도 의정부시 가능로 78, 2층 (의정부동)",856-8822,127.0396103,37.7466767,경기도 의정부시 가능로 78
올리브안마원,"경기도 의정부시 평화로562번길 8, 2층 (의정부동)",031-841-0608,127.0474228,37.7420843,경기도 의정부시 평화로562번길 8
힐링스토리안마원,"경기도 의정부시 외미로 104-12, 4층 (호원동, 유타상가)",873-0153,127.0467524,37.7236724,경기도 의정부시 외미로 104-12 유타상가
성심무병프로젝트지압안마원,"경기도 의정부시 추동로5번길 23, 지층 (신곡동)",842-7755,127.0562898,37.7437711,경기도 의정부시 추동로5번길 23
맑은손안마원,"경기도 의정부시 시민로 134, 2층 (의정부동)",031-878-9888,127.0499759,37.7378472,경기도 의정부시 시민로 134
늘사랑약손안마원,"경기도 의정부시 평화로 360, 상가동 210,211,212호 (호원동, 우성아파트)",031-837-7075,127.0485619,37.7239471,경기도 의정부시 평화로 360 호원3차우성아파트
황토마을 지압안마원,"경기도 의정부시 평화로484번길 7, 202호 (의정부동)",031-872-9257,127.0484493,37.7353660,경기도 의정부시 평화로484번길 7
다나지압안마원,"경기도 의정부시 충의로 62, 4층 (용현동)",,127.0874244,37.7374989,경기도 의정부시 충의로 62
행복한지압안마원,"경기도 의정부시 오목로225번길 141, 206호 (민락동)",852-0688,127.0954666,37.7454697,경기도 의정부시 오목로225번길 141
오엠티(OMT)안마원,"경기도 의정부시 평화로 220, 212호 (호원동, 브랜드상설매장)",031-877-1275,127.0480552,37.7116086,경기도 의정부시 평화로 220
큐안마시술소,전라북도 군산시 하나운안1길 8-3 (나운동),063-467-8113,126.6944290,35.9632710,전라북도 군산시 하나운안1길 8-3 뉴월드안마시술소
일침당안마시술소,충청남도 공주시 금성길 8-4 (금성동),855-1296,127.1236969,36.4607310,충청남도 공주시 금성길 8-4
으뜸힐링안마원,"경기도 성남시 수정구 위례광장로 27, 으뜸프라자 3층 302호 (창곡동)",031-723-9777,127.1401074,37.4669488,경기도 성남시 수정구 위례광장로 27 으뜸프라자
곽노학바우처안마원,"충청남도 아산시 어의정로65번길 28, 삼미공사 (온천동)",,127.0046602,36.7767126,충청남도 아산시 어의정로65번길 28 삼미공사
명가약손안마원,충청북도 청주시 청원구 율봉로176번길 47 (율량동),,127.4883536,36.6666347,충청북도 청주시 청원구 율봉로176번길 47
나인안마시술소,"서울특별시 강남구 언주로90길 12, 6~8층 (역삼동)",508-0025,127.0441474,37.5023045,서울특별시 강남구 언주로90길 12 역삼동빌딩
다향휴안마센터,전라남도 보성군 보성읍 현충로 44-12,,127.0783438,34.7651905,전라남도 보성군 보성읍 현충로 44-12
포항이동안마원,"경상북도 포항시 남구 대이로 93, 2층 (대잠동)",610-7575,129.3405019,36.0234444,경상북도 포항시 남구 대이로 93
몸편한안마원,"대구광역시 달서구 달구벌대로 1545, 골든뷰 메디타워 603호 (죽전동)",,128.5360949,35.8503551,대구광역시 달서구 달구벌대로 1545 골든뷰 메디타워
남해최고지압원,"경상남도 남해군 남해읍 화전로43번길 7, 상하이반점",055-862-5775,127.8946256,34.8344943,경상남도 남해군 남해읍 화전로43번길 7 상하이반점
바른척추안마원,"서울특별시 강서구 공항대로 227, 마곡센트럴타워Ⅰ 406호 (마곡동)",0236647572,126.8326863,37.5596003,서울특별시 강서구 공항대로 227 마곡센트럴타워Ⅰ
무성지압안마원,경상북도 구미시 봉곡남로9길 3 (봉곡동),,128.3093632,36.1498642,경상북도 구미시 봉곡남로9길 3
탁터안마원,경상북도 구미시 신시로10길 13-1 (송정동),,128.3404529,36.1151014,경상북도 구미시 신시로10길 13-1
장안마원,경상북도 구미시 인동중앙로10길 19 (인의동),054-472-6600,128.4246661,36.1085889,경상북도 구미시 인동중앙로10길 19
몸사랑경락안마원,"경상북도 구미시 상사서로 223, 1층 (사곡동)",054-463-8259,128.3571024,36.1016712,경상북도 구미시 상사서로 223
인동안마원,경상북도 구미시 인동중앙로7길 11 (황상동),054-473-9875,128.4214188,36.1086921,경상북도 구미시 인동중앙로7길 11
시원지압안마원,경상북도 구미시 구미중앙로 23-1 (원평동),054-444-5575,128.3260302,36.1312784,경상북도 구미시 구미중앙로 23-1
용궁안마시술소,대구광역시 달서구 와룡로 95 (본리동),522-0030,128.5364734,35.8412864,대구광역시 달서구 와룡로 95
수안마원,"인천광역시 남동구 논고개로 120 (논현동, 논현프라자 502호)",432-9823,126.7244157,37.4020230,인천광역시 남동구 논고개로 120 논현프라자
아나파전통안마원,"인천광역시 남동구 백범로 376 (간석동, 도시타워)",446-1269,126.7094961,37.4666914,인천광역시 남동구 백범로 376 도시타워
동방활법안마원,인천광역시 남동구 용천로 104-1 (구월동),469-6249,126.7149115,37.4589498,인천광역시 남동구 용천로 104-1
실로암지압안마원,"경기도 수원시 팔달구 중부대로239번길 58 (우만동,2층)",031-217-7790,127.0424580,37.2780294,경기도 수원시 팔달구 중부대로239번길 58
엔돌핀안마원,"경기도 수원시 팔달구 중부대로 54, 2층 (인계동)",031-233-7774,127.0228186,37.2753309,경기도 수원시 팔달구 중부대로 54
드림안마원,"경기도 수원시 영통구 매봉로35번길 16-6, 1층 (매탄동)",031-893-7575,127.0521583,37.2715355,경기도 수원시 영통구 매봉로35번길 16-6
고경환지압안마원,"경기도 수원시 팔달구 덕영대로697번길 17, 504-2호 (화서동, 그린프라자)",031-255-3337,126.9909523,37.2849413,경기도 수원시 팔달구 덕영대로697번길 17 그린프라자
원안마원,경기도 수원시 팔달구 경수대로507번길 12-14 (인계동),031-234-2655,127.0278632,37.2720399,경기도 수원시 팔달구 경수대로507번길 12-14
썸안마시술소,"경기도 김포시 김포한강9로75번길 66, 4층 (구래동)",,126.6217340,37.6430447,경기도 김포시 김포한강9로75번길 66
늘함안마원,"서울특별시 송파구 오금로13길 22, 3층 (방이동)",02-424-3313,127.1101464,37.5137203,서울특별시 송파구 오금로13길 22
예손지압안마원,"경기도 고양시 덕양구 삼송로 12, 반도유스퀘어 805호 일부호 (원흥동)",031-967-8208,126.8755307,37.6496167,경기도 고양시 덕양구 삼송로 12 반도 유스퀘어
대천안마원,"충청남도 보령시 대흥로 53, 2층 (대천동)",931-6667,126.5926899,36.3499549,충청남도 보령시 대흥로 53 한의원
김제시민안마원,전라북도 김제시 화동길 47 (요촌동),063-546-8275,126.8903432,35.7990877,전라북도 김제시 화동길 47
콕콕지압안마원,"대구광역시 수성구 청수로26길 36, 한성스퀘어 4동 402호 (두산동)",053-259-5454,128.6220839,35.8380669,대구광역시 수성구 청수로26길 36 한성스퀘어
정안마원,"경기도 안양시 동안구 관평로182번길 30, 한솔빌딩 407호 (관양동)",031-423-5115,126.9621632,37.3934749,경기도 안양시 동안구 관평로182번길 30 한솔빌딩
경북안마원,경상북도 경주시 강동면 강동로 23,,129.2739245,35.9879219,경상북도 경주시 강동면 강동로 23
지호지압안마원,서울특별시 동대문구 고산자로 459 (제기동),,127.0382054,37.5806660,서울특별시 동대문구 고산자로 459
보은통증지압안마원,"대전광역시 동구 동산초교로 29, 1층 (홍도동)",042-631-7374,127.4260923,36.3465905,대전광역시 동구 동산초교로 29
진흥안마원,충청북도 충주시 국원대로 140-1 (연수동),043-852-7888,127.9285511,36.9840791,충청북도 충주시 국원대로 140-1
성진안마원,"대전광역시 동구 흥룡로71번길 99, 2층 (가양동)",,127.4485590,36.3533230,대전광역시 동구 흥룡로71번길 99
닥터수안마원,"서울특별시 종로구 대학로12길 69, 4층 (동숭동)",02-743-2333,127.0039781,37.5810130,서울특별시 종로구 대학로12길 69 태원빌딩
우리건강안마원,"서울특별시 강남구 학동로6길 12, 205호 (논현동)",02-517-1033,127.0238932,37.5108730,서울특별시 강남구 학동로6길 12
건강우리지압원,"부산광역시 남구 못골번영로 11, 5층 (대연동, 성산빌딩)",051-626-7575,129.0889406,35.1361685,부산광역시 남구 못골번영로 11
베스트약손,"전라남도 목포시 둥근섬로35번길 1, 1층 2호 (산정동)",,126.3987406,34.7903836,전라남도 목포시 둥근섬로35번길 1
도원안마시술소,서울특별시 은평구 증산로 465 (신사동),02-3151-0777,126.9151019,37.5977535,서울특별시 은평구 증산로 465
동경안마시술소,"경기도 화성시 동탄중심상가2길 29, 302~304호 (반송동, 세림프라자)",031-8058-1331,127.0738772,37.2061486,경기도 화성시 동탄중심상가2길 29 세림프라자
뉴허브안마시술소,경기도 수원시 장안구 송원로 39 (송죽동),031-243-1210,127.0067635,37.2991823,경기도 수원시 장안구 송원로 39 월드타워
프로힐링지압안마원,"경기도 수원시 장안구 경수대로 940, 513호 (조원동, 일호골든타워1)",031-252-7975,127.0080449,37.3031483,경기도 수원시 장안구 경수대로 940 일호골든타워
경기안마원,경기도 수원시 권선구 정조로 575 (세류동),031-233-8438,127.0127929,37.2603371,경기도 수원시 권선구 정조로 575
100세안마지압원,경기도 수원시 장안구 정조로945번길 24 (영화동),031-242-0506,127.0105989,37.2914559,경기도 수원시 장안구 정조로945번길 24
웰빙카페지압안마원,"경기도 수원시 권선구 곡선로50번길 33, 4층 (곡반정동)",,127.0291641,37.2373591,경기도 수원시 권선구 곡선로50번길 33
참손길지압안마원,"서울특별시 영등포구 여의대방로 375, 아일렉스타워 4층 401, 402호 (여의도동)",02-1544-3057,126.9307891,37.5189066,서울특별시 영등포구 여의대방로 375 아일렉스타워
라파힐링케어안마원,"경기도 고양시 일산동구 강석로 145, 고양축협 마두지점 2층 201호 (마두동)",031-901-4789,126.7779253,37.6535041,경기도 고양시 일산동구 강석로 145 고양축협 마두지점
수안마시술소,"경기도 성남시 분당구 돌마로 85, 8층 (금곡동, 동양프라자 )",031-711-4929,127.1113450,37.3503901,경기도 성남시 분당구 돌마로 85
늘푸른남양주안마원,"경기도 남양주시 경춘로 1298, 혜림빌딩 301호 (평내동)",,127.2368308,37.6491325,경기도 남양주시 경춘로 1298 혜림빌딩
더 바디 테라피,"울산광역시 북구 명촌5길 5-3, JH빌딩 2층 (진장동)",289-5111,129.3574422,35.5578418,울산광역시 북구 명촌5길 5-3 JH빌딩
원마루안마원,충청북도 청주시 서원구 원마루로14번길 10 (분평동),,127.4960535,36.6095332,충청북도 청주시 서원구 원마루로14번길 10
강남건강안마센터,"서울특별시 강남구 개포로 615, 석탑프라자 603, 604호 (개포동)",02-451-6010,127.0756013,37.4926645,서울특별시 강남구 개포로 615 석탑프라자
오학안마원,"경기도 여주시 여양로 222-3, 1층 (천송동)",031-884-2999,127.6493285,37.3028620,경기도 여주시 여양로 222-3
광주안마,경기도 광주시 경안로 13-7 (경안동),031-767-1141,127.2596100,37.4093303,경기도 광주시 경안로 13-7
메디칼지압안마원,"서울특별시 구로구 구로동로26길 8, 기산빅프라자 7층 (구로동)",02-855-7576,126.8847379,37.4902569,서울특별시 구로구 구로동로26길 8 기산빅프라자
핑클안마시술소,대구광역시 달서구 와룡로 45 (본동),525-4523,128.5365716,35.8367847,대구광역시 달서구 와룡로 45
강안마지압원,경상남도 사천시 사천읍 사천읍성로 16,,128.0860115,35.0851212,경상남도 사천시 사천읍 사천읍성로 16 노래방기기전문점
몸편한약손약발지압원,부산광역시 연제구 고분로13번길 61-3 (연산동),051-864-3617,129.0857020,35.1883310,부산광역시 연제구 고분로13번길 61-3
바른몸약손안마원,경상남도 통영시 광도면 죽림2로 76-163,055-642-2002,128.4211930,34.8774297,경상남도 통영시 광도면 죽림2로 76-163
클린안마센터제서울7호점 안마원,"서울특별시 도봉구 해등로 118, 상가동 205호 (창동, 상아1차아파트)",02-907-1116,127.0424203,37.6541696,서울특별시 도봉구 해등로 118 상아1차아파트
서광민속안마원,"경기도 안산시 상록구 각골로 68-1, 3층 (본오동)",,126.8729475,37.2955663,경기도 안산시 상록구 각골로 68-1
김포보건힐링안마원,"경기도 김포시 유현로 52, 프라임빌복합상가 206호 (풍무동)",,126.7277369,37.5968024,경기도 김포시 유현로 52 프라임빌복합상가
묘한안마원,"서울특별시 도봉구 마들로 724, 223호 (도봉동, 도봉한양수자인)",,127.0476640,37.6745449,서울특별시 도봉구 마들로 724 도봉한양수자인
태양안마원,"경기도 고양시 덕양구 호국로 798, 삼성홈타워오피스텔 상가 204호 (성사동)",031-965-1888,126.8371369,37.6570445,경기도 고양시 덕양구 호국로 798 삼성홈타워오피스텔
안산보건안마원센터,"경기도 안산시 상록구 광덕1로 386, 캠퍼스타운 409호 (이동)",,126.8524502,37.3084611,경기도 안산시 상록구 광덕1로 386 캠퍼스타운
건강지압안마원 손길,"광주광역시 광산구 첨단강변로 95, 3층 302호 (쌍암동)",971-9975,126.8524630,35.2151964,광주광역시 광산구 첨단강변로 95
건강보건안마원,"충청남도 당진시 당진중앙2로 59-9, 1층 (읍내동)",041-355-8808,126.6285387,36.8928626,충청남도 당진시 당진중앙2로 59-9
승록자극요법안마원,서울특별시 성동구 금호산9가길 34 (금호동3가),02-2238-9087,127.0188274,37.5518601,서울특별시 성동구 금호산9가길 34 금화아트빌
오스마일안마원,인천광역시 미추홀구 신기길 28 (주안동),,126.6764718,37.4469404,인천광역시 미추홀구 신기길 28
건강지압안마원,울산광역시 울주군 온양읍 태화7길 36,,129.2793656,35.4148432,울산광역시 울주군 온양읍 태화7길 36 석류빌
수안마시술소,"강원도 원주시 장미공원길 16 (단계동,5층)",033-742-5445,127.9334260,37.3468096,강원도 원주시 장미공원길 16
모어안마시술소,서울특별시 강남구 테헤란로33길 13-6 (역삼동),587-5096,127.0388023,37.5027190,서울특별시 강남구 테헤란로33길 13-6
대명안마원,강원도 삼척시 대학로 17-19 (성내동),033-575-9588,129.1628110,37.4425275,강원도 삼척시 대학로 17-19 연지
춘강안마원,"서울특별시 서초구 효령로21길 10, 1층 (방배동, 자이빌리지)",02-3471-7734,126.9928304,37.4806613,서울특별시 서초구 효령로21길 10 자이빌리지
건강나라안마원 구암역점,"대구광역시 북구 태암남로 10, 영광빌딩 5층 (태전동)",0532171371,128.5485282,35.9252844,대구광역시 북구 태암남로 10
바른체형안마원,"경상북도 안동시 경동로 159, 1층 (송현동)",,128.6791787,36.5750263,경상북도 안동시 경동로 159
오행침안마원,강원도 인제군 기린면 기린로 47-1,461-5758,128.3181707,37.9564618,강원도 인제군 기린면 기린로 47-1
바른마사지마마안마원,"서울특별시 마포구 양화로 68, 2층 (서교동)",365-2225,126.9160844,37.5507578,서울특별시 마포구 양화로 68
맑은손안마원,"서울특별시 마포구 양화로3길 37, 2층 (합정동)",02-336-8753,126.9112176,37.5505639,서울특별시 마포구 양화로3길 37
늘편한안마원,"대전광역시 동구 옥천로 183, 209호 (판암동)",042-286-1113,127.4602549,36.3179242,대전광역시 동구 옥천로 183
썸안마시술소,"서울특별시 금천구 가산로 144, 2.3층 (가산동)",02-895-5125,126.8911749,37.4781956,서울특별시 금천구 가산로 144
마음가득안마원,"강원도 춘천시 춘천로 312, 4층 404호호 (후평동)",033-252-6619,127.7476984,37.8816992,강원도 춘천시 춘천로 312
바른자세고정안마원,"제주특별자치도 서귀포시 태평로 520, 2층 (동홍동)",,126.5729776,33.2508691,제주특별자치도 서귀포시 태평로 520
길지압안마원,대전광역시 중구 대종로 669 (중촌동),223-0690,127.4120289,36.3395101,대전광역시 중구 대종로 669
이선생안마원,"대전광역시 서구 탄방로7번길 132, 1층 (탄방동)",042-322-7288,127.3959909,36.3479685,대전광역시 서구 탄방로7번길 132
천궁안마시술소,경기도 성남시 수정구 산성대로283번길 6-8 (신흥동),031-735-6906,127.1487934,37.4419901,경기도 성남시 수정구 산성대로283번길 6-8
신세계지압안마원,"대구광역시 서구 서대구로42길 34-1, 1층 (평리동)",,128.5587434,35.8769793,대구광역시 서구 서대구로42길 34-1
이브안마시술소,충청남도 천안시 서북구 검은들1길 20 (불당동),041-522-4954,127.1102028,36.8113154,충청남도 천안시 서북구 검은들1길 20 메디컬타워
S안마시술소,"경기도 이천시 부발읍 경충대로 2096-23, 지하1층",,127.4904883,37.2529345,경기도 이천시 부발읍 경충대로 2096-23
가나안지압안마원,"인천광역시 남동구 남동대로 890, 탑메디칼빌딩 501호 (간석동)",032-427-1015,126.7086711,37.4618407,인천광역시 남동구 남동대로 890 탑메디칼빌딩
중앙건강안마원,"서울특별시 서초구 서초중앙로22길 105, 3층 (서초동)",,127.0195744,37.4945383,서울특별시 서초구 서초중앙로22길 105
약손안마지압원(마사지),"전라남도 화순군 화순읍 중앙로 14, 2층",061-371-7588,126.9828177,35.0603152,전라남도 화순군 화순읍 중앙로 14
통증잡는백경안마원,"전라북도 군산시 월명로 233, 204호 (수송동, 효원월드타워)",063-468-1444,126.7151200,35.9648049,전라북도 군산시 월명로 233 효원월드타워
뉴몸튼튼안마원,"대구광역시 달서구 월성로 20, 건도파라다이스 3층 303-2호 (월성동)",,128.5331508,35.8315758,대구광역시 달서구 월성로 20 건도파라다이스
시마안마,충청남도 당진시 송악읍 반촌로 168-1 (시마안마),041-352-8070,126.7010264,36.9037905,충청남도 당진시 송악읍 반촌로 168-1 힐튼장
동광지압안마원,"부산광역시 중구 동광길 47, 3층 (동광동5가)",051-468-2285,129.0345361,35.1048967,부산광역시 중구 동광길 47
서도지압원,"전라북도 전주시 완산구 용머리로 36, 서도프라자 8층 804호 (효자동1가)",,127.1144062,35.8054176,전라북도 전주시 완산구 용머리로 36 서도프라자
두드림안마원,"부산광역시 사하구 낙동대로450번길 12, 2층 (당리동)",051-201-0440,128.9702333,35.1057892,부산광역시 사하구 낙동대로450번길 12
참조은지압안마원,"인천광역시 부평구 경원대로 1264, 4층 (부평동)",032-434-8484,126.7100628,37.4893338,인천광역시 부평구 경원대로 1264
다좋은행복안마원,인천광역시 미추홀구 주안로 75 (주안동),,126.6780318,37.4643397,인천광역시 미추홀구 주안로 75
쵸이스안마시술소,"광주광역시 서구 상무연하로 27, 지상3층 (치평동)",062-383-9710,126.8499145,35.1506735,광주광역시 서구 상무연하로 27 동원빌딩
뉴동아안마시술소,전라북도 전주시 완산구 한두평2길 12 (중화산동2가),227-2544,127.1242927,35.8134249,전라북도 전주시 완산구 한두평2길 12
신동만안마원,"서울특별시 동대문구 경동시장로 11, 2층 (제기동)",,127.0405989,37.5799091,서울특별시 동대문구 경동시장로 11
으뜸안마원,전라북도 익산시 인북로 46-1 (인화동1가),,126.9511015,35.9333903,전라북도 익산시 인북로 46-1 호산나주단
강남힐링지압안마원,"부산광역시 부산진구 전포대로300번길 20, 301호 (전포동)",051-805-2816,129.0662399,35.1645664,부산광역시 부산진구 전포대로300번길 20
세븐안마시술소,대전광역시 유성구 온천서로 30 (봉명동),042-825-4420,127.3402781,36.3567909,대전광역시 유성구 온천서로 30
가가보건안마원,서울특별시 서초구 동광로12가길 12 (방배동),,126.9841780,37.4874532,서울특별시 서초구 동광로12가길 12
청담안마지압원,"부산광역시 부산진구 새싹로 83-2, B동 2층 (부암동)",051-802-7999,129.0532632,35.1642347,부산광역시 부산진구 새싹로 83-2
초이스안마,경기도 평택시 안중읍 안중로 140,070-4503-2440,126.9319041,36.9887904,경기도 평택시 안중읍 안중로 140
감초안마원,"경상북도 포항시 북구 새천년대로 1055, 201호 (창포동)",246-2301,129.3708303,36.0630621,경상북도 포항시 북구 새천년대로 1055
시각복지안마원,인천광역시 미추홀구 경원대로640번길 26-17 (관교동),032-426-8575,126.6953261,37.4406861,인천광역시 미추홀구 경원대로640번길 26-17
건강을주는안마원,"인천광역시 미추홀구 토금북로 46, 2층 (용현동)",032-881-3575,126.6390595,37.4534541,인천광역시 미추홀구 토금북로 46
조은아침지압원,"인천광역시 미추홀구 독배로 380, 2층 (용현동)",032-891-7777,126.6487778,37.4536768,인천광역시 미추홀구 독배로 380
건강하세요 안마원,"인천광역시 미추홀구 소성로 177, 동호빌딩 4층 (학익동)",032-874-8757,126.6680491,37.4416569,인천광역시 미추홀구 소성로 177 동호빌딩
휴 안마시술소,"경기도 포천시 소흘읍 솔모루로 106, 4층",,127.1488734,37.8304333,경기도 포천시 소흘읍 솔모루로 106 루시나산부인과병원
국가대표안마원,"인천광역시 남동구 논고개로123번길 35 (논현동, 칼리오페 406호)",817-6725,126.7220901,37.4015154,인천광역시 남동구 논고개로123번길 35 칼리오페
바른자세안마원,"인천광역시 계양구 경명대로 1138, 동남빌딩 5층 (계산동)",545-8235,126.7333378,37.5428008,인천광역시 계양구 경명대로 1138
부천보건지압안마센터,"경기도 부천시 상동로 69  (상동,새롬프라자 15차 304호)",321-7954,126.7522343,37.5037563,경기도 부천시 상동로 69 새롬프라자(15차)
밝은세상안마원 대명역점,"대구광역시 남구 대명로 67, 5층 (대명동, 프라임빌딩)",053-655-8885,128.5648880,35.8396014,대구광역시 남구 대명로 67
체리안마시술소,경기도 용인시 처인구 중부대로 1491 (김량장동),031-336-2539,127.2099779,37.2333928,경기도 용인시 처인구 중부대로 1491
오케이 지압 안마원,"인천광역시 중구 제물량로 103, 2층 (신흥동1가)",032-777-7858,126.6316039,37.4680719,인천광역시 중구 제물량로 103
달구벌안마센터안마원,"대구광역시 달서구 달구벌대로 1870, 5층 (두류동)",053-556-2224,128.5692133,35.8609662,대구광역시 달서구 달구벌대로 1870
박기관안마지압원,"부산광역시 서구 해안새벽시장길 48, 2층 (충무동1가)",051-242-9955,129.0249666,35.0941701,부산광역시 서구 해안새벽시장길 48
뉴제주안마원,"제주특별자치도 제주시 도령로 140, 2층 201호 (연동, 삼무스위트빌)",064-747-8893,126.4919760,33.4931582,제주특별자치도 제주시 도령로 140 삼무스위트빌
힐링약손안마원,서울특별시 강북구 도봉로 34-8 (미아동),02-6368-6111,127.0308153,37.6122736,서울특별시 강북구 도봉로 34-8
송정보건안마원,"광주광역시 광산구 광산로30번길 67, 1층 (송정동)",062-942-0086,126.7979708,35.1371412,광주광역시 광산구 광산로30번길 67
힐링안마원,"경기도 광명시 범안로 1008, 녹원토피아빌딩 302호 (하안동)",02-897-1919,126.8757531,37.4600008,경기도 광명시 범안로 1008 녹원토피아빌딩
힐링스토리,"서울특별시 광진구 자양로16길 22, 2층 (자양동)",02-3436-7582,127.0850624,37.5363227,서울특별시 광진구 자양로16길 22
대한보건안마원,충청북도 제천시 내토로 481 (화산동),,128.2106068,37.1286846,충청북도 제천시 내토로 481
안마수기치유센터,"광주광역시 서구 월드컵4강로 191, 1층 (쌍촌동)",062-373-7775,126.8692502,35.1532393,광주광역시 서구 월드컵4강로 191
자연재생 힐링원,광주광역시 북구 하백로6번길 18 (매곡동),,126.8924302,35.1879191,광주광역시 북구 하백로6번길 18
덕소안마원,"경기도 남양주시 와부읍 수레로 12, 2층",031-577-2230,127.2135157,37.5867016,경기도 남양주시 와부읍 수레로 12
장수건강안마원,"경기도 남양주시 금곡로 50, 302호 (금곡동, 대성빌딩)",031-559-4788,127.2085906,37.6338078,경기도 남양주시 금곡로 50 대성빌딩
진주성안마원,"경상남도 진주시 북장대로59번길 16, 1층 (봉곡동)",,128.0717878,35.1950102,경상남도 진주시 북장대로59번길 16
건강안마원,경상남도 의령군 의령읍 의병로15길 3,573-0088,128.2586850,35.3196037,경상남도 의령군 의령읍 의병로15길 3
약손안마원,"전라남도 해남군 해남읍 중앙2로 39, SK텔레콤",0615334660,126.5982068,34.5701449,전라남도 해남군 해남읍 중앙2로 39 SK텔레콤
늘푸른안마원,"서울특별시 동대문구 망우로21가길 4, 2층층 (휘경동)",,127.0624868,37.5906525,서울특별시 동대문구 망우로21가길 4
미소건강안마원,"대구광역시 달서구 밤골1길 3, 1층 (두류동)",053-562-3330,128.5689974,35.8607108,대구광역시 달서구 밤골1길 3
힐링안마,"경상북도 경산시 경안로39길 31, 101호 (중방동)",053-801-6633,128.7341359,35.8233439,경상북도 경산시 경안로39길 31
금정안마시술소,"경기도 군포시 군포로 733, 8,9층 (금정동, SH빌딩)",,126.9433330,37.3706853,경기도 군포시 군포로 733 S.H빌딩
건강사랑지압안마원,"부산광역시 동구 중앙대로 181, 3층 (초량동)",051-204-3312,129.0386074,35.1136094,부산광역시 동구 중앙대로 181
미건 약손 지압센타,"광주광역시 서구 하남대로 700, 대영빌딩 3층 302호 (동천동)",062-528-7575,126.8692021,35.1714370,광주광역시 서구 하남대로 700 대영빌딩
가장좋은날 안마지압원,"부산광역시 사하구 승학로71번길 30, 110동 303호 (당리동, 당리푸르지오)",051-205-7577,128.9770189,35.1047274,부산광역시 사하구 승학로71번길 30 당리푸르지오
황용진안마원,강원도 춘천시 옛경춘로 334 (칠전동),033)251-9989,127.6928657,37.8451452,강원도 춘천시 옛경춘로 334
백진안마원,"부산광역시 영도구 태종로 98, 502호 (대교동2가, 모닝아일랜드)",051-412-1010,129.0414763,35.0912131,부산광역시 영도구 태종로 98 모닝아일랜드
한국전통지압원,"부산광역시 동래구 사직북로 3, 사직동백진빌딩 5층 (사직동)",051-507-2116,129.0606482,35.1961787,부산광역시 동래구 사직북로 3 사직동백진빌딩
웰빙안마원,대구광역시 남구 명덕로 46 (대명동),053-652-7575,128.5758606,35.8591764,대구광역시 남구 명덕로 46
건강드림안마원,"제주특별자치도 제주시 도령로 31, 2층 203호 (노형동)",,126.4821306,33.4878720,제주특별자치도 제주시 도령로 31
짱구안마시술소,"경기도 용인시 수지구 풍덕천로190번길 21, 2,3층 (풍덕천동)",031-276-2789,127.1024356,37.3246929,경기도 용인시 수지구 풍덕천로190번길 21 다우
체형밸런스요법안마원,"서울특별시 서초구 서초대로54길 24, 601호 동측 일부 (서초동)",02-3446-2808,127.0159664,37.4931403,서울특별시 서초구 서초대로54길 24
KSS 근력강화 지압원,"울산광역시 남구 장검1길 21-16, 표현평면회화미술학원 (무거동)",,129.2560381,35.5534118,울산광역시 남구 장검1길 21-16 표현평면회화미술학원
비너스안마시술소,전라북도 익산시 인북로4길 21-1 (인화동1가),063-843-9553,126.9520915,35.9302167,전라북도 익산시 인북로4길 21-1 인터넷모텔
약손안마지압원,강원도 평창군 진부면 진부중앙로 99,033-332-7588,128.5606385,37.6398108,강원도 평창군 진부면 진부중앙로 99
약손안마원,"경기도 여주시 청심로 106, 1층 (하동)",031-882-0975,127.6320287,37.2991080,경기도 여주시 청심로 106
위드지압원,"부산광역시 부산진구 동평로420번길 13, 4층 (양정동)",051-852-7566,129.0701839,35.1725380,부산광역시 부산진구 동평로420번길 13
통영지압안마원,경상남도 통영시 당동길 4 (당동),055-648-8771,128.4092982,34.8367806,경상남도 통영시 당동길 4
캡틴안마시술소,"광주광역시 서구 상무연하로 43, 지상4,5층 (치평동)",,126.8499166,35.1522094,광주광역시 서구 상무연하로 43 삼복빌딩
다나안마원,경상북도 영천시 상록4길 66 (야사동),,128.9427941,35.9741643,경상북도 영천시 상록4길 66
광천명인지압안마원,인천광역시 연수구 새말로 107 (연수동),814-1239,126.6811838,37.4186672,인천광역시 연수구 새말로 107
휴림지압안마원,"경기도 군포시 번영로 498, 산본빌딩 7층 701,702호 (금정동)",,126.9329082,37.3573967,경기도 군포시 번영로 498 산본빌딩
바른몸건강지킴이안마원,"부산광역시 수영구 연수로401번길 4, 4층 (수영동)",051-761-1188,129.1135134,35.1687307,부산광역시 수영구 연수로401번길 4
새힘힐링안마원,"서울특별시 광진구 능동로39길 9, 2층 (중곡동)",02-452-0691,127.0795640,37.5584367,서울특별시 광진구 능동로39길 9
부일지압안마원,"경기도 부천시 자유로 68, 1층 일부호 (심곡본동)",032-346-6665,126.7835313,37.4834031,경기도 부천시 자유로 68 심곡본동 근린생활시설
진지압안마원,"광주광역시 광산구 광산로 9, 2층 (송정동)",,126.7930524,35.1378014,광주광역시 광산구 광산로 9
수안마시술소,"경기도 용인시 수지구 풍덕천로 149, 601호 (풍덕천동, 현대그린프라자)",,127.0975921,37.3246176,경기도 용인시 수지구 풍덕천로 149 현대그린프라자
부산안마지압원,"부산광역시 남구 고동골로4번길 17, 3층 (문현동)",051-463-5459,129.0722005,35.1375322,부산광역시 남구 고동골로4번길 17
참좋은안마원,"대구광역시 동구 동촌로 245, 5층 (방촌동)",053-262-9378,128.6670803,35.8810442,대구광역시 동구 동촌로 245
신기한손안마원,"경기도 용인시 기흥구 구갈로28번길 23, 명지빌딩 202호 (구갈동)",,127.1140635,37.2776865,경기도 용인시 기흥구 구갈로28번길 23 명지빌딩
어울림지압원,"부산광역시 남구 못골로12번길 35, 6층 2호 (대연동)",051-907-8478,129.0857478,35.1355082,부산광역시 남구 못골로12번길 35
최용석안마원,경상남도 합천군 합천읍 중앙로 33-32,055-934-0470,128.1576971,35.5631639,경상남도 합천군 합천읍 중앙로 33-32
샘안마시술소,대전광역시 중구 문창로 88 (문창동),252-5893,127.4327610,36.3209001,대전광역시 중구 문창로 88
바디케어지압원,"부산광역시 부산진구 가야대로 525, 3층 (가야동)",051-909-0365,129.0294499,35.1537950,부산광역시 부산진구 가야대로 525
라파지압안마원,"대전광역시 서구 한밭대로 701, 2층 (월평동)",042-488-8277,127.3769235,36.3581669,대전광역시 서구 한밭대로 701 갤러리빌 럭스
오성안마원,"강원도 횡성군 횡성읍 화성로 3, 2층",033-345-0975,127.9877374,37.4915078,강원도 횡성군 횡성읍 화성로 3
킹안마시술소,"경기도 의정부시 둔야로 20, 중앙오피스텔 3층 (의정부동)",826-1213,127.0400714,37.7376936,경기도 의정부시 둔야로 20 중앙오피스텔
대산안마원,"경기도 포천시 영북면 영북로 219, 1층",031-532-0982,127.2729687,38.0937575,경기도 포천시 영북면 영북로 219
김현성 빛가람건강안마센터,"전라남도 나주시 빛가람로 689, 402,402호 (빛가람동)",061-333-3690,126.7871288,35.0215137,전라남도 나주시 빛가람로 689
청주온천88안마,"충청북도 청주시 흥덕구 직지대로635번길 1, 1층2층3층 (봉명동)",272-3333,127.4635395,36.6437773,충청북도 청주시 흥덕구 직지대로635번길 1
제주비타민마사지안마원,"제주특별자치도 제주시 신광로 75, 2층 (연동)",064-744-5317,126.4901711,33.4852931,제주특별자치도 제주시 신광로 75
국가대표 안마 지압원,"광주광역시 북구 북문대로 29, 2층 (운암동)",062-522-8575,126.8819690,35.1745020,광주광역시 북구 북문대로 29
부여보건안마센터안마원,"충청남도 부여군 부여읍 사비로 66-1, 2층",,126.9107811,36.2785091,충청남도 부여군 부여읍 사비로 66-1
제주사랑안마원,"제주특별자치도 제주시 신대로 124, 2층 (연동)",046-742-4239,126.4961569,33.4863554,제주특별자치도 제주시 신대로 124
시원한안마원,"대구광역시 달서구 호산로29길 117, 2층 (파호동)",053-583-7770,128.4773939,35.8524464,대구광역시 달서구 호산로29길 117
장수안마원,"충청남도 당진시 당진중앙2로 87, 뷰티플레스 (읍내동)",041-345-7780,126.6298298,36.8935437,충청남도 당진시 당진중앙2로 87 뷰티플레스
청라약손안마원,"인천광역시 서구 청라루비로 95, 경연프라자 204호 (청라동)",032-569-2999,126.6401439,37.5337439,인천광역시 서구 청라루비로 95 경연프라자
밀알안마원,"서울특별시 마포구 월드컵북로 184, 2층 우측호 (성산동)",335-1009,126.9083867,37.5681393,서울특별시 마포구 월드컵북로 184
참손길안마원,"서울특별시 강남구 테헤란로70길 10, 4층 (대치동, 동헌빌딩)",1599-3175,127.0532078,37.5049976,서울특별시 강남구 테헤란로70길 10 동헌빌딩
두손헬스케어안마원,"경기도 안산시 상록구 네고지2길 17, 1층 (사동)",031-409-2070,126.8503892,37.2964141,경기도 안산시 상록구 네고지2길 17
천부안마원,"부산광역시 북구 학사로17번나길 25, 3층 (화명동)",051-361-7572,129.0084022,35.2232089,부산광역시 북구 학사로17번나길 25
안마이야기안마원,"대전광역시 유성구 노은로 144, 504호 (지족동, 노은타운)",,127.3184983,36.3725132,대전광역시 유성구 노은로 144 노은타운
더죤안마지압원,부산광역시 사상구 사상로 175 (괘법동),051-311-7677,128.9855625,35.1610717,부산광역시 사상구 사상로 175 김정열비뇨기과
광장킹안마원,강원도 춘천시 전원길 1 (운교동),033)256-3522,127.7352905,37.8774987,강원도 춘천시 전원길 1
주원전통안마원,경상남도 양산시 삼호동부로 39 (명동),,129.1676931,35.4079608,경상남도 양산시 삼호동부로 39
뽀빠이안마지압원,"제주특별자치도 제주시 우정로18길 14, 1층 (외도일동)",,126.4294115,33.4850666,제주특별자치도 제주시 우정로18길 14
강재만안마원,"서울특별시 강북구 한천로139길 10, 3층 (수유동, 일심빌딩)",02-906-9990,127.0261223,37.6398014,서울특별시 강북구 한천로139길 10 일심빌딩
달인침안마원,"대전광역시 대덕구 오정로 1, 노촌빌딩 3층 (오정동)",,127.4152270,36.3482546,대전광역시 대덕구 오정로 1 노촌빌딩
참손길지압힐링안마원,"서울특별시 강서구 공항대로 269-15, 힐스테이트에코마곡 318호 (마곡동)",15448538,126.8372423,37.5596114,서울특별시 강서구 공항대로 269-15 힐스테이트에코마곡
힐링조이천안건강안마센터,"충청남도 천안시 서북구 미라12길 4 (쌍용동,1층)",041-573-8890,127.1288028,36.8049430,충청남도 천안시 서북구 미라12길 4 리치빌
세종보건안마센터,"세종특별자치시 조치원읍 장안로 3, 2층",,127.3014408,36.6012624,세종특별자치시 조치원읍 장안로 3
나주약손 지압 안마원,전라남도 나주시 나주로 9-5 (송월동),061-337-8576,126.7139463,35.0204126,전라남도 나주시 나주로 9-5
수지압안마원,"부산광역시 북구 백양대로 1180, 2층 201호 (구포동)",051-333-7574,129.0052121,35.2076215,부산광역시 북구 백양대로 1180
행복안마원,전라남도 진도군 진도읍 교동5길 1-1,,126.2623538,34.4843968,전라남도 진도군 진도읍 교동5길 1-1
팡팡지압안마원,대구광역시 서구 통학로46길 9-1 (비산동),053-561-0770,128.5642603,35.8806093,대구광역시 서구 통학로46길 9-1
약손지압원,"서울특별시 강서구 금낭화로 135, 금강프라자빌딩 6층 610호 (방화동)",02-2664-7591,126.8124526,37.5774508,서울특별시 강서구 금낭화로 135 금강프라자빌딩
장안안마,인천광역시 서구 길주로75번길 2 (석남동),573-0551,126.6705311,37.5067107,인천광역시 서구 길주로75번길 2
잘풀림힐링안마원,"서울특별시 송파구 가락로17길 4, 2층 (송파동)",02-2039-9223,127.1103828,37.5025359,서울특별시 송파구 가락로17길 4
용약손안마원,"부산광역시 동래구 명안로39번길 4, 2층 (안락동)",051-523-5052,129.1044162,35.2001780,부산광역시 동래구 명안로39번길 4
영종안마원,"인천광역시 중구 영종대로 100, 신성하우스빌 2층 204호 (운서동)",032-752-2080,126.4900699,37.4948960,인천광역시 중구 영종대로 100 신성하우스빌
한국안마센터,"경상남도 고성군 고성읍 중앙로25번길 76, 2층",055-674-7789,128.3242040,34.9775668,경상남도 고성군 고성읍 중앙로25번길 76
수안마원,경상북도 구미시 봉곡남로 110 (봉곡동),,128.3140989,36.1498923,경상북도 구미시 봉곡남로 110
금오힐링수안마원,"경기도 의정부시 청사로5번길 8-17, 센타프라자 7층 706호 (신곡동)",031-851-2044,127.0698524,37.7495449,경기도 의정부시 청사로5번길 8-17 센타프라자
약손안마원,전라남도 보성군 보성읍 신일길 12-1,061-853-9947,127.0812275,34.7685268,전라남도 보성군 보성읍 신일길 12-1
풀샵안마시술소,"광주광역시 서구 상무연하로 5, 지상 5,6층 (치평동)",062-375-4402,126.8500279,35.1487159,광주광역시 서구 상무연하로 5
이지안마원,전라남도 나주시 예향로 3826 (이창동),061-332-4352,126.7145259,34.9956687,전라남도 나주시 예향로 3826 옷나라신발나라
슈퍼맨안마시술소,강원도 원주시 장미공원길 47-1 (단계동),033-731-5096,127.9302058,37.3470794,강원도 원주시 장미공원길 47-1
건강이음안마원,충청남도 청양군 청양읍 중앙로13길 1,041-943-9439,126.8031548,36.4529768,충청남도 청양군 청양읍 중앙로13길 1
김승곤지압안마원,"경기도 안양시 만안구 안양로 110, 엘리제빌리지 2층 (안양동)",,126.9338087,37.3847878,경기도 안양시 만안구 안양로 110 엘리제빌리지
명가,"서울특별시 광진구 천호대로 696, 명가안마 2층 (구의동)",3437-1018,127.0914964,37.5492740,서울특별시 광진구 천호대로 696 명가안마
형제바우처안마원,"대구광역시 남구 이천로 24, 5층 (봉덕동)",053 656 7774,128.5983692,35.8428617,대구광역시 남구 이천로 24
알프스안마시술소,"대구광역시 달서구 이곡서로 15, 3층 (이곡동)",053-202-6699,128.5051958,35.8538933,대구광역시 달서구 이곡서로 15
생활안마원,"세종특별자치시 조치원읍 새내로 88, 3층",044-866-5480,127.2985788,36.5997937,세종특별자치시 조치원읍 새내로 88
새봄 안마원,"강원도 원주시 예술관길 25, 2층 202호 (명륜동, 명륜2단지아파트)",,127.9421494,37.3326585,강원도 원주시 예술관길 25 명륜2단지아파트
웅s의 몸사랑이야기,"대구광역시 달성군 유가읍 테크노중앙대로 240, 한라하우젠트상가 3층 306호",053-614-2626,128.4582170,35.6921824,대구광역시 달성군 유가읍 테크노중앙대로 240
약손공간지압안마원,"경기도 부천시 경인로3번길 24, 2층4호 2층5호일부호 (송내동, 송내동성호아파트)",032-666-8588,126.7550654,37.4843143,경기도 부천시 경인로3번길 24 송내동성호아파트
강남지압안마원,"대구광역시 달서구 상화북로 220-1, 1층 (상인동)",053-635-8335,128.5490139,35.8148390,대구광역시 달서구 상화북로 220-1
승록안마원,"서울특별시 영등포구 도영로 80, 대우미래사랑 101동 2층 207호 (도림동)",02-845-7775,126.9004813,37.5115140,서울특별시 영등포구 도영로 80 대우미래사랑
수안마시술소,"경기도 안양시 동안구 경수대로 546 (호계동, 3층)",031-458-8980,126.9582638,37.3713585,경기도 안양시 동안구 경수대로 546
참조은안마원,"경기도 안양시 만안구 병목안로 2, PROJECT 240 TOWER 11층 1105호 (안양동)",031-444-8566,126.9198836,37.3999457,경기도 안양시 만안구 병목안로 2 PROJECT 240 TOWER
고래안마시술소,경상북도 구미시 산호대로27길 13-1 (옥계동),054-475-5269,128.4169181,36.1381470,경상북도 구미시 산호대로27길 13-1
가 안마원,"경상북도 경주시 금성로 295, 경주중앙시장 8동 2층 (성건동)",,129.2067453,35.8439605,경상북도 경주시 금성로 295 경주중앙시장
마법의약손안마원,"경기도 부천시 상동로 105, 현해프라자 504호 (상동)",032-326-8875,126.7527977,37.5066959,경기도 부천시 상동로 105 현해프라자
행복지압안마원,"경상북도 포항시 북구 중흥로226번길 7, 1층 (죽도동)",283-8575,129.3595208,36.0232349,경상북도 포항시 북구 중흥로226번길 7
두손안마원,"경기도 부천시 경인로 519, 205호 (괴안동)",346-8875,126.8127618,37.4850892,경기도 부천시 경인로 519
오행지압안마원,"광주광역시 서구 운천로114번길 5, 1층 (쌍촌동)",,126.8585334,35.1429807,광주광역시 서구 운천로114번길 5
청춘힐링안마원,경상북도 상주시 상서문3길 80 (남성동),,128.1558679,36.4140110,경상북도 상주시 상서문3길 80
백세안마원,"서울특별시 강남구 개포로 660, 종하빌딩 2층 202호 (일원동)",445-9464,127.0848403,37.4951657,서울특별시 강남구 개포로 660 종하빌딩
몸신통증사냥안마원,울산광역시 동구 진성14길 48 (전하동),,129.4256184,35.5072095,울산광역시 동구 진성14길 48
건강안마원,"전라북도 익산시 신동로 12-1, 피자캣 1층 (신동)",,126.9540264,35.9581050,전라북도 익산시 신동로 12-1 피자캣
한강안마원,"대전광역시 동구 대전로 814, 3층 (정동)",222-6000,127.4324275,36.3321822,대전광역시 동구 대전로 814
어깨동무안마원,"대전광역시 유성구 학하동로63번길 70, 1층 (학하동)",,127.3138176,36.3374891,대전광역시 유성구 학하동로63번길 70
백화안마원,"충청남도 태안군 태안읍 동백로 255, 2층",,126.2988844,36.7505895,충청남도 태안군 태안읍 동백로 255
백세지압안마원,경기도 남양주시 진접읍 장현로 77 (장현프라자),070-8621-8945,127.1808911,37.7176160,경기도 남양주시 진접읍 장현로 77 장현프라자
송원지압안마원,"대구광역시 달서구 학산로 127, 1,2층 (본동)",053-563-3375,128.5403963,35.8338370,대구광역시 달서구 학산로 127
맑은손안마원,충청남도 아산시 삼동로86번길 25-17 (권곡동),041-549-6226,127.0144449,36.7884848,충청남도 아산시 삼동로86번길 25-17
동방 제이씨(JC) 안마원,"부산광역시 해운대구 해운대해변로 203, 오션타워 521호 (우동)",,129.1537907,35.1588118,부산광역시 해운대구 해운대해변로 203 오션타워
개구리안마시술소,"울산광역시 남구 왕생로45번길 15-1, 3,4,5층 (달동, 대원빌딩)",052-267-3731,129.3299111,35.5370694,울산광역시 남구 왕생로45번길 15-1 대원빌딩
제일안마원,"경상북도 영주시 가흥로2번길 223, 영주청정한우식육식당 (문정동)",,128.5941353,36.7950406,경상북도 영주시 가흥로2번길 223 영주청정한우식육식당
나은힐링안마원,"경기도 용인시 기흥구 죽전로 29, 포레스트프라자 7층 (보정동)",,127.1120832,37.3207465,경기도 용인시 기흥구 죽전로 29 포레스트프라자
국가명인지압안마원,"인천광역시 서구 심곡로 81, 201호 (심곡동, 국제빌딩)",032-561-7123,126.6785882,37.5422063,인천광역시 서구 심곡로 81
엑스안마시술소,경기도 김포시 통진읍 김포대로2230번길 14-1 (외3필지),031-997-7789,126.5989521,37.6904996,경기도 김포시 통진읍 김포대로2230번길 14-1
곶자왈지압안마원,"제주특별자치도 제주시 노연로 117, 연동빌딩 2층 (연동)",,126.4926148,33.4859886,제주특별자치도 제주시 노연로 117 연동빌딩
정유섬지압,"경상남도 양산시 양주3길 11-10, 1층 (중부동)",055-382-0444,129.0327259,35.3407706,경상남도 양산시 양주3길 11-10
수궁안마시술소,"인천광역시 서구 완정로117번길 41 (왕길동, 3층)",563-9096,126.6586565,37.6010370,인천광역시 서구 완정로117번길 41
여주경락지압안마원,경기도 여주시 청심로 116-1 (하동),0318850177,127.6333171,37.2987622,경기도 여주시 청심로 116-1
온누리안마원,강원도 원주시 관설안길 26 (관설동),,127.9605275,37.3172164,강원도 원주시 관설안길 26
예손지압안마원,"서울특별시 양천구 월정로 22, 지층 (신월동)",02-6339-8275,126.8435107,37.5218684,서울특별시 양천구 월정로 22
장대지압안마원,대전광역시 유성구 유성대로 780 (장대동),822-2823,127.3366437,36.3615276,대전광역시 유성구 유성대로 780
홀리스틱건강지압원,"광주광역시 광산구 장신로147번길 6, 수완제일프라자 3층 302호 (수완동)",062-954-2250,126.8264903,35.1913950,광주광역시 광산구 장신로147번길 6
플러스지압안마원,"경기도 부천시 상동로 84, 영플러스 206호 (상동)",032-225-7587,126.7534925,37.5045026,경기도 부천시 상동로 84 영플러스
광안건강안마원,"부산광역시 수영구 광안로7번길 8, 3층 (광안동)",051-728-1844,129.1140393,35.1573958,부산광역시 수영구 광안로7번길 8
금봉안마원,"부산광역시 부산진구 범일로 160, 중앙빌딩 5층 (범천동)",051-636-3836,129.0595916,35.1443168,부산광역시 부산진구 범일로 160 중앙빌딩
약손건강안마지압원,경기도 시흥시 대골안길 86 (대야동),031-404-7599,126.7861825,37.4423666,경기도 시흥시 대골안길 86 동진빌딩
구구팔팔안마지압원,"광주광역시 동구 중앙로196번길 19, 4층 (궁동)",062-222-9898,126.9177378,35.1496001,광주광역시 동구 중앙로196번길 19
힐링안마원,"대전광역시 중구 동서대로 1388, 상가동 301호 (목동, 금호한사랑아파트)",042-223-0090,127.4129933,36.3316265,대전광역시 중구 동서대로 1388 금호한사랑아파트
건강백세안마원,"대전광역시 동구 동대전로 108, 2층 (대동, 동부가전랜드)",042-284-7080,127.4446647,36.3318570,대전광역시 동구 동대전로 108
(가)분당건강안마원,"경기도 성남시 분당구 돌마로 47, 806호 (금곡동, 이코노샤르망)",031-717-3132,127.1072135,37.3503814,경기도 성남시 분당구 돌마로 47 이코노샤르망
앞산,대구광역시 남구 대명로 218 (대명동),053-628-8745,128.5811799,35.8404701,대구광역시 남구 대명로 218
용인안마지압원,"경기도 용인시 수지구 만현로 88 (상현동, 상현종합상가)",031)266-7275,127.0853324,37.3089181,경기도 용인시 수지구 만현로 88 상현종합상가
약손경락지압원,"부산광역시 동래구 명륜로103번길 2, 2층 (명륜동)",051-557-1470,129.0828070,35.2033378,부산광역시 동래구 명륜로103번길 2
홍콩안마시술소,대구광역시 달서구 달구벌대로251안길 29 (이곡동),581-2350,128.5054062,35.8533066,대구광역시 달서구 달구벌대로251안길 29
전통경락안마원,"경상북도 경주시 동문로 64, 장미동산 타워 상가동 204호 (성동동)",,129.2142958,35.8501437,경상북도 경주시 동문로 64
건강제주안마지압원,"제주특별자치도 제주시 선덕로 18, 5층 (연동, 진일빌딩)",064-744-9633,126.4984492,33.4854270,제주특별자치도 제주시 선덕로 18 진일빌딩
손박사지압안마원,"서울특별시 영등포구 여의대방로 197, 2층 (신길동)",02-822-4441,126.9218606,37.5046367,서울특별시 영등포구 여의대방로 197
약손안마원,"서울특별시 서초구 방배로 134, 2층 (방배동)",532-5630,126.9949497,37.4861992,서울특별시 서초구 방배로 134
톡톡건강안마원,"부산광역시 해운대구 대천로 205, 303호 (좌동, 벽산1차아파트)",,129.1799815,35.1705655,부산광역시 해운대구 대천로 205 벽산1차아파트
수성매니어건강안마원,"대구광역시 수성구 범어로16길 14, 2층 (범어동)",053-754-8388,128.6363519,35.8559072,대구광역시 수성구 범어로16길 14
대명안마원,"서울특별시 강서구 까치산로 23-9, 주병빌딩 3층 (화곡동)",0226032354,126.8428113,37.5423269,서울특별시 강서구 까치산로 23-9 주병빌딩
평화안마원,"강원도 원주시 남원로 659-2, 106호 (명륜동)",,127.9538809,37.3418279,강원도 원주시 남원로 659-2
우리전통안마원,"부산광역시 연제구 과정로 202, 2층 (연산동)",,129.1052502,35.1879870,부산광역시 연제구 과정로 202
가나안보건안마원,충청남도 서산시 대사동4길 2 (동문동),041-667-6608,126.4577159,36.7837855,충청남도 서산시 대사동4길 2
밝은세상안마원 두류역점,"대구광역시 달서구 두류공원로 267, 2층 (두류동)",053-658-8885,128.5576985,35.8568668,대구광역시 달서구 두류공원로 267
태백건강안마원,"강원도 태백시 황지로 34-1, 2층 (황지동)",033-552-6537,128.9909796,37.1618345,강원도 태백시 황지로 34-1
힐링안마원,"경기도 동두천시 강변로454번길 2, 1층 (생연동)",,127.0512868,37.9094285,경기도 동두천시 강변로454번길 2
금왕지압안마원,"충청북도 음성군 금왕읍 금석로 53-2, 2층",043-878-0611,127.5985054,36.9902975,충청북도 음성군 금왕읍 금석로 53-2
힐링안마수기센터,"광주광역시 서구 치평로 116, 3층 304호 (치평동, 월계수타운)",,126.8476586,35.1576683,광주광역시 서구 치평로 116 월계수타운
가고파안마원,"울산광역시 남구 봉월로 162, 2층층 (신정동)",227-1003,129.3077231,35.5466826,울산광역시 남구 봉월로 162
강남안마원,강원도 원주시 치악로 1803 (명륜동),,127.9544751,37.3430432,강원도 원주시 치악로 1803 남부시장
평강안마원,"서울특별시 구로구 새말로 102, 신도림포스빌 401호 (구로동)",860-8275,126.8914054,37.5057801,서울특별시 구로구 새말로 102 신도림포스빌
건강안마원,"서울특별시 구로구 고척로4길 7, 1층 (오류동)",02-2685-0116,126.8411364,37.4957587,서울특별시 구로구 고척로4길 7
뉴그린안마원,"부산광역시 중구 중앙대로 129, 503호 (대창동1가)",466-8575,129.0368231,35.1092487,부산광역시 중구 중앙대로 129
약손안마원,전라북도 전주시 덕진구 견훤왕궁로 258 (인후동2가),063-244-0003,127.1455617,35.8410749,전라북도 전주시 덕진구 견훤왕궁로 258
내몸에약손안마원,"서울특별시 성북구 동소문로20나길 47, 코아루센타시아 209, 210호 (동선동1가)",02-923-7577,127.0191608,37.5930408,서울특별시 성북구 동소문로20나길 47 코아루센타시아
대동안마자압원,부산광역시 서구 구덕로 284 (동대신동1가),245-6123,129.0185183,35.1094028,부산광역시 서구 구덕로 284
소문난안마원,"충청남도 예산군 예산읍 천변로 202, 삼양빌딩",,126.8510864,36.6788992,충청남도 예산군 예산읍 천변로 202 삼양빌딩
한성웰빙안마원,"충청북도 제천시 의림대로33길 70, 덕일한마음아파트 상가9동 1층 107호 (청전동)",043-644-7525,128.2081973,37.1470563,충청북도 제천시 의림대로33길 70 덕일한마음아파트
도담 손 안마원,"광주광역시 서구 풍암순환로 183, 2층 215호 (풍암동, 우미광장아파트)",062-651-1530,126.8812499,35.1268362,광주광역시 서구 풍암순환로 183 우미광장아파트
국가대표안마원,"경기도 부천시 길주로 276, 무광오피스텔 404호 (중동)",032-327-8575,126.7728595,37.5029457,경기도 부천시 길주로 276 무광오피스빌딩
바른손 건강마사지 안마원,"광주광역시 서구 시청로56번길 8, 세븐오피스텔 4층 (치평동)",062-383-1525,126.8527226,35.1532763,광주광역시 서구 시청로56번길 8 세븐오피스텔
건강드림 안마센터,"광주광역시 서구 화운로156번길 26-1, 4층 (화정동)",,126.8794910,35.1530620,광주광역시 서구 화운로156번길 26-1
해광지압원,충청북도 청주시 청원구 향군로 133-1 (내덕동),,127.4800034,36.6562325,충청북도 청주시 청원구 향군로 133-1
벧엘새아침안마원,"경기도 고양시 덕양구 토당로 18, 204호 (토당동, 피렌체뷰)",031-972-8546,126.8232006,37.6182863,경기도 고양시 덕양구 토당로 18 피렌체뷰
한국안마원,충청북도 청주시 흥덕구 직지대로743번길 28 (운천동),,127.4746820,36.6449092,충청북도 청주시 흥덕구 직지대로743번길 28
약손안마원,경상남도 합천군 합천읍 옥산로 67,,128.1624820,35.5684877,경상남도 합천군 합천읍 옥산로 67
정지압안마원,서울특별시 중구 동호로12길 60 (신당동),2233-2421,127.0118530,37.5578111,서울특별시 중구 동호로12길 60
호산나안마원,"전라북도 전주시 덕진구 안덕원로 252 (인후동1가, 대영빌딩)",063-243-7582,127.1545521,35.8363217,전라북도 전주시 덕진구 안덕원로 252 대영빌딩
건지약손안마원,전라북도 전주시 덕진구 붓내3길 40 (송천동2가),241-6678,127.1255648,35.8665352,전라북도 전주시 덕진구 붓내3길 40
지압안마원,"경기도 용인시 기흥구 흥덕2로 42 (영덕동, 휴먼시아 상가동201호)",031-284-8348,127.0736328,37.2714848,경기도 용인시 기흥구 흥덕2로 42 휴먼시아 흥덕마을4단지
건강플러스지압안마원,"서울특별시 영등포구 당산로 122, 121호 (당산동3가, 우미빌딩)",,126.8969496,37.5254126,서울특별시 영등포구 당산로 122 우미빌딩
의손안마원,"경기도 고양시 덕양구 용현로5번길 24, 2층 201호 (행신동, 백산오피스텔)",,126.8350152,37.6135322,경기도 고양시 덕양구 용현로5번길 24 백산오피스텔
북창지압안마원,"서울특별시 중구 남대문로1길 26-3, 3층 (북창동)",,126.9776247,37.5623570,서울특별시 중구 남대문로1길 26-3
평온건강안마원,"경기도 용인시 처인구 금령로 64, 7층 707호 (김량장동)",338-8575,127.2036379,37.2346185,경기도 용인시 처인구 금령로 64
은혜지압안마원,경기도 안산시 단원구 광덕1로 56 (초지동),031-439-8575,126.8157718,37.3082167,경기도 안산시 단원구 광덕1로 56 로얄프라자
경락약손안마원,"경기도 시흥시 중심상가로 161, 407호 (정왕동, 그라미아빌딩)",031-432-6282,126.7339113,37.3460765,경기도 시흥시 중심상가로 161 그라미아빌딩
우리들연합안마원,충청북도 청주시 서원구 사직대로 164  (사창동),272-2030,127.4656720,36.6350115,충청북도 청주시 서원구 사직대로 164 청주시보훈회관
한빛건강안마원,"경기도 용인시 처인구 금령로40번길 13, 201호 (김량장동, 조양유통상가)",031-321-7575,127.2011219,37.2336262,경기도 용인시 처인구 금령로40번길 13 조양유통상가아파트
담손정통지압안마원,"서울특별시 양천구 목동중앙북로 38, 지하114호 (목동, 목동롯데캐슬위너상가동)",,126.8673143,37.5467382,서울특별시 양천구 목동중앙북로 38 롯데캐슬위너아파트
건강안마원,"서울특별시 양천구 월정로 33 (신월동, 지층)",2690-3707,126.8426296,37.5227303,서울특별시 양천구 월정로 33
도솔안마원,충청북도 청주시 서원구 청남로 1999 (분평동),043)287-0626,127.4842474,36.6108769,충청북도 청주시 서원구 청남로 1999
새아침안마원,전라북도 전주시 완산구 감나무로 62-6 (서신동),063-255-0058,127.1194593,35.8317565,전라북도 전주시 완산구 감나무로 62-6
청솔안마원,"서울특별시 은평구 은평로13길 5-14, 4층 402호 (응암동, 삼부하이빌)",02-546-8557,126.9249126,37.6017019,서울특별시 은평구 은평로13길 5-14 삼부하이빌
송안마원,경기도 파주시 조리읍 공릉장터길 27 (좌측 1호),0319471318,126.8057250,37.7430763,경기도 파주시 조리읍 공릉장터길 27 무궁화아파트
탑안마원,"경기도 군포시 번영로 489, 209호 (산본동)",399-7575,126.9315862,37.3579430,경기도 군포시 번영로 489 중앙타워
약손헬스케어안마원,"서울특별시 구로구 개봉로6길 8, 에스엠벨리체 2층 201호 (개봉동)",02-2685-2065,126.8569696,37.4867895,서울특별시 구로구 개봉로6길 8
영광안마원,대구광역시 중구 중앙대로79길 13 (남일동),053-253-1889,128.5928115,35.8691135,대구광역시 중구 중앙대로79길 13 근린생활시설
한중안마원,경기도 평택시 조개터로2번길 35 (합정동),684-1546,127.1027687,36.9868393,경기도 평택시 조개터로2번길 35 유경아트빌3차
신의손지압원,"울산광역시 남구 봉월로82번길 6, 1층 (신정동)",,129.3063172,35.5398347,울산광역시 남구 봉월로82번길 6
웰빙케어안마원,경기도 남양주시 화도읍 마석중앙로37번길 47,591-5188,127.3033348,37.6570225,경기도 남양주시 화도읍 마석중앙로37번길 47 별나라타워
장미안마시술소,"경상북도 안동시 경동로 723 (법흥동,227-14)",859-2227,128.7370713,36.5640637,경상북도 안동시 경동로 723
수풀림지압원,제주특별자치도 제주시 인다4길 41 (아라일동),,126.5489484,33.4707238,제주특별자치도 제주시 인다4길 41 채연하우스
휴앤케어안마원,"대구광역시 북구 매전로 80, 2층 (태전동)",311-2002,128.5468571,35.9128522,대구광역시 북구 매전로 80
문산제일안마원,"경기도 파주시 문산읍 문향로49번길 20, 303호 (로얄빌딩)",031-953-8387,126.7843218,37.8565149,경기도 파주시 문산읍 문향로49번길 20 로얄빌딩
라파지압원,"제주특별자치도 제주시 서사로 165-1, 2층 (오라일동)",702-6180,126.5199645,33.4974684,제주특별자치도 제주시 서사로 165-1
그린힐마사지지압안마원,"경기도 군포시 산본로 276, 지하1층 (금정동)",031-396-8770,126.9373336,37.3568137,경기도 군포시 산본로 276
약손지압안마원,"경기도 고양시 일산서구 일산로 562, 비101호 (일산동, 신일산연합상가)",031-915-1375,126.7659278,37.6788943,경기도 고양시 일산서구 일산로 562 신일산연합상가
유주지압원,"전라북도 전주시 덕진구 두간9길 3, 4층 (송천동1가)",,127.1160498,35.8651857,전라북도 전주시 덕진구 두간9길 3
신의한손안마원,"서울특별시 은평구 통일로 803-1, 2층 (대조동)",356-7445,126.9242831,37.6157238,서울특별시 은평구 통일로 803-1 서부빌딩
오병헌건강안마원,경기도 용인시 처인구 중부대로 1414-1 (김량장동),031-322-8993,127.2014520,37.2326557,경기도 용인시 처인구 중부대로 1414-1
약손플러스건강안마원,서울특별시 용산구 대사관로31길 7-10 (한남동),02-6389-7575,127.0054024,37.5339530,서울특별시 용산구 대사관로31길 7-10
약손지압안마원,"경기도 안양시 만안구 안양로 303, 8층 807호 (안양동, 안양 메쎄 포스빌)",445-8275,126.9208266,37.3988146,경기도 안양시 만안구 안양로 303 안양 메쎄 포스빌
백암지압안마원,경상북도 울진군 평해읍 평해로 67-1,054-787-3665,129.4415289,36.7266728,경상북도 울진군 평해읍 평해로 67-1 백암지압안마원
허준안마원,"대구광역시 중구 중앙대로79길 13, 평강빌딩동 201호 (남일동, 근린생활시설)",053-254-7579,128.5928115,35.8691135,대구광역시 중구 중앙대로79길 13 근린생활시설
박찬일안마원,경기도 이천시 중리천로82번길 26 (중리동),638-6936,127.4459548,37.2773430,경기도 이천시 중리천로82번길 26 중리빌딩
자연미건강약손,광주광역시 북구 설죽로 306 (오치동),062-267-8963,126.8985704,35.1868181,광주광역시 북구 설죽로 306
평화지압안마원,"경기도 안산시 상록구 시낭로 38-1, 3층 301호 (월피동)",031-401-1966,126.8537976,37.3343387,경기도 안산시 상록구 시낭로 38-1
내손안마원,"경기도 의왕시 포일세거리로 3, 4층 401호 (포일동, 파레사타워)",031-422-3507,126.9847483,37.3959581,경기도 의왕시 포일세거리로 3 파레사타워
정통안마원,충청북도 청주시 청원구 향군로 156  (내덕동),2245830,127.4790214,36.6580182,충청북도 청주시 청원구 향군로 156
용희재,"경기도 안산시 상록구 석호로 88 (사동,2층)",437-7975,126.8470155,37.3036256,경기도 안산시 상록구 석호로 88
오케이안마원,"제주특별자치도 제주시 노연로 114-1 (연동,3층)",064-711-5535,126.4923522,33.4855846,제주특별자치도 제주시 노연로 114-1 수영빌딩
행복건강안마원,경기도 양주시 부흥로 1935 (광사동),031-878-2218,127.0770737,37.7949688,경기도 양주시 부흥로 1935
한강지압안마원,경상북도 구미시 상사동로 163-8 (사곡동),054-464-4121,128.3582603,36.0992445,경상북도 구미시 상사동로 163-8
덕계지압안마원,"경기도 양주시 평화로1466번길 8, 1층 (덕계동)",858-8088,127.0488454,37.8208901,경기도 양주시 평화로1466번길 8
진명지압원,"광주광역시 북구 부남길15번길 28, 1층 (문흥동)",,126.9261623,35.1884739,광주광역시 북구 부남길15번길 28
약손지압원,경상북도 칠곡군 왜관읍 중앙로7길 21-1,054-973-4558,128.3968707,35.9912237,경상북도 칠곡군 왜관읍 중앙로7길 21-1
두드림안마원,경상북도 칠곡군 왜관읍 중앙로10길 7,054-977-8875,128.3987113,35.9898984,경상북도 칠곡군 왜관읍 중앙로10길 7
약손지압안마원,"대구광역시 중구 태평로 177 (태평로1가, 태평라이프아파트)",0534257695,128.5976308,35.8748391,대구광역시 중구 태평로 177 태평라이프아파트
제일안마원,"경기도 고양시 덕양구 화정로 53-1, 글로리아빌딩 3층 309호 (화정동)",031-963-9222,126.8323997,37.6354597,경기도 고양시 덕양구 화정로 53-1 글로리아빌딩
양천안마지압원,"서울특별시 양천구 중앙로45길 8-30 (신정동, 2층)",02-2696-8280,126.8518897,37.5208842,서울특별시 양천구 중앙로45길 8-30
세명안마원,"서울특별시 용산구 후암로 33, 지하1층 (후암동)",02-3789-0330,126.9775364,37.5487392,서울특별시 용산구 후암로 33
오석안마원,"충청북도 청주시 청원구 공항로150번길 94  (율량동,2층(201호))",043-212-0031,127.4891554,36.6702722,충청북도 청주시 청원구 공항로150번길 94
한국정통지압안마원,경기도 파주시 문화로 5 (금촌동),946-0866,126.7792459,37.7557413,경기도 파주시 문화로 5
제일안마원,"대구광역시 동구 율하동로23길 38, 1층 (율하동)",053-290-0116,128.6979942,35.8704150,대구광역시 동구 율하동로23길 38
승록수기안마원,충청북도 청주시 흥덕구 강내면 청주역로 213-4,231-6267,127.3853919,36.6350735,충청북도 청주시 흥덕구 강내면 청주역로 213-4
맥안마원,"경기도 파주시 금정14길 32, 1층 (금촌동)",941-3557,126.7764935,37.7602947,경기도 파주시 금정14길 32
청송안마원,경기도 의왕시 오전천로 26 (고천동),031-421-6346,126.9762312,37.3497633,경기도 의왕시 오전천로 26
원지압안마원,충청북도 청주시 흥덕구 풍년로 102  (가경동),237-9666,127.4361238,36.6220888,충청북도 청주시 흥덕구 풍년로 102
회천지압안마원,"경기도 양주시 덕정길 3, 2층 (덕정동)",031-858-0811,127.0624701,37.8443421,경기도 양주시 덕정길 3
신제주지압원,"제주특별자치도 제주시 삼무로 74, 2층 (연동)",064-749-7575,126.4944503,33.4895793,제주특별자치도 제주시 삼무로 74
드림안마시술원,강원도 속초시 중앙로108번길 16 (청학동),,128.5882555,38.2011860,강원도 속초시 중앙로108번길 16
행복지압안마원,경기도 의왕시 사근행궁길 9 (고천동),455-4795,126.9751186,37.3475752,경기도 의왕시 사근행궁길 9
24시안마원,제주특별자치도 제주시 서광로20길 7 (삼도일동),064-723-5339,126.5221473,33.4988322,제주특별자치도 제주시 서광로20길 7
다나안마원,"경기도 고양시 덕양구 마상로 140, 임성빌딩 2층 (주교동)",031-966-8576,126.8382320,37.6591675,경기도 고양시 덕양구 마상로 140 임성빌딩
39.27 만나 지압원,제주특별자치도 제주시 서광로 230 (삼도일동),064-755-3927,126.5210121,33.4995946,제주특별자치도 제주시 서광로 230
신성안마원,"경기도 안양시 만안구 수리산로12번길 26, 1층 (안양동)",031-465-7525,126.9285038,37.3862209,경기도 안양시 만안구 수리산로12번길 26
도봉안마원,서울특별시 도봉구 노해로60길 104 (쌍문동),900-6889,127.0325617,37.6470049,서울특별시 도봉구 노해로60길 104
계수나무안마원,"인천광역시 부평구 수변로9번길 4, 3층 (부개동, 효정빌딩)",032-362-0505,126.7394093,37.4876590,인천광역시 부평구 수변로9번길 4 효정빌딩
동일지압안마원,서울특별시 동작구 동작대로17길 11 (사당동),585-0238,126.9804739,37.4827173,서울특별시 동작구 동작대로17길 11 사당동근생주택
아산건강안마원,"충청남도 아산시 청운로 69, 2층 (온천동)",548-8338,127.0064819,36.7802515,충청남도 아산시 청운로 69 조영빌딩
온양보건안마원,"충청남도 아산시 신정호길38번길 64 (방축동, 1층)",041-544-0055,126.9844787,36.7790673,충청남도 아산시 신정호길38번길 64
장수안마원,"충청남도 아산시 충무로 40, 온양빌딩 2층 (온천동)",041-549-7975,127.0056588,36.7846403,충청남도 아산시 충무로 40 온양빌딩
김성기지압안마원,"충청남도 천안시 동남구 봉정로 35 (봉명동,2층)",571-1180,127.1393966,36.8053299,충청남도 천안시 동남구 봉정로 35 합기도검무관
주민보건안마센터,충청남도 천안시 서북구 봉명로 18 (쌍용동),041-572-9730,127.1302843,36.8074871,충청남도 천안시 서북구 봉명로 18 정석빌딩
참존안마원,"인천광역시 서구 청라에메랄드로102번길 8-22, 403호 (청라동, 미라클프라자)",032-566-5560,126.6589366,37.5334033,인천광역시 서구 청라에메랄드로102번길 8-22 미라클프라자
건강약손안마원,"충청남도 서산시 시장2로 32, 1층 (동문동)",041-663-9297,126.4583904,36.7829098,충청남도 서산시 시장2로 32
김영수지압안마원,인천광역시 서구 서달로 14-8 (석남동),032-431-7358,126.6793483,37.4995521,인천광역시 서구 서달로 14-8
힐링안마원,충청남도 서산시 해미면 서문4길 35,041-688-7599,126.5447837,36.7171472,충청남도 서산시 해미면 서문4길 35
두드림안마원,"충청남도 천안시 동남구 청수14로 102, 608호 (청당동)",041-566-1275,127.1573869,36.7855627,충청남도 천안시 동남구 청수14로 102
태양보건바우처지압 안마원,"충청남도 천안시 동남구 중앙로 65, 2층 (영성동)",041-522-4646,127.1524168,36.8042238,충청남도 천안시 동남구 중앙로 65 천일건강원
엔돌핀안마원,"경기도 오산시 오산로 347, 2층 (궐동, 보화빌딩)",031-376-7579,127.0670033,37.1576921,경기도 오산시 오산로 347
전통약손안마원,"서울특별시 은평구 통일로 833-5, 2층 201,202호 (대조동)",02-389-3897,126.9217977,37.6175608,서울특별시 은평구 통일로 833-5
가능안마원,경기도 의정부시 가능로74번길 39-18 (의정부동),031-871-5015,127.0398644,37.7449109,경기도 의정부시 가능로74번길 39-18
건강한지압안마원,"서울특별시 송파구 백제고분로48길 4, 3층 (방이동)",02-371-0816,127.1136646,37.5116736,서울특별시 송파구 백제고분로48길 4
청평안마원,"서울특별시 송파구 백제고분로 276 (석촌동,공익빌딩 405호)",4137040,127.0972748,37.5021105,서울특별시 송파구 백제고분로 276 공익빌딩
건강 지압 안마원,경기도 여주시 대신면 여양로 1484,031-883-8799,127.5835131,37.3733038,경기도 여주시 대신면 여양로 1484
팜스케어안마원,"서울특별시 송파구 가락로 115 (석촌동,3층)",424-5707,127.1088763,37.5017244,서울특별시 송파구 가락로 115 효산빌딩
라파건강안마원,"서울특별시 성동구 행당로 87, 지하207호 (행당동, 대림리빙프라자)",02-2291-7579,127.0285419,37.5573015,서울특별시 성동구 행당로 87 행당동 대림아파트
솔모루지압안마원,경기도 포천시 소흘읍 송우로 65,,127.1416385,37.8293912,경기도 포천시 소흘읍 송우로 65 메듀파크
제일전통안마원,"서울특별시 성동구 고산자로 253, 301호 (도선동, 다남매 Tower)",02-2226-6007,127.0356135,37.5623929,서울특별시 성동구 고산자로 253 다남매 Tower
시온안마원,"경기도 의정부시 청사로 41, 402호 (금오동, 금오삼성프라자)",031-853-5675,127.0697270,37.7519512,경기도 의정부시 청사로 41 삼성프라자
힐링터치안마원,"서울특별시 성북구 돌곶이로 75, 4층 (석관동, 용호빌딩)",,127.0574858,37.6100929,서울특별시 성북구 돌곶이로 75 용호빌딩
약손지압안마원,충청북도 음성군 음성읍 설성로 124,873-7579,127.6959472,36.9301213,충청북도 음성군 음성읍 설성로 124
사랑안마원,"충청남도 아산시 충무로40번길 4, B동 1층 (온천동)",,127.0056753,36.7844667,충청남도 아산시 충무로40번길 4
약손물리안마원,"충청남도 아산시 충무로 58, 1층 (권곡동)",,127.0060822,36.7862753,충청남도 아산시 충무로 58
행복안마원,전라북도 군산시 팔마로 77 (서흥남동),,126.7095980,35.9739564,전라북도 군산시 팔마로 77
굿안마원,"인천광역시 남동구 만수로 21, 2층 (만수동)",032-289-3535,126.7311554,37.4590052,인천광역시 남동구 만수로 21
해피안마원,인천광역시 부평구 원길로 34 (청천동),032-503-0191,126.7149218,37.5066121,인천광역시 부평구 원길로 34 중앙프라자
의령지압안마원,"경상남도 의령군 의령읍 의병로17길 3-1, 1층 102호",,128.2598197,35.3198176,경상남도 의령군 의령읍 의병로17길 3-1 모던헤어
참사랑안마원,"충청남도 태안군 태안읍 중앙로 31-2, 2층",674-1577,126.2934053,36.7557750,충청남도 태안군 태안읍 중앙로 31-2
국민건강안마원,"인천광역시 부평구 수변로 13, 3층 (부개동)",032-208-8890,126.7395012,37.4879110,인천광역시 부평구 수변로 13
부평약손안마원,"인천광역시 부평구 부평대로167번길 33, 2층 201호 (부평동)",032-511-1600,126.7187676,37.5060949,인천광역시 부평구 부평대로167번길 33
새아침안마원,"인천광역시 남동구 장승남로 36 (만수동, (305호))",464-7475,126.7362018,37.4431662,인천광역시 남동구 장승남로 36
예산건강 안마원,충청남도 예산군 예산읍 주교로 73,041-335-1230,126.8307848,36.6877387,충청남도 예산군 예산읍 주교로 73
길안마원,충청북도 옥천군 옥천읍 금장로 53-10,,127.5705652,36.3007527,충청북도 옥천군 옥천읍 금장로 53-10
건강중앙안마원,"충청북도 제천시 풍양로 108 (중앙로1가, 중앙시장상가)",043-646-6258,128.2112696,37.1366420,충청북도 제천시 풍양로 108 중앙시장상가
라파엘안마원,충청북도 음성군 음성읍 중앙로124번길 16,872-3500,127.6907597,36.9352112,충청북도 음성군 음성읍 중앙로124번길 16
홍성보건안마원,"충청남도 홍성군 홍성읍 조양로 188, 2층",041-631-8866,126.6704197,36.6004353,충청남도 홍성군 홍성읍 조양로 188
부여평안안마,"충청남도 부여군 부여읍 사비로99번길 8-8, 2층",041-836-3511,126.9101689,36.2821326,충청남도 부여군 부여읍 사비로99번길 8-8
엄마안마원,충청남도 계룡시 엄사면 엄사중앙로 105-1,042-840-7364,127.2420939,36.2900538,충청남도 계룡시 엄사면 엄사중앙로 105-1
서천보건센터안마원,충청남도 서천군 서천읍 서천로 57,041-953-7553,126.6931836,36.0764018,충청남도 서천군 서천읍 서천로 57
홍주늘푸른안마원,충청남도 홍성군 홍성읍 조양로151번길 48,,126.6674498,36.6035279,충청남도 홍성군 홍성읍 조양로151번길 48
천안보건안마센터,"충청남도 천안시 서북구 봉정로 221, 3층 (성정동)",041-523-9988,127.1434392,36.8218835,충청남도 천안시 서북구 봉정로 221 신세계빌딩
몸사랑안마센터,충청남도 천안시 서북구 쌍용15길 5 (쌍용동),070-7519-5009,127.1210650,36.7998457,충청남도 천안시 서북구 쌍용15길 5 구워구워치킨
오철현바우처안마센터,"충청남도 천안시 동남구 봉서8길 13, 상가동 202호 (봉명동)",576-1058,127.1326888,36.8108627,충청남도 천안시 동남구 봉서8길 13 청솔3차아파트
백석보건안마센터,"충청남도 천안시 서북구 백석3로 134, 202호 (백석동, 대건프라자)",041-568-0088,127.1250258,36.8221802,충청남도 천안시 서북구 백석3로 134 대건프라자
신보철지압안마센터,"충청남도 천안시 서북구 쌍용11길 16, 2층 (쌍용동)",,127.1204131,36.8024467,충청남도 천안시 서북구 쌍용11길 16 서신인테리어
최재민보건지압안마원,충청남도 홍성군 홍성읍 의사로52번길 17,,126.6732015,36.6022359,충청남도 홍성군 홍성읍 의사로52번길 17
힐링투유안마원,"서울특별시 성북구 아리랑로 24, 2층 (동선동5가)",02-928-2754,127.0162643,37.5949275,서울특별시 성북구 아리랑로 24
힐링캠프훈풀어드림안마원,"서울특별시 서초구 서초중앙로24길 18 (서초동, 5층)",573-3007,127.0155336,37.4947512,서울특별시 서초구 서초중앙로24길 18
아바통증완화클리닉안마원,"서울특별시 서초구 서초중앙로 107, 502호 (서초동)",522-2523,127.0137966,37.4914591,서울특별시 서초구 서초중앙로 107 삼화빌딩
명품체질지압안마원,서울특별시 동대문구 경동시장로10길 2 (제기동),921-0696,127.0407795,37.5811984,서울특별시 동대문구 경동시장로10길 2
건강지킴이안마원,"대구광역시 남구 대봉로 42 (봉덕동, 한도아파트)",053-654-0115,128.6043937,35.8424877,대구광역시 남구 대봉로 42 한도아파트
심광안마원,서울특별시 도봉구 노해로60길 26 (쌍문동),02-900-5173,127.0344053,37.6502257,서울특별시 도봉구 노해로60길 26
나클린안마원,"서울특별시 도봉구 마들로 624, 상가동 206호 (방학동, 대상타운현대아파트)",995-4000,127.0466493,37.6657881,서울특별시 도봉구 마들로 624 대상타운현대아파트
8복안마원,"서울특별시 강서구 곰달래로53가길 13, 지층 (화곡동)",0220615515,126.8594877,37.5339149,서울특별시 강서구 곰달래로53가길 13
마곡지압안마원,"서울특별시 강서구 강서로 462, 2층 203호 (등촌동, 대룡드림타워-1)",0236652678,126.8414070,37.5666172,서울특별시 강서구 강서로 462 대룡드림타워-1
동산안마원,대구광역시 서구 국채보상로 440 (내당동),572-1515,128.5787950,35.8703939,대구광역시 서구 국채보상로 440
이창숙안마원,"대구광역시 서구 국채보상로75길 36-2, 1층 (비산동)",053-564-8575,128.5724897,35.8754021,대구광역시 서구 국채보상로75길 36-2
희망안마원,경상북도 예천군 풍양면 낙상2길 10,,128.3025433,36.5079527,경상북도 예천군 풍양면 낙상2길 10
동작약손지압안마원,"서울특별시 동작구 노량진로 110, 307호 (노량진동)",02-822-9575,126.9380558,37.5132094,서울특별시 동작구 노량진로 110
김기태안마원,"서울특별시 동대문구 약령중앙로4길 9, 2층 (제기동)",,127.0376913,37.5799568,서울특별시 동대문구 약령중앙로4길 9
청량리명안마원,"서울특별시 동대문구 왕산로 228, 2층 (전농동)",961-8100,127.0477725,37.5818277,서울특별시 동대문구 왕산로 228
강서지압안마원,"서울특별시 강서구 강서로 385, 1004호 (마곡동, 우성에스비타워)",02-2662-7722,126.8382660,37.5601067,서울특별시 강서구 강서로 385 우성에스비타워
참좋은지압안마원,"서울특별시 동대문구 왕산로 247-1, 202호 (청량리동)",,127.0489994,37.5834282,서울특별시 동대문구 왕산로 247-1
동양 안마지압원,인천광역시 동구 송현로11번길 10 (송현동),032-762-3766,126.6336915,37.4780265,인천광역시 동구 송현로11번길 10
무병장수안마원,"서울특별시 동대문구 왕산로33길 21 (제기동,2층)",969-1475,127.0417184,37.5802671,서울특별시 동대문구 왕산로33길 21
인천해광안마센터,"인천광역시 동구 송현로 14, 5층 (송현동, 솔빛빌딩)",032-777-3288,126.6345013,37.4775629,인천광역시 동구 송현로 14 솔빛빌딩
건강지압안마원,"서울특별시 동대문구 보문로 18 (신설동,보문로 16)",953-5050,127.0234427,37.5772300,서울특별시 동대문구 보문로 18
가고파안마원,경상북도 안동시 경동로 715 (법흥동),859-8855,128.7362264,36.5639020,경상북도 안동시 경동로 715
랑 안마원,"인천광역시 중구 우현로 78 (인현동, 2층)",032-764-0999,126.6304572,37.4738609,인천광역시 중구 우현로 78
약손지압안마원,"서울특별시 동작구 동작대로 89, 골든시네마타워 402호 (사당동)",582-8275,126.9816553,37.4846358,서울특별시 동작구 동작대로 89 골든시네마타워
기적의약손안마원,"인천광역시 부평구 체육관로 14, 3층 308호 (삼산동, 삼산지구 복합시설)",032-362-6677,126.7330981,37.5083887,인천광역시 부평구 체육관로 14 삼산지구 복합시설
한강안마원,"서울특별시 동작구 노량진로 206 (노량진동,3층 301호)",814-5114,126.9486586,37.5127519,서울특별시 동작구 노량진로 206 백명트렌디타워
승록 안마원,"경기도 군포시 번영로 489, 301호 (산본동, 중앙타워)",398-8586,126.9315862,37.3579430,경기도 군포시 번영로 489 중앙타워
힐링숲건강안마원,"대구광역시 수성구 명덕로 441, 8층 (수성동3가)",053-741-0407,128.6183088,35.8544560,대구광역시 수성구 명덕로 441
명인지압안마원,"서울특별시 서초구 서초대로 306 (서초동, 서초1동우편취급소)",,127.0151597,37.4938614,서울특별시 서초구 서초대로 306 서초1동우편취급소
편백 힐링 안마원,"서울특별시 중랑구 면목로 456, 1층 (면목동, 한성빌딩)",02-433-9675,127.0869092,37.5925729,서울특별시 중랑구 면목로 456 한성빌딩
푸른숲안마원,"서울특별시 성북구 동소문로 248, 102동 2층 2호 (길음동, 삼부아파트상가)",02-909-7997,127.0236736,37.6026982,서울특별시 성북구 동소문로 248 삼부아파트
약손케어안마원,"서울특별시 성북구 삼양로12길 7 (길음동,지하1층)",02-985-7572,127.0231023,37.6101131,서울특별시 성북구 삼양로12길 7
도암안마원,"서울특별시 서초구 방배로13길 18 (방배동,방배아크로타워 213,214호)",583-7553,126.9953391,37.4831047,서울특별시 서초구 방배로13길 18 방배아크로타워
효자약손지압안마원,"서울특별시 종로구 자하문로 81, 2층 (신교동)",02-2231-7579,126.9701062,37.5832594,서울특별시 종로구 자하문로 81
카타리나안마원,"서울특별시 종로구 필운대로 15, 2층 (필운동)",736-5965,126.9692473,37.5775924,서울특별시 종로구 필운대로 15
강지압 안마원,"서울특별시 종로구 진흥로 432 (구기동,4층 3,4호)",02-379-3705,126.9566038,37.6082018,서울특별시 종로구 진흥로 432 요진오피스텔쉐레이
우리안마원,"서울특별시 종로구 사직로8길 42, 101동 719호 (내수동,벽산광화문시대)",02-725-3298,126.9731379,37.5737740,서울특별시 종로구 사직로8길 42 광화문시대
킴스약손케어안마원,"서울특별시 중랑구 망우로 332, 5층 (상봉동)",02-491-3435,127.0892876,37.5970058,서울특별시 중랑구 망우로 332
훈이안마원,충청북도 제천시 용두천로 154 (교동),043-653-3748,128.2148470,37.1407685,충청북도 제천시 용두천로 154
건강클리닉안마원,"서울특별시 성북구 한천로78길 36, 2층 (석관동)",969-0511,127.0643177,37.6121007,서울특별시 성북구 한천로78길 36
약손119안마원,"서울특별시 서대문구 신촌역로 4, 2층 (대현동)",332-4300,126.9431302,37.5571133,서울특별시 서대문구 신촌역로 4
약손지압안마원,"대구광역시 수성구 지범로 173, 6층 (지산동)",053-782-7566,128.6387849,35.8220289,대구광역시 수성구 지범로 173 대인빌딩
약손경락안마원,"서울특별시 서대문구 세무서길 84, 3층 (홍제동)",394-6969,126.9471555,37.5914047,서울특별시 서대문구 세무서길 84
상인건강안마원,"대구광역시 달서구 상인서로 76, 107동 207-1호 (상인동, 상인영남화성타운상가)",655-9933,128.5428614,35.8176833,대구광역시 달서구 상인서로 76 상인영남화성타운
힐링스토리안마원,"서울특별시 노원구 노해로 509, 3층 (상계동, 대국빌딩)",931-5550,127.0645555,37.6554113,서울특별시 노원구 노해로 509 대국빌딩
건강백세지압안마원,대구광역시 수성구 들안로54길 61 (수성동3가),053-754-0933,128.6205371,35.8529455,대구광역시 수성구 들안로54길 61
조아손안마원,"서울특별시 도봉구 노해로63길 84-9 (창동, 창동 SR스타빌)",02-996-7754,127.0472832,37.6525344,서울특별시 도봉구 노해로63길 84-9 창동 SR스타빌
정골약손안마원,"서울특별시 도봉구 해등로 200, 3층 (쌍문동)",02-900-5997,127.0345582,37.6582656,서울특별시 도봉구 해등로 200
남대현안마원,충청북도 제천시 숭문로14길 4-1 (의림동),642-7711,128.2083011,37.1404782,충청북도 제천시 숭문로14길 4-1
다다안마시술소,대구광역시 수성구 달구벌대로 2364 (수성동3가),053-751-3975,128.6211259,35.8590549,대구광역시 수성구 달구벌대로 2364
성산안마원,서울특별시 마포구 월드컵북로27길 10 (성산동),02-372-4126,126.9090730,37.5671048,서울특별시 마포구 월드컵북로27길 10
토닥토닥몸사랑안마원,"대구광역시 수성구 동대구로 345 (범어동, (범어역우방유쉘 지하1층 2-B02호))",053-964-9373,128.6256518,35.8617336,대구광역시 수성구 동대구로 345 범어역우방유쉘
제주통합안마원,제주특별자치도 제주시 아봉로 433 (월평동),"721-1111, 710-1220",126.5812628,33.4710118,제주특별자치도 제주시 아봉로 433 제주시각장애인복지관
참사랑약손지압안마원,부산광역시 영도구 청학로31번길 6 (청학동),051-415-5147,129.0602910,35.0918406,부산광역시 영도구 청학로31번길 6
청청안마원,"제주특별자치도 제주시 연신로 123 (이도이동,지하)",064-757-0987,126.5511735,33.4911622,제주특별자치도 제주시 연신로 123
행복안마원,"전라남도 여수시 미평로 79, 211호 (미평동, 주공상가)",,127.7089630,34.7702283,전라남도 여수시 미평로 79 주공상가
금정안마원,부산광역시 금정구 구서중앙로15번길 9 (구서동),051-582-9896,129.0895968,35.2544264,부산광역시 금정구 구서중앙로15번길 9
사랑안마원,"부산광역시 금정구 서부로 39, 지하1층,2층 (서동)",051-525-9697,129.1019220,35.2170691,부산광역시 금정구 서부로 39
정통안마원,"서울특별시 양천구 오목로 232, 3층 (신정동)",2558-6556,126.8632217,37.5257698,서울특별시 양천구 오목로 232 보성팰리스
뉴부일지압안마원,"경기도 부천시 경인로 263, 2층 (심곡본동)",032-655-8275,126.7848060,37.4831972,경기도 부천시 경인로 263
로하스안마원,"부산광역시 사상구 가야대로 258, 3층 (주례동)",051-312-8575,129.0009258,35.1500439,부산광역시 사상구 가야대로 258 부산의료기
다손안마원,"부산광역시 사상구 사상로 512, A-204호 (모라동, 모라리버빌)",051-304-9801,128.9893371,35.1900365,부산광역시 사상구 사상로 512 모라리버빌
김현희안마원,"부산광역시 사상구 가야대로 330, 4층 (주례동, 삼선빌딩)",805-7575,129.0085799,35.1506800,부산광역시 사상구 가야대로 330 삼선빌딩
라파참안마원,강원도 횡성군 횡성읍 읍마남로25번길 14-5,033-345-8889,127.9929402,37.4891981,강원도 횡성군 횡성읍 읍마남로25번길 14-5
광명바른손안마원,"경기도 광명시 디지털로33번길 5, 5층 (철산동, 그랜드프라자빌딩)",02-2612-1255,126.8705871,37.4745022,경기도 광명시 디지털로33번길 5
다나건강안마원,"경기도 광명시 너부대로 46, 1층 (광명동)",02-2617-6600,126.8503622,37.4779486,경기도 광명시 너부대로 46
철산안마시술소,"경기도 광명시 오리로854번길 16, 4층 (철산동, 금강빌딩)",2612-8460-2,126.8686359,37.4747483,경기도 광명시 오리로854번길 16 금강빌딩
치료손지압안마원,"경기도 부천시 부천로 113, 2층 (심곡동)",032-664-7111,126.7848188,37.4944593,경기도 부천시 부천로 113
자연안마원,"경기도 부천시 부천로 173, 2층 (춘의동)",032-667-1414,126.7857850,37.4994457,경기도 부천시 부천로 173
윤정문안마원,"서울특별시 성동구 성수일로10길 32, (주)창미건물 3층 (성수동2가)",,127.0534046,37.5462291,서울특별시 성동구 성수일로10길 32 창미빌딩
대체안마원,제주특별자치도 제주시 귀아랑1길 3 (연동),064-749-2929,126.4977968,33.4924473,제주특별자치도 제주시 귀아랑1길 3
목동건강안마원,"서울특별시 양천구 오목로54길 2, 3층 (목동)",,126.8732772,37.5243505,서울특별시 양천구 오목로54길 2
네이버안마원,경기도 부천시 중동로248번길 52  (중동),321-9717,126.7716279,37.5011890,경기도 부천시 중동로248번길 52 네이버시티빌딩
이희진안마원,경기도 부천시 석천로 38  (상동),667-6500,126.7604394,37.4906475,경기도 부천시 석천로 38
서울안마원,"경기도 부천시 부일로 320, 203호 (중동)",665-5932,126.7655589,37.4881959,경기도 부천시 부일로 320
물방울안마시술소,경기도 부천시 부일로199번길 21 (상동),327-1588,126.7518311,37.4894138,경기도 부천시 부일로199번길 21 황금프라자빌딩
가나안지압안마원,"경기도 부천시 부일로 414-6, 2층 (심곡동, 한일코지세상)",667-7575,126.7760686,37.4866527,경기도 부천시 부일로 414-6 한일코지세상
전부다약손약초콜,경상북도 포항시 북구 칠성천길 98 (죽도동),,129.3646533,36.0357216,경상북도 포항시 북구 칠성천길 98
성혜지압안마원,경상북도 포항시 남구 상도로26번길 19 (상도동),277-1990,129.3548946,36.0112846,경상북도 포항시 남구 상도로26번길 19
태을지압안마원,"경상북도 포항시 남구 대이로 112-3 (대잠동, 이동시장상가 2층)",275-1771,129.3418031,36.0251394,경상북도 포항시 남구 대이로 112-3 대이동종합상가
사계절 건강 지압원,경상남도 사천시 벌리2길 7 (벌리동),,128.0808960,34.9399242,경상남도 사천시 벌리2길 7 어썸초밥
웰빙안마원,"부산광역시 부산진구 당감서로9번길 3, 1층 (당감동)",896-7575,129.0362121,35.1615931,부산광역시 부산진구 당감서로9번길 3
약수안마원,"서울특별시 중구 동호로10길 30, 3층 305호 (신당동, 약수하이츠상가동)",02-2233-3040,127.0147458,37.5548919,서울특별시 중구 동호로10길 30 약수하이츠
노벨안마원,"부산광역시 부산진구 새싹로 30, 104호 (부전동, 경동파크타워)",051-803-5599,129.0573287,35.1606013,부산광역시 부산진구 새싹로 30 경동파크타워
우리들안마원,부산광역시 동래구 반송로 237 (안락동),527-7975,129.0986221,35.2019110,부산광역시 동래구 반송로 237
실로암안마원,"대전광역시 동구 흥룡로 60, 201-2호 (가양동)",042-638-2455,127.4504051,36.3500293,대전광역시 동구 흥룡로 60
방승권안마원,대전광역시 동구 태전로 132-11 (삼성동),042-222-5805,127.4223459,36.3404959,대전광역시 동구 태전로 132-11
태평안마원,"경기도 성남시 수정구 성남대로 1235, 503호 (태평동, 연안빌딩)",031-757-4452,127.1273342,37.4400501,경기도 성남시 수정구 성남대로 1235 연안빌딩
유명안마원,"대전광역시 중구 동서대로 1420 (선화동,2층)",042-632-7979,127.4139316,36.3347335,대전광역시 중구 동서대로 1420
라파건강안마원,"경기도 성남시 분당구 성남대로331번길 13, 402호 (정자동, 백궁프라자)",719-9062,127.1063141,37.3653029,경기도 성남시 분당구 성남대로331번길 13
장수안마원,"대전광역시 중구 계룡로 835, 2층 (용두동)",042-222-8575,127.4084843,36.3260648,대전광역시 중구 계룡로 835
약손365안마원,"서울특별시 양천구 목동중앙북로7길 13, 3층 (목동)",2655-2200,126.8672854,37.5487456,서울특별시 양천구 목동중앙북로7길 13 남강빌딩
참빛안마원,"대전광역시 중구 문화로78번안길 21 (산성동,1층)",042-583-2369,127.3956364,36.3111923,대전광역시 중구 문화로78번안길 21
근풀림안마원,대전광역시 중구 계룡로 876 (오류동),042-523-8589,127.4110631,36.3232333,대전광역시 중구 계룡로 876
정주안마원,서울특별시 양천구 오목로24길 17-1 (신정동),2608-9032,126.8525355,37.5227274,서울특별시 양천구 오목로24길 17-1
자오안마원,부산광역시 동래구 아시아드대로 250 (온천동),501-7532,129.0685936,35.2058736,부산광역시 동래구 아시아드대로 250
지성안마지압원,"부산광역시 금정구 동부곡로12번길 39, 1층 (부곡동)",051-512-5152,129.0946918,35.2248097,부산광역시 금정구 동부곡로12번길 39
와이지한국보건안마원,"경기도 고양시 일산동구 중앙로 1048, 606호 (백석동, 일산르메이에르프라자)",031-906-2235,126.7878807,37.6436761,경기도 고양시 일산동구 중앙로 1048 일산르메이에르프라자
푸른지압원,"부산광역시 해운대구 양운로 88 (좌동,해운대쌍용플래티넘트원 102-203)",923-7575,129.1752589,35.1708521,부산광역시 해운대구 양운로 88 해운대쌍용플래티넘트윈
센텀엘림안마원,"부산광역시 해운대구 센텀3로 20 (우동,센텀호텔 318호)",720-8100,129.1329585,35.1678901,부산광역시 해운대구 센텀3로 20 벡스코 비지니스호텔
통증없는 바른몸 안마원,부산광역시 해운대구 아랫반송로 13-1 (반송동),544-9675,129.1476493,35.2255748,부산광역시 해운대구 아랫반송로 13-1
썬안마지압원,"부산광역시 해운대구 재반로103번가길 58, 1층 (재송동, 신아씽크공장)",051-731-0399,129.1263471,35.1901725,부산광역시 해운대구 재반로103번가길 58
충무지압안마원,"부산광역시 서구 구덕로124번길 8-1 (토성동4가,(2층))",051-247-0129,129.0226683,35.0970505,부산광역시 서구 구덕로124번길 8-1
새아침안마원,서울특별시 양천구 신월로 309-1 (신정동),2695-6666,126.8553185,37.5218121,서울특별시 양천구 신월로 309-1
라파안마원,"서울특별시 양천구 중앙로 237, 5층 507호 (신정동)",2647-7975,126.8536541,37.5177474,서울특별시 양천구 중앙로 237
예림안마원,부산광역시 서구 대영로 78 (동대신동1가),051-255-3175,129.0197022,35.1103374,부산광역시 서구 대영로 78 동대맨션
진성약손안마지압원,"부산광역시 서구 천마로 226-1, 1층 (충무동2가)",051-245-8248,129.0225310,35.0956992,부산광역시 서구 천마로 226-1
서면제일약손안마원,"부산광역시 부산진구 새싹로 26-1, 3층 (부전동)",808-3882,129.0573950,35.1601624,부산광역시 부산진구 새싹로 26-1
푸른지압안마원,"경기도 고양시 일산서구 중앙로 1371 (주엽동, 뉴서울프라자 3층)",031-908-0789,126.7659773,37.6665669,경기도 고양시 일산서구 중앙로 1371 강선마을13단지아파트
싼타,"경기도 안산시 단원구 선부광장1로 62, 503,504호 (선부동, 동원빌딩)",031-411-4390,126.8112973,37.3362965,경기도 안산시 단원구 선부광장1로 62 동원상가빌딩
다나시술원,강원도 속초시 중앙로 406 (장사동),,128.5884620,38.2240763,강원도 속초시 중앙로 406
샬롬안마원,대전광역시 동구 새울로 90 (용운동),042-286-0332,127.4617835,36.3263722,대전광역시 동구 새울로 90
원강안마테라피안마원,강원도 양구군 양구읍 장터길 12,033-482-7896,127.9908753,38.1036223,강원도 양구군 양구읍 장터길 12
유명지압침술원,경상남도 밀양시 무안면 문화중앙길 18-1,352-0062,128.6496699,35.4676020,경상남도 밀양시 무안면 문화중앙길 18-1
행림안마원,경상남도 밀양시 하송정3길 26 (내이동),356-0855,128.7494461,35.4983547,경상남도 밀양시 하송정3길 26
OK 안마 지압원,광주광역시 광산구 사암로 286 (월곡동),062-456-7575,126.8093112,35.1698072,광주광역시 광산구 사암로 286
길인배 안마원,강원도 춘천시 효자로 63 (효자동),033-251-5588,127.7303933,37.8695058,강원도 춘천시 효자로 63
김영삼 시술소,강원도 춘천시 공지로 442-17 (근화동),033)256-0303,127.7181647,37.8743398,강원도 춘천시 공지로 442-17
호반 안마원,강원도 춘천시 소양로 174 (소양로2가),033-255-1471,127.7250999,37.8886096,강원도 춘천시 소양로 174
한림침안마시술원,강원도 인제군 인제읍 비봉로 9-2,461-3208,128.1729674,38.0682416,강원도 인제군 인제읍 비봉로 9-2
태림시술원,강원도 춘천시 시청길10번길 11 (조양동),033-257-3332,127.7293089,37.8796063,강원도 춘천시 시청길10번길 11
승록안마원,강원도 춘천시 번개시장길 5 (소양로1가),033)242-7588,127.7257273,37.8899224,강원도 춘천시 번개시장길 5
정다운 안마원,강원도 춘천시 춘주로92번길 19 (온의동),033-241-0325,127.7189472,37.8604507,강원도 춘천시 춘주로92번길 19
바오로안마원,강원도 춘천시 성심로47번길 32 (후평동),033)244-2999,127.7437908,37.8806215,강원도 춘천시 성심로47번길 32
함수영건강지킴이안마원,강원도 춘천시 효제길 34 (효자동),242-5123,127.7368504,37.8711278,강원도 춘천시 효제길 34
시원안마원,"강원도 춘천시 애막골길16번길 22-1 (석사동,1층)",033-263-7588,127.7494069,37.8631534,강원도 춘천시 애막골길16번길 22-1
새아침안마원,"강원도 원주시 중앙시장길 6 (중앙동,중앙시장 라동 27호)",,127.9491964,37.3500139,강원도 원주시 중앙시장길 6 중앙시장
명안마원,"강원도 원주시 중앙시장길 11 (중앙동,자유시장 지하 나-7호)",,127.9487726,37.3508090,강원도 원주시 중앙시장길 11 자유시장
에덴지압시술원,강원도 원주시 강변로 211-3 (단구동),033-764-1211,127.9627402,37.3268787,강원도 원주시 강변로 211-3
건강안마원,"강원도 원주시 한지공원길 94-34, 101, 104호 (명륜동, 현대아파트 상가)",033-766-0090,127.9401313,37.3354996,강원도 원주시 한지공원길 94-34 현대아파트
베데스다 안마원,강원도 원주시 금불4길 32 (단계동),033-731-9675,127.9331204,37.3496436,강원도 원주시 금불4길 32
권성길서울안마원,"강원도 원주시 남산로 180, 1층 112호 (학성동, 대성빌딩)",033-900-7899,127.9407638,37.3520685,강원도 원주시 남산로 180
엄지지압안마원,"서울특별시 중랑구 면목로85길 8, 성우빌딩 2층 201호 (상봉동)",02-496-9703,127.0857637,37.5933418,서울특별시 중랑구 면목로85길 8 성우빌딩
해든손 지압원,"광주광역시 광산구 임방울대로 334, 노블메디컬센터 8층 (수완동)",062-954-4040,126.8241600,35.1897833,광주광역시 광산구 임방울대로 334
김연서라파안마원,"인천광역시 계양구 하느재로5번길 5, 2층 203호 (계산동)",,126.7244585,37.5439140,인천광역시 계양구 하느재로5번길 5
건강사랑안마사랑,전라북도 익산시 선화로33길 60 (남중동),063-854-0195,126.9554462,35.9508391,전라북도 익산시 선화로33길 60
두드림안마원,"전라북도 익산시 동서로5길 129, 삼우약국 (신동)",,126.9615605,35.9599719,전라북도 익산시 동서로5길 129 삼우약국
장수안마원,전라북도 익산시 인북로24길 2 (남중동),063-832-9898,126.9550136,35.9411833,전라북도 익산시 인북로24길 2 게임박스피씨방
재생지압침술원,경상남도 밀양시 터미널3길 13 (내이동),352-3175,128.7430010,35.4997253,경상남도 밀양시 터미널3길 13
쵸이스안마시술소,"경상남도 통영시 안개로 32, 2,3층 (무전동)",641-5285,128.4309411,34.8582080,경상남도 통영시 안개로 32 국일안마시술소
참좋은지압안마원,"경상남도 통영시 새터길 18, 2층 (서호동)",055-646-9981,128.4181154,34.8408719,경상남도 통영시 새터길 18 용정크럽
정선생지압안마원,"경상남도 김해시 번화1로68번길 7, 204호 (대청동, 장안플라자)",,128.8007019,35.1939039,경상남도 김해시 번화1로68번길 7 장안플라자
구민시술원,강원도 고성군 간성읍 간성로 75,,128.4665739,38.3793566,강원도 고성군 간성읍 간성로 75 가마솥소머리
장유힐링지압원,경상남도 김해시 능동로7번길 8-23 (삼문동),055)323-7588,128.7952160,35.1969429,경상남도 김해시 능동로7번길 8-23
백양지압원,경상남도 김해시 삼안로 228 (삼방동),055-326-7798,128.9110661,35.2484425,경상남도 김해시 삼안로 228 동원아파트 상가10동
하늘약손안마원,"대전광역시 대덕구 계족로521번길 34, 102호 (중리동)",,127.4305782,36.3584812,대전광역시 대덕구 계족로521번길 34
와아! 지압안마원,"대전광역시 대덕구 중리동로56번길 24, 1층 (중리동)",042-321-7441,127.4301900,36.3642955,대전광역시 대덕구 중리동로56번길 24
큰손안마원,대전광역시 대덕구 한남로 115 (오정동),,127.4169526,36.3489477,대전광역시 대덕구 한남로 115
금강안마원,"대전광역시 대덕구 옛신탄진로 121, 2층 (오정동, 대림빌딩)",042-622-4822,127.4193018,36.3503996,대전광역시 대덕구 옛신탄진로 121 대림빌딩
강덕안마원,대전광역시 서구 계룡로342번길 207 (갈마동),042-531-1556,127.3668659,36.3446542,대전광역시 서구 계룡로342번길 207 강덕침술원
약손지압안마원,"대전광역시 서구 벌곡로1285번길 120, 3층 (가수원동)",042-545-7259,127.3507080,36.2948620,대전광역시 서구 벌곡로1285번길 120
건강한안마원,"대전광역시 서구 둔산중로 20, 207호 (탄방동)",482-7913,127.3872723,36.3484004,대전광역시 서구 둔산중로 20 나비家 아르누보팰리스
조완종안마원,대전광역시 서구 괴정로8번길 113 (괴정동),532-1907,127.3797306,36.3364258,대전광역시 서구 괴정로8번길 113
백세건강지압원,경상남도 김해시 가락로93번길 7 (서상동),903-7416,128.8804116,35.2346574,경상남도 김해시 가락로93번길 7
미소안마원,"대전광역시 유성구 지족로 367, 5층 (지족동, 타워프라자)",472-7505,127.3170958,36.3869080,대전광역시 유성구 지족로 367
라파지압원,경상남도 김해시 진영읍 여래로 27,346-2252,128.7348017,35.3036957,경상남도 김해시 진영읍 여래로 27
송경진지압안마원,"대전광역시 서구 대덕대로168번길 26, 3층 301호 (갈마동)",042-525-9675,127.3772380,36.3470643,대전광역시 서구 대덕대로168번길 26 동원빌딩
고침안마원,"대전광역시 서구 도마로 51 (변동, 성암화인빌 1층)",522-4008,127.3760136,36.3225233,대전광역시 서구 도마로 51 성암화인빌
웰빙안마원,"경상남도 김해시 함박로119번길 18, 208동 205,206호 (외동, 덕산아파트 부상가)",336-4446,128.8677170,35.2336301,경상남도 김해시 함박로119번길 18 덕산아파트상가
로뎀지압원,"경상남도 김해시 내외중앙로 44 (외동,덕산베스트코아 703호)",055-328-6489,128.8668900,35.2338863,경상남도 김해시 내외중앙로 44
한빛시술원,경상남도 김해시 호계로517번길 27 (서상동),055-336-7457,128.8812630,35.2364477,경상남도 김해시 호계로517번길 27
햇빛안마클리닉,"경상남도 거제시 옥포로 250, 2층 (옥포동)",055-687-8563,128.6900696,34.8969216,경상남도 거제시 옥포로 250 옥현시장
건강지킴 안마원,"대전광역시 서구 도산로 342, 2층 (용문동)",,127.3899338,36.3354903,대전광역시 서구 도산로 342
지압박사 안마원,"부산광역시 수영구 수영로384번길 26, 2층 (남천동)",051-622-2807,129.1075625,35.1398634,부산광역시 수영구 수영로384번길 26
한성안마원,부산광역시 동구 고관로 164 (좌천동),632-1122,129.0507061,35.1315811,부산광역시 동구 고관로 164
HC힐링안마원,"부산광역시 동구 범일로 113, 2층 (범일동)",204-7575,129.0589619,35.1400766,부산광역시 동구 범일로 113
수안보안마시술소,"경기도 성남시 분당구 분당로53번길 15, 5층 501호 (서현동, 산호트윈스 )",031-702-7492,127.1219843,37.3843561,경기도 성남시 분당구 분당로53번길 15 산호트윈스
놀부안마원,대전광역시 동구 옻밭5길 112 (판암동),272-1440,127.4520950,36.3201965,대전광역시 동구 옻밭5길 112
해비침지압원,제주특별자치도 제주시 신광로4길 36-1 (연동),064-746-0078,126.4861893,33.4890901,제주특별자치도 제주시 신광로4길 36-1 태아빌
김해숙힐링안마원,서울특별시 남부순환로 1526,864-7578,126.9202393,37.4826184,서울특별시 관악구 남부순환로 1526 풍진빌딩
수풀림안마원,"부산광역시 중구 중앙대로 80, 노블리안2 지하1층 B101호 (중앙동4가)",051-462-9595,129.0367199,35.1047917,부산광역시 중구 중앙대로 80 노블리안2
가람지압안마원,"부산광역시 해운대구 해운대로469번길 138, 1층 (우동)",747-1771,129.1415662,35.1684621,부산광역시 해운대구 해운대로469번길 138
마이더스(MIDAS)안마원,"부산광역시 해운대구 재반로 89-5, 2층 (재송동)",051-783-1950,129.1251437,35.1867108,부산광역시 해운대구 재반로 89-5 김해뒷고기
백세건강지압안마원,"부산광역시 해운대구 윗반송로51번길 91-31, 2층 (반송동)",051-542-6764,129.1554123,35.2315547,부산광역시 해운대구 윗반송로51번길 91-31
신세계지압안마원,"부산광역시 해운대구 재반로 204, 202-1호 (반여동, 야무진 FASHION)",051-990-9679,129.1308859,35.1953722,부산광역시 해운대구 재반로 204 야무진 FASHION
다원약손안마원,"부산광역시 해운대구 윗반송로51번길 37-29, 1,2층 (반송동)",0515428397,129.1546607,35.2302248,부산광역시 해운대구 윗반송로51번길 37-29
수앤수,"부산광역시 해운대구 해운대로 814, A동 306호 (좌동, 세종월드프라자)",701-1144,129.1776778,35.1695768,부산광역시 해운대구 해운대로 814 세종월드프라자
용인안마원,부산광역시 사하구 다대로140번길 163 (신평동),051-203-7297,128.9745487,35.0929255,부산광역시 사하구 다대로140번길 163
드림안마시술소,"서울특별시 영등포구 경인로 832, 2층 (영등포동)",2633-2217,126.9054682,37.5157307,서울특별시 영등포구 경인로 832 대성빌딩
성심안마원,"부산광역시 사하구 다대로136번길 6, 2층 (신평동)",202-7997,128.9775942,35.0904703,부산광역시 사하구 다대로136번길 6
해동지압원,부산광역시 사하구 장림번영로 105 (장림동),051-262-8397,128.9768667,35.0808106,부산광역시 사하구 장림번영로 105
제니스안마시술소,"부산광역시 사하구 낙동남로1423번길 17, 7층 (하단동)",051-205-0566,128.9665887,35.1072942,부산광역시 사하구 낙동남로1423번길 17
재생안마원,"부산광역시 사하구 낙동대로 301, 206호 (괴정동,일동지엔닌상가)",051-293-0994,128.9843313,35.0989879,부산광역시 사하구 낙동대로 301 일동지에닌
덕심지압원,"부산광역시 사하구 낙동대로356번길 19, 1층 (당리동)",051-903-6517,128.9796357,35.1022709,부산광역시 사하구 낙동대로356번길 19
양지안마지압원,"부산광역시 사하구 낙동대로 376, 3층 (당리동)",205-2522,128.9771593,35.1026455,부산광역시 사하구 낙동대로 376
효사랑안마지압원,"부산광역시 사하구 장평로449번길 26, 1층 101호 (괴정동, 천아하늘정원2차아파트)",051-205-3331,128.9853488,35.0987569,부산광역시 사하구 장평로449번길 26 천아하늘정원2차아파트
행복한 힐링 안마원,부산광역시 사하구 동매로81번길 1 (하단동),,128.9669397,35.1025767,부산광역시 사하구 동매로81번길 1
착한손바른안마원,"부산광역시 기장군 정관읍 정관로 499, 4층 401호 (드림빌딩)",727-2778,129.1708156,35.3256952,부산광역시 기장군 정관읍 정관로 499
영생안마원,경상북도 구미시 산호대로25길 25-16 (옥계동),,128.4158485,36.1399709,경상북도 구미시 산호대로25길 25-16
서울안마원,경상북도 구미시 역전로 31 (원평동),054-456-3677,128.3323777,36.1315114,경상북도 구미시 역전로 31
임마누엘안마원,경상북도 구미시 금오산로 49-4 (원평동),054-457-7512,128.3376968,36.1276759,경상북도 구미시 금오산로 49-4
약손안마원,"경상북도 구미시 상사동로 169 (사곡동,금실타운 1차 107호)",054-464-7582,128.3588396,36.0997985,경상북도 구미시 상사동로 169
으랏차차경락지압안마원,경상북도 경주시 초당길55번길 7-1 (동천동),,129.2348526,35.8448185,경상북도 경주시 초당길55번길 7-1
맑은손 안마센타(원),경상북도 경주시 동성로 29 (성건동),,129.2035516,35.8436895,경상북도 경주시 동성로 29
척추지압안마원,울산광역시 동구 방어진순환도로 715 (전하동),052-233-4275,129.4295387,35.5055742,울산광역시 동구 방어진순환도로 715
약청사안마원,부산광역시 중구 흑교로 79 (보수동2가),051-247-3110,129.0232154,35.1061912,부산광역시 중구 흑교로 79
손안마원,부산광역시 중구 대청로99번길 19-4 (대청동4가),,129.0308751,35.1046252,부산광역시 중구 대청로99번길 19-4
한서안마원,부산광역시 남구 못골번영로 79-1 (대연동),051)622-8275,129.0887175,35.1422843,부산광역시 남구 못골번영로 79-1
영도안마원,부산광역시 영도구 동삼서로 6-4 (동삼동),403-6829,129.0687800,35.0794420,부산광역시 영도구 동삼서로 6-4
다나으리안마원,"충청북도 충주시 용정3길 28, 1층 (용산동)",,127.9364491,36.9661018,충청북도 충주시 용정3길 28
서울보건안마원,"서울특별시 영등포구 당산로 214, 지하1층 (당산동5가, 당산삼성래미안 상가)",2069-1114,126.9031452,37.5322866,서울특별시 영등포구 당산로 214 당산 삼성 래미안
조병일안마원,충청북도 충주시 동량면 지등로 3,853-0915,127.9271062,37.0306805,충청북도 충주시 동량면 지등로 3
타타타지압안마원,충청북도 충주시 천변로 221 (교현동),,127.9324431,36.9751440,충청북도 충주시 천변로 221
나이스 안마원,제주특별자치도 제주시 중앙로 284 (이도이동),064-725-6226,126.5329938,33.4950569,제주특별자치도 제주시 중앙로 284
동두천지압안마원,"경기도 동두천시 생골로 16, 1층 (생연동)",031-865-7852,127.0597571,37.9001597,경기도 동두천시 생골로 16
명문당지압안마원,경기도 동두천시 어수로106번길 16 (생연동),031-865-6866,127.0541544,37.9015186,경기도 동두천시 어수로106번길 16
백선생 약손안마원,"광주광역시 서구 상무공원로 114, 2층 204호 (치평동, 해광한신아파트)",,126.8439504,35.1543957,광주광역시 서구 상무공원로 114 해광한신아파트
약손 경락 지압 마사지 안마센터,충청북도 보은군 보은읍 삼산남로 23-2,543-544-8875,127.7200724,36.4826001,충청북도 보은군 보은읍 삼산남로 23-2
건강지압센터 손수,"광주광역시 서구 상무중앙로28번길 4, 세진빌딩 5층 505호 (치평동)",062-383-0705,126.8489171,35.1491338,광주광역시 서구 상무중앙로28번길 4 세진빌딩
주안마원,부산광역시 남구 수영로219번길 6 (대연동),051-623-1722,129.0906129,35.1353587,부산광역시 남구 수영로219번길 6
동삼안마원,"부산광역시 영도구 동삼로 68, 3층 (동삼동)",403-4174,129.0703957,35.0795044,부산광역시 영도구 동삼로 68
영성물리안마원,부산광역시 남구 전포대로 76 (문현동),051)634-7576,129.0670858,35.1435624,부산광역시 남구 전포대로 76
라파안마원,인천광역시 계양구 계양문화로 86 (용종동),032-555-1522,126.7371321,37.5383265,인천광역시 계양구 계양문화로 86
연산우리들안마원,"부산광역시 연제구 월드컵대로 10, 1층 (연산동)",051-544-9928,129.0865152,35.1755731,부산광역시 연제구 월드컵대로 10
소생안마원,"부산광역시 연제구 거제천로118번길 23, 상가동 203호 (연산동, 엔학미지앙)",,129.0760655,35.1838899,부산광역시 연제구 거제천로118번길 23 엔학미지앙
약손안마원,부산광역시 북구 만덕대로 129 (덕천동),051-332-5632,129.0188318,35.2133433,부산광역시 북구 만덕대로 129
초원안마지압원,"부산광역시 남구 고동골로78번길 54 (문현동, 삼부맨션)",635-8006,129.0743532,35.1437887,부산광역시 남구 고동골로78번길 54 삼부맨션
행복지압안마원,"부산광역시 북구 만덕3로 15, 1층 (만덕동)",051-334-1925,129.0259089,35.2124922,부산광역시 북구 만덕3로 15
그린안마원,"부산광역시 북구 백양대로 1022-1, 2층 (구포동)",051-343-7579,128.9952531,35.1969171,부산광역시 북구 백양대로 1022-1
화명지압안마원,"부산광역시 북구 금곡대로303번길 12, 샤롯데 2층 203호 (화명동)",051-362-7575,129.0130605,35.2356812,부산광역시 북구 금곡대로303번길 12 샤롯데
기혈경락지압원,광주광역시 북구 서방로160번길 18 (두암동),,126.9292943,35.1685015,광주광역시 북구 서방로160번길 18
김성심건강안마원,"부산광역시 남구 수영로 282, 310호 (대연동, 현대오피스텔)",051)918-7575,129.0974388,35.1358271,부산광역시 남구 수영로 282 현대오피스텔
벧엘안마원,부산광역시 남구 석포로 125 (대연동),051)624-8872,129.0911268,35.1285944,부산광역시 남구 석포로 125
수안지압원,"울산광역시 동구 진성1길 47 (전하동, 한라한빛타운 상가)",0522326777,129.4264396,35.5120606,울산광역시 동구 진성1길 47 한라한빛타운 상가
정안마원,서울특별시 관악구 남부순환로 1703 (봉천동),873-2879,126.9395413,37.4836028,서울특별시 관악구 남부순환로 1703
다나안마원,"대전광역시 동구 대전로 758 (원동,뜰안채 2층)",042-285-8575,127.4350737,36.3275952,대전광역시 동구 대전로 758 뜰안채주상복합
안마원의품격,"울산광역시 중구 동천6길 12, 101호 (서동, 해성빌라트)",292-4585,129.3453584,35.5825757,울산광역시 중구 동천6길 12 해성빌라트
목포시각안마원,전라남도 목포시 소영길 20-1 (용당동),061-981-1000,126.3971991,34.8052962,전라남도 목포시 소영길 20-1
MR강안마원,"서울특별시 강동구 구천면로 300, 2층 (천호동)",02-483-8843,127.1342670,37.5463950,서울특별시 강동구 구천면로 300
사랑의약손안마원,"전라남도 목포시 옥암로 20, 2층 (옥암동)",061-284-1175,126.4309201,34.8017923,전라남도 목포시 옥암로 20
클린안마센터 전남1호점,전라남도 목포시 삼향천로91번길 16-1 (옥암동),,126.4293619,34.8074997,전라남도 목포시 삼향천로91번길 16-1
은혜안마원,,489-0489,,,
참조은안마원,전라남도 목포시 신흥로 62 (상동),,126.4270388,34.8037587,전라남도 목포시 신흥로 62
청안지압안마원,"전라남도 목포시 백년대로266번길 31, 2층 (상동)",061-283-5548,126.4192963,34.7999142,전라남도 목포시 백년대로266번길 31
한빛안마원,전라남도 목포시 삼학로145번길 8 (산정동),061-243-0461,126.4002899,34.7879603,전라남도 목포시 삼학로145번길 8
희나리안마원,전라남도 목포시 하당로 185 (상동),,126.4173219,34.8072154,전라남도 목포시 하당로 185
동인방지압원,전라남도 목포시 하당로221번길 4 (상동),061-282-0366,126.4207689,34.8090672,전라남도 목포시 하당로221번길 4
소망지압안마원,"서울특별시 강동구 양재대로133길 16, 1층 (천호동)",02-475-7576,127.1424800,37.5479961,서울특별시 강동구 양재대로133길 16
건강으뜸안마원,"전라남도 여수시 좌수영로 지하 268 (오림동, 여수버스터미널)",,,,
클린안마센터서울5호점,서울특별시 강남구 일원로9길 10 (일원동),445-0530,127.0823911,37.4894430,서울특별시 강남구 일원로9길 10
청홍안마원,"서울특별시 강남구 압구정로28길 22-11, 3층 301호 (신사동)",,127.0266276,37.5249444,서울특별시 강남구 압구정로28길 22-11
강남지압안마원,"서울특별시 강남구 도곡로63길 23, 2층 (대치동, 성진회관)",568-8811,127.0537955,37.4984276,서울특별시 강남구 도곡로63길 23 성진회관
동명안마원,전라남도 해남군 삼산면 시등안길 37,061-532-7470,126.5497259,34.5186156,전라남도 해남군 삼산면 시등안길 37 동명안마시술원
백세지압안마원,"서울특별시 강남구 삼성로104길 7, 2층 (삼성동)",949-9090,127.0552249,37.5108974,서울특별시 강남구 삼성로104길 7
쉼팡 마사지 지압원,"제주특별자치도 서귀포시 중앙로62번길 5, 3층 (서귀동)",,126.5619440,33.2502612,제주특별자치도 서귀포시 중앙로62번길 5 문경빌딩
역삼지압안마원,"서울특별시 강남구 언주로98길 13-3, 101호 (역삼동)",555-9988,127.0429992,37.5052079,서울특별시 강남구 언주로98길 13-3
쉼표안마원,"서울특별시 강남구 일원로3길 50, 지하 1층 (일원동)",3411-7676,127.0839743,37.4923307,서울특별시 강남구 일원로3길 50
서귀안마원,제주특별자치도 서귀포시 중산간서로 606 (대포동),064-738-1462,126.4505874,33.2624840,제주특별자치도 서귀포시 중산간서로 606
중문마사지,제주특별자치도 서귀포시 중문관광로 348 (중문동),,126.4317270,33.2511135,제주특별자치도 서귀포시 중문관광로 348
25시중문안마원,"제주특별자치도 서귀포시 중문상로 41-3, 2층 (중문동)",,126.4252313,33.2520369,제주특별자치도 서귀포시 중문상로 41-3 중문 스마트빌
하나안마원,"서울특별시 강남구 논현로66길 13, 202호 (역삼동)",02-3432-8852,127.0413389,37.4944078,서울특별시 강남구 논현로66길 13 쉐누빌
청우안마원,대전광역시 동구 용운로 19 (대동),042-284-4844,127.4453281,36.3285877,대전광역시 동구 용운로 19
스타안마시술소,"전라남도 목포시 번영로 31 (상동,6,7층)",,126.4286669,34.8021340,전라남도 목포시 번영로 31
가가 지압원,"전라남도 목포시 하당로 189 (상동,(2층))",281-9875,126.4176401,34.8073626,전라남도 목포시 하당로 189
참사랑안마원,전라남도 순천시 중앙초등길 4 (풍덕동),,127.4990263,34.9456509,전라남도 순천시 중앙초등길 4
몸사랑지압원,"울산광역시 남구 옥현로46번길 5-2, 2층 (무거동)",,129.2616820,35.5404581,울산광역시 남구 옥현로46번길 5-2
레인보우안마원,"서울특별시 강북구 도봉로 157, 201호 (미아동, 두원프라자)",02-945-7543,127.0270026,37.6228299,서울특별시 강북구 도봉로 157 두원프라자
지명안마원,"울산광역시 중구 강정6길 28, 2층 (우정동)",245-0975,129.3147198,35.5565935,울산광역시 중구 강정6길 28
엔젤안마원,울산광역시 북구 명촌13길 5-1 (명촌동),052-287-3335,129.3518008,35.5555399,울산광역시 북구 명촌13길 5-1
전통안마지압원,"서울특별시 중구 퇴계로88길 61, 3층 (신당동)",2238-8085,127.0195635,37.5632753,서울특별시 중구 퇴계로88길 61
언양안마시술소,"울산광역시 울주군 언양읍 헌양길 54, 4층",052-263-2717,129.1242947,35.5652773,울산광역시 울주군 언양읍 헌양길 54
장태수정통안마원,"서울특별시 강북구 한천로 1073, 3층 (수유동, 만양빌딩)",02-996-8877,127.0236651,37.6419992,서울특별시 강북구 한천로 1073 만양빌딩
YG힐링안마원,"서울특별시 관악구 남부순환로 1943, 2층 (봉천동)",070-8861-1515,126.9651461,37.4767346,서울특별시 관악구 남부순환로 1943
김영식지압안마원,울산광역시 남구 남부순환도로 17 (무거동),,129.2642140,35.5480354,울산광역시 남구 남부순환도로 17
바른손지압안마원,울산광역시 남구 문수로369번길 16 (옥동),,129.2941954,35.5360188,울산광역시 남구 문수로369번길 16
바른손길안마원,"서울특별시 관악구 관악로15길 6, 4층 (봉천동)",02-878-1275,126.9520784,37.4804114,서울특별시 관악구 관악로15길 6
태양지압교정원,울산광역시 남구 수암로115번길 6-18 (신정동),,129.3212696,35.5285135,울산광역시 남구 수암로115번길 6-18
태양지압안마원,"서울특별시 금천구 금하로11길 8 (시흥동,1층)",896-7575,126.9033965,37.4543585,서울특별시 금천구 금하로11길 8
봉순안마시술소,전라남도 순천시 성동교길 30 (장천동),745-4600,127.4910523,34.9514510,전라남도 순천시 성동교길 30 봉순단란주점
영생지압안마원,"울산광역시 남구 월평로 66, 2층 (신정동)",276-4600,129.3126927,35.5420607,울산광역시 남구 월평로 66
동양지압안마원,울산광역시 남구 삼산로317번길 12-7 (삼산동),292-7475,129.3422190,35.5411392,울산광역시 남구 삼산로317번길 12-7
안남준지압안마원,"울산광역시 남구 삼산로77번길 10, 104호 (달동)",258-2426,129.3160370,35.5353750,울산광역시 남구 삼산로77번길 10 시원다이너스티빌리지
수앤수안마원,"울산광역시 남구 삼산로 125, 2층 (달동)",052-999-9888,129.3210229,35.5360920,울산광역시 남구 삼산로 125
서울보건안마원,"서울특별시 강남구 개포로 510, 현대빌딩 401호 (개포동)",,127.0683608,37.4892964,서울특별시 강남구 개포로 510 현대빌딩
제일지압안마원,"울산광역시 남구 문수로369번길 32, 1층 (신정동)",,129.2945733,35.5371771,울산광역시 남구 문수로369번길 32
슈퍼맨안마시술소,"울산광역시 남구 신복로22번길 20, 4층 (무거동)",224-2838,129.2601645,35.5503767,울산광역시 남구 신복로22번길 20
성신수기원,"울산광역시 남구 돋질로37번길 36, 2층 (신정동)",,129.3089926,35.5404466,울산광역시 남구 돋질로37번길 36
힐링 안마원,울산광역시 남구 중앙로156번길 51 (달동),,129.3196646,35.5366116,울산광역시 남구 중앙로156번길 51
명약안마원,전라남도 고흥군 남양면 운교주곡길 36-4,,127.3348586,34.7415304,전라남도 고흥군 남양면 운교주곡길 36-4
늘봄안마원,"전라남도 광양시 공영로 74, 3층 (중동)",061-794-8985,127.6971347,34.9356973,전라남도 광양시 공영로 74
침사랑안마지압원,대전광역시 대덕구 계족산로43번길 14 (중리동),635-7550,127.4361922,36.3630251,대전광역시 대덕구 계족산로43번길 14
